PK;NOMBRE;DESCRIPCION-ENTIDAD;HORARIO;EQUIPAMIENTO;TRANSPORTE;DESCRIPCION;ACCESIBILIDAD;CONTENT-URL;NOMBRE-VIA;CLASE-VIAL;TIPO-NUM;NUM;PLANTA;PUERTA;ESCALERAS;ORIENTACION;LOCALIDAD;PROVINCIA;CODIGO-POSTAL;BARRIO;DISTRITO;COORDENADA-X;COORDENADA-Y;LATITUD;LONGITUD;TELEFONO;FAX;EMAIL;TIPO;
176850;"Colegio Público Adolfo Suárez";"";"";"Comedor - Horario ampliado - Planes de mejora.";"BUS: 174";"ENSEÑANZAS: Segundo ciclo de E. Infantil - Primaria - Educación Secundaria Obligatoria";"0";"http://www.madrid.es/sites/v/index.jsp?vgnextchannel=bfa48ab43d6bb410VgnVCM100000171f5a0aRCRD&vgnextoid=a9344b6faa61c010VgnVCM1000000b205a0aRCRD";"INFANTA CATALINA MICAELA";"CALLE";"NUM";"31";"";"";"";"";"MADRID";"MADRID";"28050";"VALDEFUENTES";"HORTALEZA";"444807";"4482402";"40.48860266655876";"-3.6525544243312855";"917 502 058 / 676 562 792";"917 502 058";"";"/contenido/entidadesYorganismos/CentrosEducacion/ColegiosPublicos"; 
5075;"Colegio Público Agustina Díez";"";"";"Comedor - Horario ampliado";"METRO: Alto del Arenal BUS: 54 , 58 , 103 , 143";"ENSEÑANZA: Educación infantil - Primaria";"0";"http://www.madrid.es/sites/v/index.jsp?vgnextchannel=bfa48ab43d6bb410VgnVCM100000171f5a0aRCRD&vgnextoid=dd68a3f5ca71c010VgnVCM1000000b205a0aRCRD";"VESUBIO";"CALLE";"NUM";"5";"";"";"";"";"MADRID";"MADRID";"28038";"PORTAZGO";"PUENTE DE VALLECAS";"445067";"4471046";"40.3881909372302";"-3.647236724917086";"917 770 073";"917 770 073";"";"/contenido/entidadesYorganismos/CentrosEducacion/ColegiosPublicos"; 
4693138;"Colegio Público Agustín Rodriguez Sahagún";"";"";"Horario ampliado - Comedor - Planes de mejora";"Bus: 142";"ENSEÑANZA: Educacion Infantil - Primaria - Enseñanza biling&amp;uuml;e";"0";"http://www.madrid.es/sites/v/index.jsp?vgnextchannel=bfa48ab43d6bb410VgnVCM100000171f5a0aRCRD&vgnextoid=706c615f4eb66110VgnVCM1000000b205a0aRCRD";"LA GRANJA DE SAN ILDEFONSO";"CALLE";"V";"17";"";"";"";"";"MADRID";"MADRID";"28031";"CASCO H.VALLECAS";"VILLA DE VALLECAS";"447178";"4468793";"40.36803998494376";"-3.6221677428793977";"913 324 348";"914 941 475";"";"/contenido/entidadesYorganismos/CentrosEducacion/ColegiosPublicos"; 
5076;"Colegio Público Alberto Alcocer";"";"";"Comedor - Transporte - Horario ampliado - Planes de mejora.";"METRO: Las Musas BUS: 38 , 48 , 140, 153";"ENSEÑANZA: Educación Infantil - Primaria - Enseñanza biling&amp;uuml;e";"0";"http://www.madrid.es/sites/v/index.jsp?vgnextchannel=bfa48ab43d6bb410VgnVCM100000171f5a0aRCRD&vgnextoid=2388a3f5ca71c010VgnVCM1000000b205a0aRCRD";"CANILLEJAS A VICALVARO";"AVENIDA";"NUM";"56";"";"";"";"";"MADRID";"MADRID";"28022";"HELLIN";"SAN BLAS-CANILLEJAS";"448087";"4476035";"40.43333782278732";"-3.6120521748962555";"913 202 609";"913 200 446";"";"/contenido/entidadesYorganismos/CentrosEducacion/ColegiosPublicos"; 
5077;"Colegio Público Alcalde de Móstoles";"";"";"Transporte - Comedor - Horario ampliado - Planes de mejora";"BUS: 34 , 39 , 139 , 117 , 17 ,";"ENSEÑANZA: Educación Infantil - Primaria";"0";"http://www.madrid.es/sites/v/index.jsp?vgnextchannel=bfa48ab43d6bb410VgnVCM100000171f5a0aRCRD&vgnextoid=7898a3f5ca71c010VgnVCM1000000b205a0aRCRD";"ALDEANUEVA DE LA VERA";"CALLE";"V";"9";"";"";"";"";"MADRID";"MADRID";"28044";"LAS AGUILAS";"LATINA";"434091";"4470207";"40.37983690289588";"-3.7764479299262628";"917 055 465";"915 095 129";"";"/contenido/entidadesYorganismos/CentrosEducacion/ColegiosPublicos"; 
5078;"Colegio Público Alfonso X El Sabio";"";"";"Comedor - Transporte -  Horario ampliado - Planes de mejora.";"METRO: San Cipriano BUS: 4, 71, 100, 106, E-3";"ENSEÑANZA: Educación Infantil - Primaria";"0";"http://www.madrid.es/sites/v/index.jsp?vgnextchannel=bfa48ab43d6bb410VgnVCM100000171f5a0aRCRD&vgnextoid=cda8a3f5ca71c010VgnVCM1000000b205a0aRCRD";"FUENTE DE SAN PEDRO";"CALLE";"V";"6";"";"";"";"";"MADRID";"MADRID";"28032";"CASCO H.VICALVARO";"VICALVARO";"448774";"4472685";"40.403201384467415";"-3.6036948781029365";"913 719 661";"917 765 962";"";"/contenido/entidadesYorganismos/CentrosEducacion/ColegiosPublicos"; 
10770379;"Colegio Público Alfredo di Stefano";"";"";"";"BUS: 171, 174";"ENSEÑANZA: Educación Infantil - Primaria - Enseñanza biling&amp;uuml;e";"0";"http://www.madrid.es/sites/v/index.jsp?vgnextchannel=bfa48ab43d6bb410VgnVCM100000171f5a0aRCRD&vgnextoid=32c2f9dd06e95610VgnVCM1000001d4a900aRCRD";"felix candela";"calle";"NUM";"4";"";"";"";"";"MADRID";"MADRID";"28022";"HELLIN";"HORTALEZA";"448087";"4476035";"40.43333782278732";"-3.6120521748962555";"660 906 527";"";"";"/contenido/entidadesYorganismos/CentrosEducacion/ColegiosPublicos"; 
5079;"Colegio Público Alhambra";"";"";"Comedor - Transporte - Horario ampliado - Planes de mejora.";"METRO: Lacoma BUS: 49 , 67 , 82";"ENSEÑANZA: Educación Infantil - Primaria - Enseñanza biling&amp;uuml;e";"0";"http://www.madrid.es/sites/v/index.jsp?vgnextchannel=bfa48ab43d6bb410VgnVCM100000171f5a0aRCRD&vgnextoid=13c8a3f5ca71c010VgnVCM1000000b205a0aRCRD";"RAMON GOMEZ DE LA SERNA";"CALLE";"NUM";"103";"";"";"";"";"MADRID";"MADRID";"28035";"PEÑA GRANDE";"FUENCARRAL-EL PARDO";"438407";"4481677";"40.48349348726197";"-3.726718327962491";"913 162 273";"913 737 021";"";"/contenido/entidadesYorganismos/CentrosEducacion/ColegiosPublicos"; 
5080;"Colegio Público Amadeo Vives";"";"";"Comedor - Horario ampliado - Planes de mejora - Integración preferente (Trastornos generales del desarrollo)";"BUS: 25 , 31 , 138";"ENSEÑANZA: Educación Infantil - Primaria";"0";"http://www.madrid.es/sites/v/index.jsp?vgnextchannel=bfa48ab43d6bb410VgnVCM100000171f5a0aRCRD&vgnextoid=68d8a3f5ca71c010VgnVCM1000000b205a0aRCRD";"LOS YEBENES";"CALLE";"V";"6";"";"";"";"";"MADRID";"MADRID";"28047";"ALUCHE";"LATINA";"436005";"4472352";"40.39743593771221";"-3.755392529137971";"917 183 389";"917 199 055";"";"/contenido/entidadesYorganismos/CentrosEducacion/ColegiosPublicos"; 
5081;"Colegio Público Amador de los Ríos";"";"";"Comedor - Planes de mejora";"METRO: Manuel Becerra  BUS: 12 , 2 , 56 , 71 , 143, 156, C2";"ENSEÑANZA: Educación Infantil - Primaria - Enseñanza biling&amp;uuml;e";"0";"http://www.madrid.es/sites/v/index.jsp?vgnextchannel=bfa48ab43d6bb410VgnVCM100000171f5a0aRCRD&vgnextoid=bde8a3f5ca71c010VgnVCM1000000b205a0aRCRD";"MARQUES DE ZAFRA";"PASEO";"V";"16";"";"";"";"";"MADRID";"MADRID";"28028";"FUENTE DEL BERRO";"SALAMANCA";"443459";"4475286";"40.426279629183625";"-3.6665578263940595";"917 252 610";"917 261 891";"";"/contenido/entidadesYorganismos/CentrosEducacion/ColegiosPublicos"; 
5083;"Colegio Público Amós Acero";"";"";"Comedor - Integración preferente (Trastornos generales del desarrollo)";"METRO: Nueva Numancia , Portazgo BUS: 10 , 54 , 57 , 58 , 103 , 111 , 310 , 410";"ENSEÑANZA: Educación Infantil - Primaria";"0";"http://www.madrid.es/sites/v/index.jsp?vgnextchannel=bfa48ab43d6bb410VgnVCM100000171f5a0aRCRD&vgnextoid=0309a3f5ca71c010VgnVCM1000000b205a0aRCRD";"RODRIGUEZ ESPINOSA";"CALLE";"NUM";"54";"";"";"";"";"MADRID";"MADRID";"28053";"PALOMERAS BAJAS";"PUENTE DE VALLECAS";"443664";"4471282";"40.390223332282275";"-3.6637750346593543";"914 785 161";"914 772 415";"";"/contenido/entidadesYorganismos/CentrosEducacion/ColegiosPublicos"; 
5295314;"Colegio Público Angel Nieto";"ENSEÑANZA: Educacion Infantil - Primaria - Enseñanza biling&amp;uuml;e";"";"";"Metro: Las SuertesBus: 142 y 145";"ENSEÑANZA: Educacion Infantil - Primaria - Enseñanza biling&amp;uuml;e Centro de nueva creaciónCurso 2019-20 Se imparte niveles desde infantil hasta primero de primaria.";"0";"http://www.madrid.es/sites/v/index.jsp?vgnextchannel=bfa48ab43d6bb410VgnVCM100000171f5a0aRCRD&vgnextoid=e5ebe48403b60210VgnVCM2000000c205a0aRCRD";"LAS SUERTES";"AVENIDA";"V";"109";"";"";"";"";"MADRID";"MADRID";"28051";"ENSANCHE DE VALLECAS";"VILLA DE VALLECAS";"450106";"4468011";"40.36117774761706";"-3.587611628781373";"912 723 449 - 660 486 591";"";"cp.angelnieto.madrid@educa.madrid.org";"/contenido/entidadesYorganismos/CentrosEducacion/ColegiosPublicos"; 
5792171;"Colegio Público Antonio Fontan";"";"";"";"Bus: 134, 178";"ENSEÑANZA: Educación Infantil - Primaria";"0";"http://www.madrid.es/sites/v/index.jsp?vgnextchannel=bfa48ab43d6bb410VgnVCM100000171f5a0aRCRD&vgnextoid=93f1a0910bcca210VgnVCM2000000c205a0aRCRD";"SANTUARIO DE VALVERDE";"AVENIDA";"V";"71";"";"";"";"";"MADRID";"MADRID";"28049";"EL GOLOSO";"FUENCARRAL-EL PARDO";"441221";"4484771";"40.51157829071127";"-3.6938180692699696";"911 722 243";"911 720 010";"cp.antoniofontan.madrid@educa.madrid.org";"/contenido/entidadesYorganismos/CentrosEducacion/ColegiosPublicos"; 
5087;"Colegio Público Antonio Machado";"";"";"Comedor - Planes de mejora -  Horario ampliado";"BUS: 35 , 47";"ENSEÑANZA: Educación Infantil - Primaria";"0";"http://www.madrid.es/sites/v/index.jsp?vgnextchannel=bfa48ab43d6bb410VgnVCM100000171f5a0aRCRD&vgnextoid=ad29a3f5ca71c010VgnVCM1000000b205a0aRCRD";"ALLARIZ";"CALLE";"V";"3";"";"";"";"";"MADRID";"MADRID";"28044";"BUENAVISTA";"CARABANCHEL";"436078";"4469020";"40.36742548683976";"-3.7541975520390944";"915 088 661";"914 006 788";"";"/contenido/entidadesYorganismos/CentrosEducacion/ColegiosPublicos"; 
5088;"Colegio Público Antonio Moreno Rosales";"";"";"Comedor - Planes de mejora";"METRO: Tirso de Molina , Antón Martín BUS: 6 , 26 , 32";"ENSEÑANZA: Educación Infantil - PrimariaCurso 2018/19 trasladado por obras al Colegio Público Perú / Calle Baleares 18.";"0";"http://www.madrid.es/sites/v/index.jsp?vgnextchannel=bfa48ab43d6bb410VgnVCM100000171f5a0aRCRD&vgnextoid=f249a3f5ca71c010VgnVCM1000000b205a0aRCRD";"OLMO";"CALLE";"V";"4";"";"";"";"";"MADRID";"MADRID";"28012";"EMBAJADORES";"CENTRO";"440501";"4473665";"40.41147059852911";"-3.701274799534028";"915 390 646";"915 390 646";"";"/contenido/entidadesYorganismos/CentrosEducacion/ColegiosPublicos"; 
5085;"Colegio Público Antonio de Nebrija";"";"";"Comedor - Horario ampliado - Planes de mejora";"BUS: 85 , 123 RENFE: Villaverde Bajo";"ENSEÑANZA: Educación Infantil - Primaria";"0";"http://www.madrid.es/sites/v/index.jsp?vgnextchannel=bfa48ab43d6bb410VgnVCM100000171f5a0aRCRD&vgnextoid=5819a3f5ca71c010VgnVCM1000000b205a0aRCRD";"JUAN JOSE MARTINEZ SECO";"CALLE";"V";"77";"";"";"";"";"MADRID";"MADRID";"28021";"LOS ROSALES";"VILLAVERDE";"441729";"4467039";"40.35186683091612";"-3.6861847074521887";"917 963 500";"915 051 317";"";"/contenido/entidadesYorganismos/CentrosEducacion/ColegiosPublicos"; 
5091;"Colegio Público Aragón";"";"";"Comedor - Planes de mejora";"METRO: Miguel Hernández BUS: 54 , 58 , 103 , 142 , 143 , 144";"ENSEÑANZA: Educación infantil - PrimariaEnseñanza bling&amp;uuml;e";"0";"http://www.madrid.es/sites/v/index.jsp?vgnextchannel=bfa48ab43d6bb410VgnVCM100000171f5a0aRCRD&vgnextoid=4859a3f5ca71c010VgnVCM1000000b205a0aRCRD";"RAFAEL ALBERTI";"AVENIDA";"NUM";"2";"";"";"";"";"MADRID";"MADRID";"28038";"PALOMERAS SURESTE";"PUENTE DE VALLECAS";"445907";"4471511";"40.39244393012934";"-3.6373799409076795";"913 039 852";"913 806 367";"";"/contenido/entidadesYorganismos/CentrosEducacion/ColegiosPublicos"; 
5092;"Colegio Público Aravaca";"";"";"Integración (General) - Comedor";"BUS: 160, 161";"ENSEÑANZA: Educación Infantil - Primaria -  Enseñanza Biling&amp;uuml;e -";"0";"http://www.madrid.es/sites/v/index.jsp?vgnextchannel=bfa48ab43d6bb410VgnVCM100000171f5a0aRCRD&vgnextoid=9d69a3f5ca71c010VgnVCM1000000b205a0aRCRD";"ESTUDIO";"CALLE";"V";"6";"";"";"";"";"MADRID";"MADRID";"28023";"ARAVACA";"MONCLOA-ARAVACA";"433385";"4479176";"40.460576198420775";"-3.7857037462052063";"913 078 119 - 913 071 832";"913 071 832";"";"/contenido/entidadesYorganismos/CentrosEducacion/ColegiosPublicos"; 
5093;"Colegio Público Arcipreste de Hita";"";"";"Comedor - Horario ampliado - Planes de mejora";"METRO: Opañel BUS: 55 , 108 , 118 , 247";"ENSEÑANZA: Educacion Infantil - Primaria";"0";"http://www.madrid.es/sites/v/index.jsp?vgnextchannel=bfa48ab43d6bb410VgnVCM100000171f5a0aRCRD&vgnextoid=e289a3f5ca71c010VgnVCM1000000b205a0aRCRD";"ANTONIO MORENO";"CALLE";"V";"25";"";"";"";"";"MADRID";"MADRID";"28025";"ABRANTES";"CARABANCHEL";"438524";"4470930";"40.38481599116821";"-3.725574252110717";"915 605 495";"914 605 635";"";"/contenido/entidadesYorganismos/CentrosEducacion/ColegiosPublicos"; 
5094;"Colegio Público Arquitecto Gaudí";"";"";"Comedor - Horario ampliado - Planes de mejora";"METRO: Pio XII BUS: 16 , 29 , 49 , 70 , 107 , 150 , 229";"ENSEÑANZA: Educación infantil - Primaria";"1";"http://www.madrid.es/sites/v/index.jsp?vgnextchannel=bfa48ab43d6bb410VgnVCM100000171f5a0aRCRD&vgnextoid=3899a3f5ca71c010VgnVCM1000000b205a0aRCRD";"ROSA JARDON";"CALLE";"V";"10";"";"";"";"";"MADRID";"MADRID";"28016";"NUEVA ESPAÑA";"CHAMARTIN";"443279";"4479632";"40.46541828100197";"-3.669067772820547";"913 506 564";"913 506 564";"";"/contenido/entidadesYorganismos/CentrosEducacion/ColegiosPublicos"; 
5095;"Colegio Público Asturias";"";"";"Comedor - Horario ampliado - Planes de mejora";"BUS: 54 , 144";"ENSEÑANZA: Educación infantil - Primaria - Enseñanza biling&amp;uuml;e";"0";"http://www.madrid.es/sites/v/index.jsp?vgnextchannel=bfa48ab43d6bb410VgnVCM100000171f5a0aRCRD&vgnextoid=d2c9a3f5ca71c010VgnVCM1000000b205a0aRCRD";"ASTURIANOS";"CALLE";"V";"2";"";"";"";"";"MADRID";"MADRID";"28018";"PALOMERAS SURESTE";"PUENTE DE VALLECAS";"445456";"4470478";"40.38310860341996";"-3.6426052252549703";"917 770 635";"917 850 680";"";"/contenido/entidadesYorganismos/CentrosEducacion/ColegiosPublicos"; 
5431144;"Colegio Público Ausias March";"";"";"Horario ampliado - Comedor";"Bus: 85";"ENSEÑANZA: Educación infantil - Primaria";"0";"http://www.madrid.es/sites/v/index.jsp?vgnextchannel=bfa48ab43d6bb410VgnVCM100000171f5a0aRCRD&vgnextoid=67c74431fcf04210VgnVCM1000000b205a0aRCRD";"ESTEFANITA";"CALLE";"V";"9";"";"";"";"";"MADRID";"MADRID";"28021";"BUTARQUE";"VILLAVERDE";"442694";"4466201";"40.34439346121857";"-3.674746714234173";"917 109 916";"917 964 694";"p.ausiasmarch.madrid@educa.madrid.org";"/contenido/entidadesYorganismos/CentrosEducacion/ColegiosPublicos"; 
5098;"Colegio Público Azorín";"";"";"Comedor - Transporte - Planes de mejora";"BUS: 59 , 79";"ENSEÑANZA: Educación Infantil - Primaria";"0";"http://www.madrid.es/sites/v/index.jsp?vgnextchannel=bfa48ab43d6bb410VgnVCM100000171f5a0aRCRD&vgnextoid=7de9a3f5ca71c010VgnVCM1000000b205a0aRCRD";"GODELLA";"CALLE";"V";"57";"";"";"";"";"MADRID";"MADRID";"28021";"SAN CRISTOBAL";"VILLAVERDE";"441653";"4466044";"40.342906888165004";"-3.6870005154391885";"917 975 733";"917 231 639";"";"/contenido/entidadesYorganismos/CentrosEducacion/ColegiosPublicos"; 
5099;"Colegio Público Barcelona";"";"";"Comedor - Horario ampliado - Planes de mejora";"BUS: 18 , 22 , 59 , 79 , 85 , 86 , 116";"ENSEÑANZA: Educación Infantil - Primaria";"0";"http://www.madrid.es/sites/v/index.jsp?vgnextchannel=bfa48ab43d6bb410VgnVCM100000171f5a0aRCRD&vgnextoid=c20aa3f5ca71c010VgnVCM1000000b205a0aRCRD";"LA VERBENA DE LA PALOMA";"AVENIDA";"V";"14";"";"";"";"";"MADRID";"MADRID";"28041";"LOS ANGELES";"VILLAVERDE";"440878";"4467772";"40.35841023700524";"-3.696273094000059";"913 603 078";"913 179 568";"";"/contenido/entidadesYorganismos/CentrosEducacion/ColegiosPublicos"; 
7635761;"Colegio Público Blas de Lezo";"";"";"";"Metro: Las TablasBus: 176";"ENSEÑANZA: Educación infantil - Primaria";"0";"http://www.madrid.es/sites/v/index.jsp?vgnextchannel=bfa48ab43d6bb410VgnVCM100000171f5a0aRCRD&vgnextoid=bb4868fe04878410VgnVCM2000000c205a0aRCRD";"FROMISTA";"CALLE";"V";"27";"";"";"";"";"MADRID";"MADRID";"28050";"VALVERDE";"FUENCARRAL-EL PARDO";"443068";"4484732";"40.511360317811224";"-3.6719996242874196";"912 761 564 - 626 122 902";"";"cp.blasdelezo.madrid@educa.madrid.org";"/contenido/entidadesYorganismos/CentrosEducacion/ColegiosPublicos"; 
5100;"Colegio Público Blas de Otero";"";"";"Transporte - Comedor - Planes de mejora - Horario ampliado";"BUS: 58 , 63 , 145 METRO: Villa de Vallecas";"ENSEÑANZA: Educación Infantil - Primaria - Enseñanza biling&amp;uuml;e";"0";"http://www.madrid.es/sites/v/index.jsp?vgnextchannel=bfa48ab43d6bb410VgnVCM100000171f5a0aRCRD&vgnextoid=181aa3f5ca71c010VgnVCM1000000b205a0aRCRD";"PUENTELARRA";"CALLE";"V";"34";"";"";"";"";"MADRID";"MADRID";"28031";"SANTA EUGENIA";"VILLA DE VALLECAS";"448164";"4470461";"40.38124773778207";"-3.6119692564174404";"913 311 550";"913 310 535";"";"/contenido/entidadesYorganismos/CentrosEducacion/ColegiosPublicos"; 
5101;"Colegio Público Bolivia";"";"";"Comedor - Horario ampliado - Planes de mejora";"METRO: Batán BUS: 36 , 39 , 65";"ENSEÑANZA: Educación Infantil - Primaria";"0";"http://www.madrid.es/sites/v/index.jsp?vgnextchannel=bfa48ab43d6bb410VgnVCM100000171f5a0aRCRD&vgnextoid=6d2aa3f5ca71c010VgnVCM1000000b205a0aRCRD";"VILLAVALIENTE";"CALLE";"V";"29";"";"";"";"";"MADRID";"MADRID";"28011";"LUCERO";"LATINA";"436374";"4473273";"40.407634072188344";"-3.7498731428601237";"914 649 989";"914 649 989";"";"/contenido/entidadesYorganismos/CentrosEducacion/ColegiosPublicos"; 
5102;"Colegio Público Bravo Murillo";"";"";"Comedor - Transporte - Horario ampliado - Planes de mejora";"METRO: Avenida de la Ilustración BUS: 49 , 64 , 67 , 83 , 124 , 133 , 127";"ENSEÑANZA: Educación Infantil - Primaria";"0";"http://www.madrid.es/sites/v/index.jsp?vgnextchannel=bfa48ab43d6bb410VgnVCM100000171f5a0aRCRD&vgnextoid=b24aa3f5ca71c010VgnVCM1000000b205a0aRCRD";"ISLAS CIES";"CALLE";"V";"11";"";"";"";"";"MADRID";"MADRID";"28035";"PEÑA GRANDE";"FUENCARRAL-EL PARDO";"439142";"4481343";"40.48053890145454";"-3.718014861516011";"917 385 793";"917 385 793";"";"/contenido/entidadesYorganismos/CentrosEducacion/ColegiosPublicos"; 
5103;"Colegio Público Breogán";"";"";"Comedor - Horario ampliado - Planes de mejora";"METRO: Barrio del Pilar BUS: 42 , 147";"ENSEÑANZA: Educación Infantil - Primaria";"0";"http://www.madrid.es/sites/v/index.jsp?vgnextchannel=bfa48ab43d6bb410VgnVCM100000171f5a0aRCRD&vgnextoid=085aa3f5ca71c010VgnVCM1000000b205a0aRCRD";"GINZO DE LIMIA";"CALLE";"V";"2";"";"";"";"";"MADRID";"MADRID";"28029";"LA PAZ";"FUENCARRAL-EL PARDO";"440459";"4480763";"40.47540952287272";"-3.7024232948074007";"917 304 040";"917 396 184";"";"/contenido/entidadesYorganismos/CentrosEducacion/ColegiosPublicos"; 
5104;"Colegio Público Calderón de la Barca";"";"";"Comedor - Horario ampliado - Planes de mejora";"BUS: 105 , 115 METRO: Barajas";"ENSEÑANZA: Educación Infantil - Primaria -  Enseñanza biling&amp;uuml;e -";"0";"http://www.madrid.es/sites/v/index.jsp?vgnextchannel=bfa48ab43d6bb410VgnVCM100000171f5a0aRCRD&vgnextoid=5d6aa3f5ca71c010VgnVCM1000000b205a0aRCRD";"CALDERON";"CALLE";"V";"2";"";"";"";"";"MADRID";"MADRID";"28042";"TIMON";"BARAJAS";"450492";"4480168";"40.47070810904175";"-3.5840209268472183";"917 472 465";"917 473 130";"";"/contenido/entidadesYorganismos/CentrosEducacion/ColegiosPublicos"; 
5105;"Colegio Público Camilo José Cela";"";"";"Comedor - Transporte - Horario ampliado - Horario ampliado";"METRO: Barrio del Pilar BUS: 147";"ENSEÑANZA: Educación Infantil - Primaria";"0";"http://www.madrid.es/sites/v/index.jsp?vgnextchannel=bfa48ab43d6bb410VgnVCM100000171f5a0aRCRD&vgnextoid=a28aa3f5ca71c010VgnVCM1000000b205a0aRCRD";"MELCHOR FERNANDEZ ALMAGRO";"CALLE";"NUM";"22";"";"";"";"";"MADRID";"MADRID";"28029";"LA PAZ";"FUENCARRAL-EL PARDO";"440612";"4481001";"40.477564401619375";"-3.700652519727763";"917 392 424";"913 781 507";"";"/contenido/entidadesYorganismos/CentrosEducacion/ColegiosPublicos"; 
5107;"Colegio Público Capitán Cortés";"";"";"Comedor - Horario ampliado - Planes de mejora";"BUS: 34 , 108";"ENSEÑANZA: Educación Infantil - Primaria - Enseñanza biling&amp;uuml;e";"0";"http://www.madrid.es/sites/v/index.jsp?vgnextchannel=bfa48ab43d6bb410VgnVCM100000171f5a0aRCRD&vgnextoid=f79aa3f5ca71c010VgnVCM1000000b205a0aRCRD";"MONSEÑOR OSCAR ROMERO";"CALLE";"V";"17";"";"";"";"";"MADRID";"MADRID";"28025";"PUERTA BONITA";"CARABANCHEL";"436944";"4470302";"40.38091347738878";"-3.7428500011276635";"91 462 86 62";"91 461 91 30";"";"/contenido/entidadesYorganismos/CentrosEducacion/ColegiosPublicos"; 
5108;"Colegio Público Cardenal Herrera Oria";"";"";"Comedor - Transporte -  Horario ampliado - Planes de mejora";"BUS: 67 , 83 , 124 , 127 , 133";"ENSEÑANZA: Educación Infantil - Primaria -  Enseñanza biling&amp;uuml;e -";"0";"http://www.madrid.es/sites/v/index.jsp?vgnextchannel=bfa48ab43d6bb410VgnVCM100000171f5a0aRCRD&vgnextoid=4daaa3f5ca71c010VgnVCM1000000b205a0aRCRD";"FERMIN CABALLERO";"CALLE";"NUM";"68";"";"";"";"";"MADRID";"MADRID";"28034";"EL PILAR";"FUENCARRAL-EL PARDO";"439732";"4481568";"40.48260881390874";"-3.7110758224045726";"913 781 613";"913 785 711";"";"/contenido/entidadesYorganismos/CentrosEducacion/ColegiosPublicos"; 
5110;"Colegio Público Carlos Sáinz de los Terreros";"";"";"Comedor - Horario ampliado - Planes de mejora";"METRO: Miguel Hernández BUS: 54 , 58 , 103 , 142 , 143 , 144";"ENSEÑANZA: Educación infantil - Primaria";"0";"http://www.madrid.es/sites/v/index.jsp?vgnextchannel=bfa48ab43d6bb410VgnVCM100000171f5a0aRCRD&vgnextoid=92caa3f5ca71c010VgnVCM1000000b205a0aRCRD";"CARTAMA";"CALLE";"NUM";"1";"";"";"";"";"MADRID";"MADRID";"28018";"PALOMERAS SURESTE";"PUENTE DE VALLECAS";"445870";"4470873";"40.38481313041185";"-3.6390280931999377";"917 783 885";"917 774 420";"";"/contenido/entidadesYorganismos/CentrosEducacion/ColegiosPublicos"; 
5111;"Colegio Público Carlos V";"";"";"Comedor - Horario ampliado - Planes de mejora";"METRO: Barrio de la Concepción BUS: 21 , 48 , 146";"ENSEÑANZA: Educación Infantil - Primaria - Enseñanza biling&amp;uuml;e";"0";"http://www.madrid.es/sites/v/index.jsp?vgnextchannel=bfa48ab43d6bb410VgnVCM100000171f5a0aRCRD&vgnextoid=e7daa3f5ca71c010VgnVCM1000000b205a0aRCRD";"VIRGEN DEL VAL";"CALLE";"NUM";"3";"";"";"";"";"MADRID";"MADRID";"28027";"SAN PASCUAL";"CIUDAD LINEAL";"444499";"4476494";"40.43724098714693";"-3.6544038942331123";"914 041 481";"914 052 705";"";"/contenido/entidadesYorganismos/CentrosEducacion/ColegiosPublicos"; 
5112;"Colegio Público Carmen Cabezuelo";"";"";"Comedor - Horario ampliado";"METRO: García Noblejas BUS: 4 , 28 , 38 , 70";"ENSEÑANZA: Educación Infantil - Primaria";"0";"http://www.madrid.es/sites/v/index.jsp?vgnextchannel=bfa48ab43d6bb410VgnVCM100000171f5a0aRCRD&vgnextoid=3deaa3f5ca71c010VgnVCM1000000b205a0aRCRD";"CANGAS DE ONIS";"CALLE";"NUM";"7";"";"";"";"";"MADRID";"MADRID";"28037";"SIMANCAS";"SAN BLAS-CANILLEJAS";"446661";"4475688";"40.430112607702604";"-3.628834506070179";"913 040 117";"913 040 117";"";"/contenido/entidadesYorganismos/CentrosEducacion/ColegiosPublicos"; 
5792204;"Colegio Público Carmen Laforet";"";"";"";"Bus: 100, 106 Metro: Puerta de Arganda";"ENSEÑANZA: Educación infantil - Primaria";"0";"http://www.madrid.es/sites/v/index.jsp?vgnextchannel=bfa48ab43d6bb410VgnVCM100000171f5a0aRCRD&vgnextoid=12cf00444dcca210VgnVCM2000000c205a0aRCRD";"TITANIO";"CALLE";"V";"16";"";"";"";"";"MADRID";"MADRID";"28032";"CASCO H.VICALVARO";"VICALVARO";"449172";"4472403";"40.400676319677835";"-3.598982213500786";"917 760 141";"917 604 734";"cp.carmenlaforet.madrid@educa.madrid.org";"/contenido/entidadesYorganismos/CentrosEducacion/ColegiosPublicos"; 
5115;"Colegio Público Cervantes";"";"";"Comedor - Horario ampliado - Planes de mejora";"METRO: Cuatro Caminos BUS: 3 , 37 , 45 , 64 , 66 , 69 , 124 ,128 , 149 , F";"ENSEÑANZA: Educación Infantil - Primaria";"0";"http://www.madrid.es/sites/v/index.jsp?vgnextchannel=bfa48ab43d6bb410VgnVCM100000171f5a0aRCRD&vgnextoid=820ba3f5ca71c010VgnVCM1000000b205a0aRCRD";"RAIMUNDO FERNANDEZ VILLAVERDE";"CALLE";"V";"4";"";"";"";"";"MADRID";"MADRID";"28003";"RIOS ROSAS";"CHAMBERI";"440376";"4477566";"40.446612640189215";"-3.7031139484944826";"915 330 837";"915 330 837";"";"/contenido/entidadesYorganismos/CentrosEducacion/ColegiosPublicos"; 
5124;"Colegio Público Ciudad Pegaso";"";"";"Comedor - Transporte - Horario ampliado";"BUS: 77 , 89 , 101 , 114 , 115";"ENSEÑANZA: Educación infantil - Primaria - Enseñanza biling&amp;uuml;e";"0";"http://www.madrid.es/sites/v/index.jsp?vgnextchannel=bfa48ab43d6bb410VgnVCM100000171f5a0aRCRD&vgnextoid=52cba3f5ca71c010VgnVCM1000000b205a0aRCRD";"SEPTIMA";"AVENIDA";"V";"12";"";"";"";"";"MADRID";"MADRID";"28022";"REJAS";"SAN BLAS-CANILLEJAS";"449287";"4477571";"40.44724009402133";"-3.5980274884924257";"917 412 017";"917 436 218";"";"/contenido/entidadesYorganismos/CentrosEducacion/ColegiosPublicos"; 
5116;"Colegio Público Ciudad de Badajoz";"";"";"Comedor - Planes de mejora";"BUS: 17 Metro: Aviación Española Cercanías: Las Águilas";"ENSEÑANZA: Educación Infantil - Primaria";"0";"http://www.madrid.es/sites/v/index.jsp?vgnextchannel=bfa48ab43d6bb410VgnVCM100000171f5a0aRCRD&vgnextoid=d71ba3f5ca71c010VgnVCM1000000b205a0aRCRD";"FRAY JOSE CERDEIRIÑA";"CALLE";"V";"51";"";"";"";"";"MADRID";"MADRID";"28024";"LAS AGUILAS";"LATINA";"433888";"4470669";"40.38398261095106";"-3.7788988980894436";"917 065 611";"917 107 103";"";"/contenido/entidadesYorganismos/CentrosEducacion/ColegiosPublicos"; 
5117;"Colegio Público Ciudad de Córdoba";"";"";"Comedor - Horario ampliado - Planes de mejora";"BUS: 18 , 22 , 59 , 76 , 79 , 85 , 86 , 116 ,";"ENSEÑANZA: Educación Infantil - Primaria - Enseñanza biling&amp;uuml;e";"0";"http://www.madrid.es/sites/v/index.jsp?vgnextchannel=bfa48ab43d6bb410VgnVCM100000171f5a0aRCRD&vgnextoid=2d2ba3f5ca71c010VgnVCM1000000b205a0aRCRD";"LILLO";"CALLE";"S/N";"1";"";"";"";"";"MADRID";"MADRID";"28041";"LOS ANGELES";"VILLAVERDE";"440769";"4468229";"40.362519348197296";"-3.697610896320262";"913 172 417 - 606 873 006";"913 179 827";"cp.ciudaddecordoba.madrid@educa.madrid.org";"/contenido/entidadesYorganismos/CentrosEducacion/ColegiosPublicos"; 
5118;"Colegio Público Ciudad de Guadalajara";"";"";"Comedor - Transporte - Horario ampliado";"METRO: Alameda de Osuna BUS: 105, 112, 114, 115, 151";"ENSEÑANZA: Educación Infantil - Primaria - Enseñanza biling&amp;uuml;e";"0";"http://www.madrid.es/sites/v/index.jsp?vgnextchannel=bfa48ab43d6bb410VgnVCM100000171f5a0aRCRD&vgnextoid=724ba3f5ca71c010VgnVCM1000000b205a0aRCRD";"BERGANTIN";"CALLE";"V";"13";"";"";"";"";"MADRID";"MADRID";"28042";"ALAMEDA DE OSUNA";"BARAJAS";"450528";"4479070";"40.458947463149386";"-3.5847918554675733";"917 470 938";"917 472 064";"";"/contenido/entidadesYorganismos/CentrosEducacion/ColegiosPublicos"; 
5119;"Colegio Público Ciudad de Jaén";"";"";"Comedor - Transporte - Integración (preferentemente motóricos) - Horario ampliado - Planes de mejora -Convenio con el British Council";"BUS: 18, 22, 59, 76, 78, 79, 81, 116, 121 METRO: Hospital 12 de Octubre";"ENSEÑANZA: Educación Infantil - Primaria";"1";"http://www.madrid.es/sites/v/index.jsp?vgnextchannel=bfa48ab43d6bb410VgnVCM100000171f5a0aRCRD&vgnextoid=c75ba3f5ca71c010VgnVCM1000000b205a0aRCRD";"MADRE ROSA BLANCO";"CALLE";"V";"3";"";"";"";"";"MADRID";"MADRID";"28041";"ORCASUR";"USERA";"440468";"4469348";"40.37258947821977";"-3.701248162459656";"913 174 313 - 913 171 644";"913 171 644";"cp.ciudaddejaen.madrid@educa.madrid.org";"/contenido/entidadesYorganismos/CentrosEducacion/ColegiosPublicos"; 
5121;"Colegio Público Ciudad de Roma";"";"";"Comedor - Horario ampliado - Planes de mejora";"METRO: Sainz de Baranda BUS: 15 , 30 , 143, 156, 202, 215";"ENSEÑANZA: Educación Infantil - Primaria - Enseñanza biling&amp;uuml;e";"0";"http://www.madrid.es/sites/v/index.jsp?vgnextchannel=bfa48ab43d6bb410VgnVCM100000171f5a0aRCRD&vgnextoid=628ba3f5ca71c010VgnVCM1000000b205a0aRCRD";"JUAN ESPLANDIU";"CALLE";"V";"2";"";"";"";"";"MADRID";"MADRID";"28007";"ESTRELLA";"RETIRO";"443564";"4474129";"40.41586394930115";"-3.665205626185569";"915 743 897";"915 041 695";"";"/contenido/entidadesYorganismos/CentrosEducacion/ColegiosPublicos"; 
5122;"Colegio Público Ciudad de Valencia";"";"";"Comedor - Transporte - Horario ampliado";"BUS: 58 , 63 , 145";"ENSEÑANZA: Educación Infantil - Primaria";"2";"http://www.madrid.es/sites/v/index.jsp?vgnextchannel=bfa48ab43d6bb410VgnVCM100000171f5a0aRCRD&vgnextoid=b79ba3f5ca71c010VgnVCM1000000b205a0aRCRD";"MEDITERRANEO";"AVENIDA";"V";"91";"";"";"";"";"MADRID";"MADRID";"28007";"SANTA EUGENIA";"VILLA DE VALLECAS";"448699";"4470694";"40.385260536182564";"-3.604406503967331";"913 310 805";"913 312 548";"";"/contenido/entidadesYorganismos/CentrosEducacion/ColegiosPublicos"; 
5123;"Colegio Público Ciudad de Zaragoza";"";"";"Comedor - Transporte - Horario ampliado - Planes de mejora";"BUS: 105 , 112 , 115 , 151";"ENSEÑANZA: Educación Infantil - Primaria";"0";"http://www.madrid.es/sites/v/index.jsp?vgnextchannel=bfa48ab43d6bb410VgnVCM100000171f5a0aRCRD&vgnextoid=0daba3f5ca71c010VgnVCM1000000b205a0aRCRD";"MANUEL AGUILAR MUÑOZ";"CALLE";"V";"1";"";"";"";"";"MADRID";"MADRID";"28042";"ALAMEDA DE OSUNA";"BARAJAS";"449875";"4479016";"40.460302151327085";"-3.5912198696737083";"913 293 756 - 917 477 420";"917 477 420";"";"/contenido/entidadesYorganismos/CentrosEducacion/ColegiosPublicos"; 
5120;"Colegio Público Ciudad de los Ángeles";"";"";"Comedor - Horario ampliado - Planes de mejora.";"BUS: 18 , 22 , 59 , 79 , 85 , 86 , 116";"ENSEÑANZA: Educación Infantil - Primaria";"0";"http://www.madrid.es/sites/v/index.jsp?vgnextchannel=bfa48ab43d6bb410VgnVCM100000171f5a0aRCRD&vgnextoid=1d6ba3f5ca71c010VgnVCM1000000b205a0aRCRD";"LA ALEGRIA DE LA HUERTA";"CALLE";"V";"6";"";"";"";"";"MADRID";"MADRID";"28041";"LOS ANGELES";"VILLAVERDE";"441002";"4467672";"40.35564559555992";"-3.696079786555593";"917 954 993";"915 050 434";"";"/contenido/entidadesYorganismos/CentrosEducacion/ColegiosPublicos"; 
5125;"Colegio Público Claudio Moyano";"";"";"Comedor - Horario ampliado - Planes de mejora - Integración preferente (Trastornos generales del desarrollo)";"METRO: Canal , Islas Filipinas BUS: 2 , 12 , 202";"ENSEÑANZA: Educación Infantil - Primaria - Enseñanza biling&amp;uuml;e";"0";"http://www.madrid.es/sites/v/index.jsp?vgnextchannel=bfa48ab43d6bb410VgnVCM100000171f5a0aRCRD&vgnextoid=a7dba3f5ca71c010VgnVCM1000000b205a0aRCRD";"CEA BERMUDEZ";"CALLE";"V";"26";"";"";"";"";"MADRID";"MADRID";"28003";"VALLEHERMOSO";"CHAMBERI";"439883";"4476721";"40.43896509232795";"-3.708835358862963";"915 335 718";"915 335 718";"";"/contenido/entidadesYorganismos/CentrosEducacion/ColegiosPublicos"; 
5277;"Colegio Público Complejo Escolar Príncipe Felipe";"";"";"Comedor - Transporte - Horario ampliado";"METRO: Barrio del Pilar BUS: 49 , 83 , 128 , 132 , 134 , 137";"ENSEÑANZA: Educación Infantil - Primaria - Enseñanza biling&amp;uuml;e -";"0";"http://www.madrid.es/sites/v/index.jsp?vgnextchannel=bfa48ab43d6bb410VgnVCM100000171f5a0aRCRD&vgnextoid=8ff6a3f5ca71c010VgnVCM1000000b205a0aRCRD";"MONFORTE DE LEMOS";"AVENIDA";"NUM";"24";"";"";"";"";"MADRID";"MADRID";"28029";"LA PAZ";"FUENCARRAL-EL PARDO";"440583";"4481296";"40.480219870681125";"-3.7010104732977656";"913 146 819";"913 232 548";"";"/contenido/entidadesYorganismos/CentrosEducacion/ColegiosPublicos"; 
5127;"Colegio Público Concepción Arenal";"";"";"Comedor -  Horario ampliado - Planes de mejora";"METRO: Marqués de Vadillo BUS: 23 , 34 , 35 , 118 , 119";"ENSEÑANZA: Educación Infantil - Primaria";"0";"http://www.madrid.es/sites/v/index.jsp?vgnextchannel=bfa48ab43d6bb410VgnVCM100000171f5a0aRCRD&vgnextoid=fceba3f5ca71c010VgnVCM1000000b205a0aRCRD";"ANTONIO LOPEZ";"CALLE";"V";"1";"";"";"";"";"MADRID";"MADRID";"28019";"COMILLAS";"CARABANCHEL";"439432";"4472331";"40.397503508835996";"-3.7150109370450957";"915 652 702 / 628 470 651";"915 650 097";"cp.concepcionarenal.madrid@educa.madrid.org";"/contenido/entidadesYorganismos/CentrosEducacion/ColegiosPublicos"; 
5128;"Colegio Público Concha Espina";"";"";"Comedor - Horario ampliado - Planes de mejora";"METRO: Miguel Hernandez BUS: 54 , 58 , 103 , 142 , 143 , 144";"ENSEÑANZA: Educación infantil - Primaria";"0";"http://www.madrid.es/sites/v/index.jsp?vgnextchannel=bfa48ab43d6bb410VgnVCM100000171f5a0aRCRD&vgnextoid=420ca3f5ca71c010VgnVCM1000000b205a0aRCRD";"GERARDO DIEGO";"CALLE";"NUM";"6";"";"";"";"";"MADRID";"MADRID";"28018";"PALOMERAS SURESTE";"PUENTE DE VALLECAS";"445343";"4470775";"40.38577682775334";"-3.643950119182148";"917 781 461";"917 772 584";"";"/contenido/entidadesYorganismos/CentrosEducacion/ColegiosPublicos"; 
5129;"Colegio Público Conde de Romanones";"";"";"Comedor - Horario ampliado - Planes de mejora";"METRO: El Carmen, Quintana  BUS: 21, 38, 48,  109, 146";"ENSEÑANZA: Educación Infantil - Primaria";"0";"http://www.madrid.es/sites/v/index.jsp?vgnextchannel=bfa48ab43d6bb410VgnVCM100000171f5a0aRCRD&vgnextoid=971ca3f5ca71c010VgnVCM1000000b205a0aRCRD";"ELFO";"CALLE";"NUM";"143";"";"";"";"";"MADRID";"MADRID";"28027";"QUINTANA";"CIUDAD LINEAL";"445523";"4476514";"40.43747986110289";"-3.6423326381692056";"913 673 655 - 914 080 947";"914 080 947";"";"/contenido/entidadesYorganismos/CentrosEducacion/ColegiosPublicos"; 
6149062;"Colegio Público Cortes de Cádiz";"";"";"";"BUS: 172, 173";"ENSEÑANZAS: Segundo ciclo de Educación Infantil - Primaria -  Enseñanza Biling&amp;uuml;e -";"0";"http://www.madrid.es/sites/v/index.jsp?vgnextchannel=bfa48ab43d6bb410VgnVCM100000171f5a0aRCRD&vgnextoid=34cee4f2de891310VgnVCM2000000c205a0aRCRD";"NICETO ALCALA ZAMORA";"AVENIDA";"V";"48";"";"";"";"";"MADRID";"MADRID";"28050";"VALDEFUENTES";"HORTALEZA";"444413";"4483344";"40.49893432860617";"-3.656017907963137";"911 727 223";"911 720 746";"";"/contenido/entidadesYorganismos/CentrosEducacion/ColegiosPublicos"; 
5131;"Colegio Público Costa Rica";"";"";"Comedor - Horario ampliado - Planes de mejora";"METRO: Aluche BUS: 17 , 121 , 131 , 138 RENFE: Aluche";"ENSEÑANZA: Educación Infantil - Primaria";"0";"http://www.madrid.es/sites/v/index.jsp?vgnextchannel=bfa48ab43d6bb410VgnVCM100000171f5a0aRCRD&vgnextoid=ec2ca3f5ca71c010VgnVCM1000000b205a0aRCRD";"CAMARENA";"CALLE";"V";"247";"";"";"";"";"MADRID";"MADRID";"28047";"ALUCHE";"LATINA";"435834";"4470820";"40.38550403353863";"-3.755989664410327";"917 171 601";"917 171 601";"";"/contenido/entidadesYorganismos/CentrosEducacion/ColegiosPublicos"; 
5132;"Colegio Público Cristóbal Colón";"";"";"Transporte - Comedor - Horario ampliado - Planes de mejora - Integración preferente (trastornos generales del desarrollo)";"BUS: 22 , 76 , 86 , 130 , 131 RENFE: Puente Alcocer";"ENSEÑANZA: Educación Infantil - Primaria";"0";"http://www.madrid.es/sites/v/index.jsp?vgnextchannel=bfa48ab43d6bb410VgnVCM100000171f5a0aRCRD&vgnextoid=324ca3f5ca71c010VgnVCM1000000b205a0aRCRD";"CARABANCHEL A VILLAVERDE";"CARRETERA";"V";"109";"";"";"";"";"MADRID";"MADRID";"28041";"SAN ANDRES";"VILLAVERDE";"440041";"4466883";"40.35035079998796";"-3.706057974681441";"917 973 312";"917 973 312";"";"/contenido/entidadesYorganismos/CentrosEducacion/ColegiosPublicos"; 
5133;"Colegio Público Cuba";"";"";"Comedor - Horario ampliado - Transporte - Planes de mejora";"METRO: Campamento , Empalme BUS: 25 , 121 , 131 , 138";"ENSEÑANZA: Educación Infantil - Primaria";"0";"http://www.madrid.es/sites/v/index.jsp?vgnextchannel=bfa48ab43d6bb410VgnVCM100000171f5a0aRCRD&vgnextoid=875ca3f5ca71c010VgnVCM1000000b205a0aRCRD";"TEMBLEQUE";"CALLE";"V";"58";"";"";"";"";"MADRID";"MADRID";"28024";"ALUCHE";"LATINA";"435382";"4471888";"40.39509014363514";"-3.761411071256881";"915 187 564";"915 180 170";"";"/contenido/entidadesYorganismos/CentrosEducacion/ColegiosPublicos"; 
5135;"Colegio Público Daniel Vázquez Díaz";"";"";"Comedor - Horario ampliado - Planes de mejora - Integración preferente (Trastornos generales del desarrollo)";"METRO: Valdezarza BUS: 126 ,127 , 128 , 132";"ENSEÑANZA: Educación Infantil - Primaria";"0";"http://www.madrid.es/sites/v/index.jsp?vgnextchannel=bfa48ab43d6bb410VgnVCM100000171f5a0aRCRD&vgnextoid=228ca3f5ca71c010VgnVCM1000000b205a0aRCRD";"ARMENTEROS";"CALLE";"V";"46";"";"";"";"";"MADRID";"MADRID";"28039";"VALDEZARZA";"MONCLOA-ARAVACA";"439552";"4479590";"40.464777111936684";"-3.7130226942453906";"914 505 842";"913 117 764";"";"/contenido/entidadesYorganismos/CentrosEducacion/ColegiosPublicos"; 
5136;"Colegio Público Dionisio Ridruejo";"";"";"Comedor -  Horario ampliado - Planes de mejora";"METRO: San Lorenzo BUS: 72 , 87";"ENSEÑANZA: Educación Infantil - Primaria - Enseñanza biling&amp;uuml;e";"0";"http://www.madrid.es/sites/v/index.jsp?vgnextchannel=bfa48ab43d6bb410VgnVCM100000171f5a0aRCRD&vgnextoid=779ca3f5ca71c010VgnVCM1000000b205a0aRCRD";"ZIPAQUIRA";"CALLE";"V";"14";"";"";"";"";"MADRID";"MADRID";"28033";"PINAR DEL REY";"HORTALEZA";"446211";"4480453";"40.47301835441678";"-3.6345431561438026";"917 639 188";"917 639 188";"";"/contenido/entidadesYorganismos/CentrosEducacion/ColegiosPublicos"; 
5137;"Colegio Público Doctor Conde Arruga";"";"";"Comedor - Horario ampliado";"METRO: Artilleros BUS: 20 , 30 , 71 , 100";"ENSEÑANZA: Educación Infantil - Primaria - Enseñanza biling&amp;uuml;e";"0";"http://www.madrid.es/sites/v/index.jsp?vgnextchannel=bfa48ab43d6bb410VgnVCM100000171f5a0aRCRD&vgnextoid=ccaca3f5ca71c010VgnVCM1000000b205a0aRCRD";"HACIENDA DE PAVONES";"CALLE";"V";"105";"";"";"";"";"MADRID";"MADRID";"28030";"VINATEROS";"MORATALAZ";"445389";"4472778";"40.40382410472334";"-3.643579973780007";"917 732 393";"917 737 286";"";"/contenido/entidadesYorganismos/CentrosEducacion/ColegiosPublicos"; 
5138;"Colegio Público Doctor Federico Rubio";"";"";"Comedor - Planes de mejora - Horario ampliado";"METRO: Francos Rodríguez BUS: 44 , 127";"ENSEÑANZA: Educación Infantil - Primaria";"0";"http://www.madrid.es/sites/v/index.jsp?vgnextchannel=bfa48ab43d6bb410VgnVCM100000171f5a0aRCRD&vgnextoid=12cca3f5ca71c010VgnVCM1000000b205a0aRCRD";"DOCTOR FEDERICO RUBIO Y GALI";"AVENIDA";"V";"53";"";"";"";"";"MADRID";"MADRID";"28039";"BELLAS VISTAS";"TETUAN";"439682";"4478218";"40.45242712056568";"-3.7113472292938066";"914 502 091";"914 595 006";"";"/contenido/entidadesYorganismos/CentrosEducacion/ColegiosPublicos"; 
5140;"Colegio Público Doctor Severo Ochoa";"";"";"Comedor - Transporte - Planes de mejora";"BUS: 4 , 100 , 106 , 130";"ENSEÑANZA: Educacion Infantil - Primaria - Enseñanza biling&amp;uuml;e";"0";"http://www.madrid.es/sites/v/index.jsp?vgnextchannel=bfa48ab43d6bb410VgnVCM100000171f5a0aRCRD&vgnextoid=67dca3f5ca71c010VgnVCM1000000b205a0aRCRD";"EZCARAY";"CALLE";"V";"3";"";"";"";"";"MADRID";"MADRID";"28032";"AMBROZ";"VICALVARO";"448041";"4473688";"40.410311030784285";"-3.6136821061928113";"917 752 715";"917 750 711";"";"/contenido/entidadesYorganismos/CentrosEducacion/ColegiosPublicos"; 
5141;"Colegio Público Doctor Tolosa Latour";"";"";"Comedor - Horario ampliado - Planes de mejora";"BUS: 54 , 144";"ENSEÑANZA: Educación infantil - Primaria - Enseñanza biling&amp;uuml;e";"0";"http://www.madrid.es/sites/v/index.jsp?vgnextchannel=bfa48ab43d6bb410VgnVCM100000171f5a0aRCRD&vgnextoid=bceca3f5ca71c010VgnVCM1000000b205a0aRCRD";"ASTURIANOS";"CALLE";"V";"4";"";"";"";"";"MADRID";"MADRID";"28018";"PALOMERAS SURESTE";"PUENTE DE VALLECAS";"445505";"4470356";"40.38200381255466";"-3.642005680937447";"91 778 47 94";"917 777 679";"";"/contenido/entidadesYorganismos/CentrosEducacion/ColegiosPublicos"; 
5134;"Colegio Público Dámaso Alonso";"";"";"Horario ampliado - Transporte - Comedor - Planes de mejora";"BUS: 22 , 79 , 86 , 130 , 131";"ENSEÑANZA: Educación Infantil - Primaria - Enseñanza biling&amp;uuml;e";"0";"http://www.madrid.es/sites/v/index.jsp?vgnextchannel=bfa48ab43d6bb410VgnVCM100000171f5a0aRCRD&vgnextoid=dc6ca3f5ca71c010VgnVCM1000000b205a0aRCRD";"ESPINELA";"AVENIDA";"V";"1";"";"";"";"";"MADRID";"MADRID";"28021";"SAN ANDRES";"VILLAVERDE";"439791";"4466407";"40.34604471386465";"-3.7089567302070083";"917 970 620";"917 970 620";"";"/contenido/entidadesYorganismos/CentrosEducacion/ColegiosPublicos"; 
5144;"Colegio Público EEUU - Huarte de San Juan";"";"";"Comedor - Transporte - Planes de mejora- Horario ampliado";"BUS: 41 , 75";"ENSEÑANZA: Educación Infantil - PrimariaEnseñanza bling&amp;uuml;e";"0";"http://www.madrid.es/sites/v/index.jsp?vgnextchannel=bfa48ab43d6bb410VgnVCM100000171f5a0aRCRD&vgnextoid=020da3f5ca71c010VgnVCM1000000b205a0aRCRD";"COMANDANTE FORTEA";"PASEO";"V";"71";"";"";"";"";"MADRID";"MADRID";"28008";"CASA DE CAMPO";"MONCLOA-ARAVACA";"437765";"4475600";"40.42870179468233";"-3.733708557423035";"915 418 978 - 915 420 841";"915 594 699";"";"/contenido/entidadesYorganismos/CentrosEducacion/ColegiosPublicos"; 
6024;"Colegio Público Eduardo Rojo";"";"";"Comedor - Horario ampliado - Integración preferente (Trastornos generales del desarrollo) - Enseñanza biling&amp;uuml;e";"BUS: 57, 103, 111, 144, 310";"ENSEÑANZA: Educación Infantil - Primaria";"0";"http://www.madrid.es/sites/v/index.jsp?vgnextchannel=bfa48ab43d6bb410VgnVCM100000171f5a0aRCRD&vgnextoid=f6c4ae10c471c010VgnVCM1000000b205a0aRCRD";"EDUARDO ROJO";"CALLE";"V";"5";"";"";"";"";"MADRID";"MADRID";"28018";"PALOMERAS BAJAS";"PUENTE DE VALLECAS";"443745";"4470970";"40.38742706684719";"-3.6628050333334046";"914 774 560";"914 784 525";"";"/contenido/entidadesYorganismos/CentrosEducacion/ColegiosPublicos"; 
42014;"Colegio Público El Espinillo";"";"";"Comedor";"BUS: 22 , 59 , 85 , 79 , 123";"ENSEÑANZA: Educación Infantil - Primaria";"0";"http://www.madrid.es/sites/v/index.jsp?vgnextchannel=bfa48ab43d6bb410VgnVCM100000171f5a0aRCRD&vgnextoid=0d77598d1351c010VgnVCM1000000b205a0aRCRD";"UNANIMIDAD";"CALLE";"V";"1";"";"";"";"";"MADRID";"MADRID";"28041";"LOS ROSALES";"VILLAVERDE";"441135";"4468120";"40.36157241219842";"-3.6932788501569522";"917 237 434 - 913 182 512";"917 237 434";"";"/contenido/entidadesYorganismos/CentrosEducacion/ColegiosPublicos"; 
176810;"Colegio Público El Greco";"";"";"Comedor - Horario ampliado.";"RENFE: Villaverde Bajo BUS: SE Los Rosales , 85 , 123";"ENSEÑANZA: Segundo ciclo de Infantil - Educación Primaria";"0";"http://www.madrid.es/sites/v/index.jsp?vgnextchannel=bfa48ab43d6bb410VgnVCM100000171f5a0aRCRD&vgnextoid=b9f34b6faa61c010VgnVCM1000000b205a0aRCRD";"ESTEFANITA";"CALLE";"NUM";"7";"";"";"";"";"MADRID";"MADRID";"28021";"BUTARQUE";"VILLAVERDE";"442785";"4466530";"40.345482201202394";"-3.674981279643457";"917 100 008 - 917 973 463";"917 983 281";"cp.elgreco.madrid@educa.madrid.org";"/contenido/entidadesYorganismos/CentrosEducacion/ColegiosPublicos"; 
5220;"Colegio Público El Madroño";"";"";"Comedor -  Horario ampliado - Planes de mejora";"BUS: 63 , 141 , 143 , E";"ENSEÑANZA: Educación infantil - Primaria";"0";"http://www.madrid.es/sites/v/index.jsp?vgnextchannel=bfa48ab43d6bb410VgnVCM100000171f5a0aRCRD&vgnextoid=571da3f5ca71c010VgnVCM1000000b205a0aRCRD";"LAS MARISMAS";"CALLE";"NUM";"14";"";"";"";"";"MADRID";"MADRID";"28038";"NUMANCIA";"PUENTE DE VALLECAS";"444572";"4472813";"40.402204300135466";"-3.654488722948694";"915 014 668";"915 013 612";"";"/contenido/entidadesYorganismos/CentrosEducacion/ColegiosPublicos"; 
5339;"Colegio Público El Quijote";"";"";"Comedor - Transporte -  Horario ampliado - Planes de mejora - Convenio con British Council";"METRO: Congosto BUS: 54 , 142";"ENSEÑANZA: Educación Infantil - Primaria";"0";"http://www.madrid.es/sites/v/index.jsp?vgnextchannel=bfa48ab43d6bb410VgnVCM100000171f5a0aRCRD&vgnextoid=ac2da3f5ca71c010VgnVCM1000000b205a0aRCRD";"FUENTIDUEÑA";"CALLE";"S/N";"4";"";"";"";"";"MADRID";"MADRID";"28031";"CASCO H.VALLECAS";"VILLA DE VALLECAS";"447045";"4469557";"40.374905112512465";"-3.6238093612915145";"913 800 214";"913 800 246";"";"/contenido/entidadesYorganismos/CentrosEducacion/ColegiosPublicos"; 
64474;"Colegio Público El Sol";"";"";"Comedor - Transporte - Horario Ampliado - Integración preferente: Audtitivos- Planes de mejora";"BUS: 48 , 109 , 140";"Enseñanzas   Segundo ciclo de Educación Infantil Educación Primaria  Educación especial:  Educación infantil  Educación Básica Obligatoria";"0";"http://www.madrid.es/sites/v/index.jsp?vgnextchannel=bfa48ab43d6bb410VgnVCM100000171f5a0aRCRD&vgnextoid=e667598d1351c010VgnVCM1000000b205a0aRCRD";"CANILLEJAS A VICALVARO";"AVENIDA";"NUM";"82";"";"";"";"";"MADRID";"MADRID";"28022";"ARCOS";"SAN BLAS-CANILLEJAS";"448112";"4474999";"40.423997382335585";"-3.611684586484881";"91 777 76 79  (Colegio Público) / 913 060 345 / 913 060 347 (Educación Especial)";"913 060 347";"cp.elsol.madrid@educa.madrid.org (Educación Especial)";"/contenido/entidadesYorganismos/CentrosEducacion/ColegiosPublicos"; 
5145;"Colegio Público Emilia Pardo Bazán";"";"";"Comedor - Planes de mejora";"METRO: Embajadores BUS: 27, 34, 36, 41, 60, 119, 148, C1, C2 RENFE: Embajadores";"ENSEÑANZA: Educación Infantil - Primaria - Enseñanza biling&amp;uuml;e -";"0";"http://www.madrid.es/sites/v/index.jsp?vgnextchannel=bfa48ab43d6bb410VgnVCM100000171f5a0aRCRD&vgnextoid=f14da3f5ca71c010VgnVCM1000000b205a0aRCRD";"VENTORRILLO";"CALLE";"V";"14";"";"";"";"";"MADRID";"MADRID";"28005";"EMBAJADORES";"CENTRO";"440135";"4473146";"40.40677803487061";"-3.705527696367566";"915 306 059";"915 275 184";"";"/contenido/entidadesYorganismos/CentrosEducacion/ColegiosPublicos"; 
5148;"Colegio Público Ermita del Santo";"";"";"Comedor - Horario ampliado - Planes de mejora";"BUS: 25 , 138";"ENSEÑANZA: Educación Infantil - Primaria";"0";"http://www.madrid.es/sites/v/index.jsp?vgnextchannel=bfa48ab43d6bb410VgnVCM100000171f5a0aRCRD&vgnextoid=9c6da3f5ca71c010VgnVCM1000000b205a0aRCRD";"ERMITA DEL SANTO";"PASEO";"V";"18";"";"";"";"";"MADRID";"MADRID";"28011";"PUERTA DEL ANGEL";"LATINA";"438623";"4473619";"40.41091984789517";"-3.7234030687601254";"914 642 590";"914 642 590";"";"/contenido/entidadesYorganismos/CentrosEducacion/ColegiosPublicos"; 
5149;"Colegio Público Escuelas Aguirre";"";"";"Comedor - Horario ampliado - Integración (preferentemente auditivos)";"BUS: 20 , 26 , 63 , 69 , 152";"ENSEÑANZA: Educacion Infantil - Primaria - Enseñanza biling&amp;uuml;e";"0";"http://www.madrid.es/sites/v/index.jsp?vgnextchannel=bfa48ab43d6bb410VgnVCM100000171f5a0aRCRD&vgnextoid=e18da3f5ca71c010VgnVCM1000000b205a0aRCRD";"PIO BAROJA";"CALLE";"V";"4";"";"";"";"";"MADRID";"MADRID";"28009";"NIÑO JESUS";"RETIRO";"442787";"4473989";"40.41454970248996";"-3.674350860475647";"915 741 864";"915 044 683";"";"/contenido/entidadesYorganismos/CentrosEducacion/ColegiosPublicos"; 
5150;"Colegio Público Escuelas Bosque";"";"";"Comedor - Transporte - Integración (preferentemente motóricos) - Horario ampliado - Planes de mejora";"METRO: Francos Rodríguez BUS: 44 , 64 , 126 , 127 , 128 , 132";"ENSEÑANZA: Educación Infantil - Primaria - Enseñanza biling&amp;uuml;e";"1";"http://www.madrid.es/sites/v/index.jsp?vgnextchannel=bfa48ab43d6bb410VgnVCM100000171f5a0aRCRD&vgnextoid=379da3f5ca71c010VgnVCM1000000b205a0aRCRD";"SANTO ANGEL DE LA GUARDA";"AVENIDA";"V";"4";"";"";"";"";"MADRID";"MADRID";"28039";"VALDEZARZA";"MONCLOA-ARAVACA";"439697";"4479154";"40.45898733981378";"-3.712536881730324";"91 450 50 60- 91 459 05 57";"91 459 05 57";"cp.escuelasbosque.madrid@educa.madrid.org";"/contenido/entidadesYorganismos/CentrosEducacion/ColegiosPublicos"; 
5245;"Colegio Público Esperanza";"";"";"Comedor - Horario ampliado - Planes de mejora";"METRO: Esperanza BUS: 73 , 120 , 122";"ENSEÑANZA: Educación Infantil - Primaria - Enseñanza biling&amp;uuml;e";"0";"http://www.madrid.es/sites/v/index.jsp?vgnextchannel=bfa48ab43d6bb410VgnVCM100000171f5a0aRCRD&vgnextoid=8cada3f5ca71c010VgnVCM1000000b205a0aRCRD";"ANDORRA";"CALLE";"V";"12";"";"";"";"";"MADRID";"MADRID";"28043";"CANILLAS";"HORTALEZA";"445250";"4479176";"40.46144263379954";"-3.6457808079102354";"913 003 012";"913 003 012";"";"/contenido/entidadesYorganismos/CentrosEducacion/ColegiosPublicos"; 
5152;"Colegio Público Eugenio María de Hostos";"";"";"Comedor - Horario ampliado - Planes de mejora";"METRO: Antonio Machado BUS: 42 , 127 , 132";"ENSEÑANZA: Educación Infantil - Primaria - Enseñanza biling&amp;uuml;e";"0";"http://www.madrid.es/sites/v/index.jsp?vgnextchannel=bfa48ab43d6bb410VgnVCM100000171f5a0aRCRD&vgnextoid=27dda3f5ca71c010VgnVCM1000000b205a0aRCRD";"VALDEVARNES";"CALLE";"V";"26";"";"";"";"";"MADRID";"MADRID";"28039";"VALDEZARZA";"MONCLOA-ARAVACA";"439152";"4480079";"40.469162084516505";"-3.7177757178062834";"913 736 366";"913 866 937";"";"/contenido/entidadesYorganismos/CentrosEducacion/ColegiosPublicos"; 
5155;"Colegio Público Felipe II";"";"";"Comedor - Planes de mejora";"METRO: Ventilla BUS: 42 , 147";"ENSEÑANZA: Educación Infantil - Primaria";"1";"http://www.madrid.es/sites/v/index.jsp?vgnextchannel=bfa48ab43d6bb410VgnVCM100000171f5a0aRCRD&vgnextoid=c10ea3f5ca71c010VgnVCM1000000b205a0aRCRD";"ASTURIAS";"AVENIDA";"V";"70";"";"";"";"";"MADRID";"MADRID";"28029";"ALMENARA";"TETUAN";"440718";"4480483";"40.47290570166502";"-3.699341838889918";"913 157 353";"917 339 393";"";"/contenido/entidadesYorganismos/CentrosEducacion/ColegiosPublicos"; 
5158;"Colegio Público Fernando el Católico";"";"";"Comedor - Horario ampliado - Planes de mejora";"METRO: QuevedoBUS: 16 , 61 , 149";"ENSEÑANZA: Educación Infantil - Primaria - Enseñanza biling&amp;uuml;e";"1";"http://www.madrid.es/sites/v/index.jsp?vgnextchannel=bfa48ab43d6bb410VgnVCM100000171f5a0aRCRD&vgnextoid=6c2ea3f5ca71c010VgnVCM1000000b205a0aRCRD";"FERNANDO EL CATOLICO";"CALLE";"V";"16";"";"";"";"";"MADRID";"MADRID";"28015";"ARAPILES";"CHAMBERI";"439802";"4476182";"40.434103689530446";"-3.7097392943348284";"914 442 902";"914 469 251";"";"/contenido/entidadesYorganismos/CentrosEducacion/ColegiosPublicos"; 
5156;"Colegio Público Fernández de Moratín";"";"";"Comedor - Horario ampliado - Comedor - Planes de mejora";"BUS: 46 , 75";"ENSEÑANZA: Educación Infantil - Primaria";"0";"http://www.madrid.es/sites/v/index.jsp?vgnextchannel=bfa48ab43d6bb410VgnVCM100000171f5a0aRCRD&vgnextoid=171ea3f5ca71c010VgnVCM1000000b205a0aRCRD";"VALLADOLID";"AVENIDA";"NUM";"2";"";"";"";"";"MADRID";"MADRID";"28008";"CASA DE CAMPO";"MONCLOA-ARAVACA";"438305";"4475377";"40.42673321856838";"-3.7273094844478685";"915 479 787 - 915 596 791";"915 596 791";"";"/contenido/entidadesYorganismos/CentrosEducacion/ColegiosPublicos"; 
5159;"Colegio Público Filósofo Séneca";"";"";"Comedor - Horario ampliado - Planes de mejora";"METRO: Parque de Santa María BUS: 9 , 107";"ENSEÑANZA: Educación Infantil - Primaria";"0";"http://www.madrid.es/sites/v/index.jsp?vgnextchannel=bfa48ab43d6bb410VgnVCM100000171f5a0aRCRD&vgnextoid=b14ea3f5ca71c010VgnVCM1000000b205a0aRCRD";"SANTA ADELA";"CALLE";"V";"21";"";"";"";"";"MADRID";"MADRID";"28033";"PINAR DEL REY";"HORTALEZA";"444885";"4481058";"40.478381551999256";"-3.6502374703975162";"917 638 145";"913 817 216";"";"/contenido/entidadesYorganismos/CentrosEducacion/ColegiosPublicos"; 
5160;"Colegio Público Fontarrón";"";"";"Comedor - Transporte - Integración (preferentemente motóricos) - Horario ampliado - Planes de mejora";"BUS: 8 , 20 , 30 , 45 , 63 , 71 , 100 , 143 , E";"ENSEÑANZA: Educación Infantil - Primaria - Enseñanza biling&amp;uuml;e";"1";"http://www.madrid.es/sites/v/index.jsp?vgnextchannel=bfa48ab43d6bb410VgnVCM100000171f5a0aRCRD&vgnextoid=075ea3f5ca71c010VgnVCM1000000b205a0aRCRD";"ARROYO FONTARRON";"CALLE";"V";"24";"";"";"";"";"MADRID";"MADRID";"28030";"PAVONES";"MORATALAZ";"446341";"4472013";"40.39511351284605";"-3.6335755702199677";"917 720 378";"913 050 045";"cp.fontarron.madrid@educa.madrid.org";"/contenido/entidadesYorganismos/CentrosEducacion/ColegiosPublicos"; 
5161;"Colegio Público Francisco Arranz";"";"";"Transporte - Comedor - Horario ampliado - Planes de mejora";"BUS: 34";"ENSEÑANZA: Educación Infantil - Primaria";"0";"http://www.madrid.es/sites/v/index.jsp?vgnextchannel=bfa48ab43d6bb410VgnVCM100000171f5a0aRCRD&vgnextoid=5c6ea3f5ca71c010VgnVCM1000000b205a0aRCRD";"SONDICA";"CALLE";"V";"2";"";"";"";"";"MADRID";"MADRID";"28044";"LAS AGUILAS";"LATINA";"435262";"4469652";"40.37492895164089";"-3.762609414778231";"917 066 882";"917 066 882";"";"/contenido/entidadesYorganismos/CentrosEducacion/ColegiosPublicos"; 
5165;"Colegio Público Francisco Fatóu";"";"";"Comedor - Transporte -  Horario ampliado - Planes de mejora - Integración preferente (Trastornos generales del desarrollo)";"BUS: 58 , 142";"ENSEÑANZA: Educación Infantil - Primaria";"0";"http://www.madrid.es/sites/v/index.jsp?vgnextchannel=bfa48ab43d6bb410VgnVCM100000171f5a0aRCRD&vgnextoid=91cea3f5ca71c010VgnVCM1000000b205a0aRCRD";"SUERTE";"CAMINO";"S/N";"23";"";"";"";"";"MADRID";"MADRID";"28031";"CASCO H.VALLECAS";"VILLA DE VALLECAS";"447502";"4469673";"40.37597903288599";"-3.6184358604020184";"913 321 050";"913 323 222";"";"/contenido/entidadesYorganismos/CentrosEducacion/ColegiosPublicos"; 
5166;"Colegio Público Francisco Ruano";"";"";"Planes de mejora";"BUS: 24 , 102 , 111 , 144 RENFE: Entrevias";"ENSEÑANZA: Educación infantil - Primaria";"0";"http://www.madrid.es/sites/v/index.jsp?vgnextchannel=bfa48ab43d6bb410VgnVCM100000171f5a0aRCRD&vgnextoid=e6dea3f5ca71c010VgnVCM1000000b205a0aRCRD";"ALMURADIEL";"CALLE";"NUM";"150";"";"";"";"";"MADRID";"MADRID";"28053";"ENTREVIAS";"PUENTE DE VALLECAS";"442826";"4470162";"40.380085637390486";"-3.673547648504667";"917 862 196";"917 862 196";"";"/contenido/entidadesYorganismos/CentrosEducacion/ColegiosPublicos"; 
5162;"Colegio Público Francisco de Goya";"";"";"Comedor - Horario ampliado - Planes de mejora";"METRO: Puerta del Angel BUS: 31 , 33 , 36 , 39 , 65 , 138";"ENSEÑANZA: Educación Infantil - Primaria";"0";"http://www.madrid.es/sites/v/index.jsp?vgnextchannel=bfa48ab43d6bb410VgnVCM100000171f5a0aRCRD&vgnextoid=a18ea3f5ca71c010VgnVCM1000000b205a0aRCRD";"ANTILLON";"CALLE";"NUM";"23";"";"";"";"";"MADRID";"MADRID";"28011";"PUERTA DEL ANGEL";"LATINA";"438250";"4473651";"40.411189612846165";"-3.727790340862767";"914 637 472";"914 633 270";"";"/contenido/entidadesYorganismos/CentrosEducacion/ColegiosPublicos"; 
5163;"Colegio Público Francisco de Luis";"";"";"Comedor - Horario ampliado - Planes de mejora";"METRO: Estrella BUS: 8 , 20 , 30 , 32 , 113";"ENSEÑANZA: Educación Infantil - Primaria";"0";"http://www.madrid.es/sites/v/index.jsp?vgnextchannel=bfa48ab43d6bb410VgnVCM100000171f5a0aRCRD&vgnextoid=f69ea3f5ca71c010VgnVCM1000000b205a0aRCRD";"CORREGIDOR RODRIGO RODRIGUEZ";"CALLE";"V";"5";"";"";"";"";"MADRID";"MADRID";"28030";"MEDIA LEGUA";"MORATALAZ";"443975";"4473345";"40.40883801642817";"-3.660292565776491";"914 394 600";"913 284 275";"";"/contenido/entidadesYorganismos/CentrosEducacion/ColegiosPublicos"; 
5164;"Colegio Público Francisco de Quevedo";"";"";"Comedor - Horario ampliado - Planes de mejora";"METRO: Menéndez Pelayo BUS: 24 , 37 , 54 , 57 , 102 , 141 , 152";"ENSEÑANZA: Educación Infantil - Primaria";"0";"http://www.madrid.es/sites/v/index.jsp?vgnextchannel=bfa48ab43d6bb410VgnVCM100000171f5a0aRCRD&vgnextoid=4caea3f5ca71c010VgnVCM1000000b205a0aRCRD";"GRANADA";"CALLE";"V";"16";"";"";"";"";"MADRID";"MADRID";"28007";"PACIFICO";"RETIRO";"442357";"4472902";"40.404727692050116";"-3.679332106624429";"915 515 211";"914 333 827";"";"/contenido/entidadesYorganismos/CentrosEducacion/ColegiosPublicos"; 
5167;"Colegio Público Fray Junípero Serra";"";"";"Comedor - Horario ampliado - Planes de mejora";"METRO: Nueva Numancia BUS: 10 , 24 , 54 , 57 , 58 , 310 , 410";"ENSEÑANZA: Educación infantil - Primaria";"0";"http://www.madrid.es/sites/v/index.jsp?vgnextchannel=bfa48ab43d6bb410VgnVCM100000171f5a0aRCRD&vgnextoid=3ceea3f5ca71c010VgnVCM1000000b205a0aRCRD";"VALDERRIBAS";"CAMINO";"V";"120";"";"";"";"";"MADRID";"MADRID";"28038";"NUMANCIA";"PUENTE DE VALLECAS";"444146";"4471842";"40.395309545329106";"-3.658157243926342";"914 304 882";"914 376 926";"";"/contenido/entidadesYorganismos/CentrosEducacion/ColegiosPublicos"; 
176824;"Colegio Público Gabriela Mistral";"";"";"Comedor - Horario ampliado";"METRO: Las Tablas BUS: 172, 176";"ENSEÑANZA: Educación Infantil - Primaria - Enseñanza biling&amp;uuml;e";"0";"http://www.madrid.es/sites/v/index.jsp?vgnextchannel=bfa48ab43d6bb410VgnVCM100000171f5a0aRCRD&vgnextoid=0f044b6faa61c010VgnVCM1000000b205a0aRCRD";"MIRALLOS";"CALLE";"V";"3";"";"";"";"";"MADRID";"MADRID";"28050";"VALVERDE";"FUENCARRAL-EL PARDO";"443443";"4484329";"40.50774206131332";"-3.6675525270094127";"913 586 549";"913 586 557";"";"/contenido/entidadesYorganismos/CentrosEducacion/ColegiosPublicos"; 
5082;"Colegio Público Gandhi";"";"";"Comedor - Horario ampliado - Planes de mejora";"METRO: García Noblejas BUS: 70 , 109 , 106";"ENSEÑANZA: Educación Infantil - Primaria";"0";"http://www.madrid.es/sites/v/index.jsp?vgnextchannel=bfa48ab43d6bb410VgnVCM100000171f5a0aRCRD&vgnextoid=810fa3f5ca71c010VgnVCM1000000b205a0aRCRD";"GANDHI";"CALLE";"NUM";"10";"";"";"";"";"MADRID";"MADRID";"28017";"PUEBLO NUEVO";"CIUDAD LINEAL";"446006";"4474986";"40.423746261606965";"-3.6365082780370956";"917 544 592 - 913 044 982";"913 045 222";"";"/contenido/entidadesYorganismos/CentrosEducacion/ColegiosPublicos"; 
5169;"Colegio Público Garcilaso de la Vega";"";"";"Comedor - Horario ampliado - Planes de mejora";"METRO: Canillas BUS: 73 , 112 , 120";"ENSEÑANZA: Educación Infantil - Primaria - Enseñanza biling&amp;uuml;e";"0";"http://www.madrid.es/sites/v/index.jsp?vgnextchannel=bfa48ab43d6bb410VgnVCM100000171f5a0aRCRD&vgnextoid=2c2fa3f5ca71c010VgnVCM1000000b205a0aRCRD";"TREFACIO";"CALLE";"V";"18";"";"";"";"";"MADRID";"MADRID";"28043";"CANILLAS";"HORTALEZA";"446243";"4479785";"40.46699372886275";"-3.634108987557183";"913 882 060";"917 161 701";"";"/contenido/entidadesYorganismos/CentrosEducacion/ColegiosPublicos"; 
5168;"Colegio Público García Morente";"";"";"Comedor - Transporte - Planes de mejora";"BUS: 102 , 103 , 111";"ENSEÑANZA: Educación infantil - Primaria";"0";"http://www.madrid.es/sites/v/index.jsp?vgnextchannel=bfa48ab43d6bb410VgnVCM100000171f5a0aRCRD&vgnextoid=d61fa3f5ca71c010VgnVCM1000000b205a0aRCRD";"SUR";"RONDA";"V";"229";"";"";"";"";"MADRID";"MADRID";"28053";"ENTREVIAS";"PUENTE DE VALLECAS";"443505";"4469411";"40.37336648575158";"-3.665482524950977";"917 852 016";"917 856 013";"";"/contenido/entidadesYorganismos/CentrosEducacion/ColegiosPublicos"; 
5171;"Colegio Público Giner de los Ríos";"";"";"Comedor - Transporte - Planes de mejora";"BUS: 24 , 103 , 111 , 144 RENFE: Entrevias";"ENSEÑANZA: Educación infantil - Primaria";"0";"http://www.madrid.es/sites/v/index.jsp?vgnextchannel=bfa48ab43d6bb410VgnVCM100000171f5a0aRCRD&vgnextoid=c65fa3f5ca71c010VgnVCM1000000b205a0aRCRD";"MEMBEZAR";"CALLE";"V";"25";"";"";"";"";"MADRID";"MADRID";"28053";"ENTREVIAS";"PUENTE DE VALLECAS";"443256";"4470098";"40.379529471156005";"-3.6684765035279683";"917 858 021";"917 858 021";"";"/contenido/entidadesYorganismos/CentrosEducacion/ColegiosPublicos"; 
5172;"Colegio Público Gloria Fuertes";"";"";"Comedor -  Horario ampliado - Planes de mejora";"BUS: 78 , 81 , 116 RENFE: Orcasitas";"ENSEÑANZA: Educación Infantil - Primaria";"0";"http://www.madrid.es/sites/v/index.jsp?vgnextchannel=bfa48ab43d6bb410VgnVCM100000171f5a0aRCRD&vgnextoid=1c6fa3f5ca71c010VgnVCM1000000b205a0aRCRD";"CENSO";"CALLE";"NUM";"3";"";"";"";"";"MADRID";"MADRID";"28041";"ORCASITAS";"USERA";"440136";"4468987";"40.369311628795366";"-3.7051368370067617";"913 414 448 - 913 412 180";"913 410 018";"";"/contenido/entidadesYorganismos/CentrosEducacion/ColegiosPublicos"; 
5174;"Colegio Público Gonzalo Fernández de Córdoba";"";"";"Comedor - Horario ampliado - Planes de mejora";"BUS: 65";"ENSEÑANZA: Educacion Infantil - Primaria - Enseñanza biling&amp;uuml;e";"0";"http://www.madrid.es/sites/v/index.jsp?vgnextchannel=bfa48ab43d6bb410VgnVCM100000171f5a0aRCRD&vgnextoid=b69fa3f5ca71c010VgnVCM1000000b205a0aRCRD";"ADANERO";"CALLE";"V";"3";"";"";"";"";"MADRID";"MADRID";"28024";"CAMPAMENTO";"LATINA";"433863";"4471797";"40.39414213700213";"-3.7792987452696023";"917 113 625";"917 113 735";"";"/contenido/entidadesYorganismos/CentrosEducacion/ColegiosPublicos"; 
5173;"Colegio Público Gonzalo de Berceo";"";"";"Comedor - Horario ampliado - Planes de mejora";"METRO: Plaza Elíptica BUS: 47 , 55 , 81 , 247";"ENSEÑANZA: Educación Infantil - Primaria";"0";"http://www.madrid.es/sites/v/index.jsp?vgnextchannel=bfa48ab43d6bb410VgnVCM100000171f5a0aRCRD&vgnextoid=618fa3f5ca71c010VgnVCM1000000b205a0aRCRD";"ABRANTES";"AVENIDA";"NUM";"5";"";"";"";"";"MADRID";"MADRID";"28025";"ABRANTES";"CARABANCHEL";"438827";"4470916";"40.38471221481113";"-3.722003386269505";"915 697 819 (Infantil y Primer ciclo de Primaria) - 915 697 225 ( Segundo y tercer ciclo primaria)";"91 469 21 74";"";"/contenido/entidadesYorganismos/CentrosEducacion/ColegiosPublicos"; 
5176;"Colegio Público Guindalera";"";"";"Comedor. Planes de mejora.";"METRO: Parque AvenidasBUS: 43 , 48 , 74 , 53";"ENSEÑANZA: Educación Infantil - Primaria";"0";"http://www.madrid.es/sites/v/index.jsp?vgnextchannel=bfa48ab43d6bb410VgnVCM100000171f5a0aRCRD&vgnextoid=0cafa3f5ca71c010VgnVCM1000000b205a0aRCRD";"BOSTON";"CALLE";"V";"3";"";"";"";"";"MADRID";"MADRID";"28028";"GUINDALERA";"SALAMANCA";"443428";"4476507";"40.437285997697046";"-3.6670202290755864";"917 252 437 - 913 559 839";"917 255 776";"";"/contenido/entidadesYorganismos/CentrosEducacion/ColegiosPublicos"; 
5177;"Colegio Público Gustavo Adolfo Bécquer";"";"";"Comedor - Horario ampliado - Transporte - Planes de mejora";"BUS: 15 , 28 , 110 , 113 , 210";"ENSEÑANZA: Educación Infantil - Primaria - Enseñanza biling&amp;uuml;e";"0";"http://www.madrid.es/sites/v/index.jsp?vgnextchannel=bfa48ab43d6bb410VgnVCM100000171f5a0aRCRD&vgnextoid=51cfa3f5ca71c010VgnVCM1000000b205a0aRCRD";"SANTA GENOVEVA";"CALLE";"V";"32";"";"";"";"";"MADRID";"MADRID";"28017";"VENTAS";"CIUDAD LINEAL";"444943";"4475023";"40.42401892228641";"-3.6490417567786837";"914 051 507";"914 053 498";"";"/contenido/entidadesYorganismos/CentrosEducacion/ColegiosPublicos"; 
5178;"Colegio Público Haití";"";"";"Comedor -  Horario ampliado - Planes de mejora";"METRO: Carabanchel , Eugenia de Montijo BUS: 17 , 35";"ENSEÑANZA: Educación Infantil - Primaria";"0";"http://www.madrid.es/sites/v/index.jsp?vgnextchannel=bfa48ab43d6bb410VgnVCM100000171f5a0aRCRD&vgnextoid=a6dfa3f5ca71c010VgnVCM1000000b205a0aRCRD";"GUABAIRO";"CALLE";"NUM";"22";"";"";"";"";"MADRID";"MADRID";"28047";"VISTA ALEGRE";"CARABANCHEL";"436762";"4471084";"40.38607118178492";"-3.7463468868792895";"914 220 250";"914 651 108";"";"/contenido/entidadesYorganismos/CentrosEducacion/ColegiosPublicos"; 
5179;"Colegio Público Hermanos Pinzón";"";"";"Comedor - Horario ampliado";"BUS: 36 , 39 , 65 , 121 , 131";"ENSEÑANZA: Educación Infantil - Primaria Otra sede en C/ Calamón, 3";"0";"http://www.madrid.es/sites/v/index.jsp?vgnextchannel=bfa48ab43d6bb410VgnVCM100000171f5a0aRCRD&vgnextoid=fbefa3f5ca71c010VgnVCM1000000b205a0aRCRD";"AZOR";"CALLE";"V";"4";"";"";"";"";"MADRID";"MADRID";"28024";"CAMPAMENTO";"LATINA";"434759";"4472282";"40.398581785882875";"-3.7688034732056224";"915 186 040";"915 186 040";"";"/contenido/entidadesYorganismos/CentrosEducacion/ColegiosPublicos"; 
5180;"Colegio Público Hernán Cortés";"";"";"Comedor - Transporte - Integración (preferentemente auditivos) - Horario ampliado - Planes de mejora";"BUS: 31 , 138 , 121";"ENSEÑANZA: Educación Infantil - Primaria - Enseñanza biling&amp;uuml;e";"0";"http://www.madrid.es/sites/v/index.jsp?vgnextchannel=bfa48ab43d6bb410VgnVCM100000171f5a0aRCRD&vgnextoid=4100a3f5ca71c010VgnVCM1000000b205a0aRCRD";"LOS YEBENES";"CALLE";"V";"241";"";"";"";"";"MADRID";"MADRID";"28047";"ALUCHE";"LATINA";"436348";"4471655";"40.391183407465824";"-3.7512812696024738";"917 176 844";"917 180 472";"";"/contenido/entidadesYorganismos/CentrosEducacion/ColegiosPublicos"; 
5182;"Colegio Público Honduras";"";"";"Comedor - Transporte -  Horario ampliado - Planes de mejora";"METRO: Villa de Vallecas  BUS: 54 , 58 , 103 , 142";"ENSEÑANZA: Educación Infantil - Primaria";"0";"http://www.madrid.es/sites/v/index.jsp?vgnextchannel=bfa48ab43d6bb410VgnVCM100000171f5a0aRCRD&vgnextoid=9610a3f5ca71c010VgnVCM1000000b205a0aRCRD";"FEDERICO GARCIA LORCA";"PASEO";"NUM";"19";"";"";"";"";"MADRID";"MADRID";"28031";"CASCO H.VALLECAS";"VILLA DE VALLECAS";"447305";"4469870";"40.377750319496414";"-3.6207727531375826";"913 325 719 - 913 317 441";"913 325 719";"";"/contenido/entidadesYorganismos/CentrosEducacion/ColegiosPublicos"; 
31747;"Colegio Público Hortaleza";"";"";"Comedor - Horario ampliado - Residencia";"BUS: 9 , 72 , 87 , 120 , 125";"ENSEÑANZA: Educación Infantil - Primaria";"0";"http://www.madrid.es/sites/v/index.jsp?vgnextchannel=bfa48ab43d6bb410VgnVCM100000171f5a0aRCRD&vgnextoid=72f9059cb751c010VgnVCM2000000c205a0aRCRD";"VALDETORRES DE JARAMA";"CALLE";"V";"1";"";"";"";"";"MADRID";"MADRID";"28043";"PINAR DEL REY";"HORTALEZA";"445092";"4480397";"40.47244065719513";"-3.647738240999276";"917 642 900";"913 816 099";"";"/contenido/entidadesYorganismos/CentrosEducacion/ColegiosPublicos"; 
176840;"Colegio Público Infanta Leonor";"";"";"Comedor - Horario ampliado - Planes de mejora";"";"ENSEÑANZA: Educacion Infantil - Primaria - Enseñanza biling&amp;uuml;e";"0";"http://www.madrid.es/sites/v/index.jsp?vgnextchannel=bfa48ab43d6bb410VgnVCM100000171f5a0aRCRD&vgnextoid=54244b6faa61c010VgnVCM1000000b205a0aRCRD";"MONASTERIO DE EL PAULAR";"CALLE";"";"140";"";"";"";"";"MADRID";"MADRID";"28049";"MIRASIERRA";"FUENCARRAL-EL PARDO";"439827";"4483668";"40.499669521430285";"-3.7114329556023478";"917 508 788";"917 508 847";"";"/contenido/entidadesYorganismos/CentrosEducacion/ColegiosPublicos"; 
5184;"Colegio Público Isaac Albéniz";"";"";"Comedor - Horario ampliado - Planes de mejora";"BUS: 29 , 52 , 70 ,107";"ENSEÑANZA: Educación Infantil - Primaria - Enseñanza biling&amp;uuml;e";"0";"http://www.madrid.es/sites/v/index.jsp?vgnextchannel=bfa48ab43d6bb410VgnVCM100000171f5a0aRCRD&vgnextoid=3140a3f5ca71c010VgnVCM1000000b205a0aRCRD";"DRACENA";"CALLE";"NUM";"29";"";"";"";"";"MADRID";"MADRID";"28016";"NUEVA ESPAÑA";"CHAMARTIN";"443272";"4479500";"40.46422875441015";"-3.6691267410574406";"913 596 972";"913 596 972";"";"/contenido/entidadesYorganismos/CentrosEducacion/ColegiosPublicos"; 
5185;"Colegio Público Isaac Peral";"";"";"Comedor - Horario ampliado - Planes de mejora";"METRO: Oporto BUS: 47 , 55 , 81 , 108 , 118 , 247";"ENSEÑANZA: Educación Infantil - Primaria";"0";"http://www.madrid.es/sites/v/index.jsp?vgnextchannel=bfa48ab43d6bb410VgnVCM100000171f5a0aRCRD&vgnextoid=8650a3f5ca71c010VgnVCM1000000b205a0aRCRD";"RUFINO NOVALVOS";"GLORIETA";"NUM";"5";"";"";"";"";"MADRID";"MADRID";"28025";"PUERTA BONITA";"CARABANCHEL";"437964";"4470890";"40.38629580500656";"-3.7309272123026656";"914 726 780";"914 726 780";"";"/contenido/entidadesYorganismos/CentrosEducacion/ColegiosPublicos"; 
5186;"Colegio Público Isabel la Católica";"";"";"Comedor - Horario ampliado - Planes de mejora";"METRO: Tribunal BUS: 3 , 21, 37";"ENSEÑANZA: Educación Infantil - Primaria - Enseñanza biling&amp;uuml;e";"1";"http://www.madrid.es/sites/v/index.jsp?vgnextchannel=bfa48ab43d6bb410VgnVCM100000171f5a0aRCRD&vgnextoid=db60a3f5ca71c010VgnVCM1000000b205a0aRCRD";"BARCELO";"CALLE";"V";"2";"";"";"";"";"MADRID";"MADRID";"28004";"JUSTICIA";"CENTRO";"440645";"4475347";"40.426642215368176";"-3.699722994908341";"915 217 840";"915 229 393";"";"/contenido/entidadesYorganismos/CentrosEducacion/ColegiosPublicos"; 
5190;"Colegio Público Jaime Balmes";"";"";"Comedor - Integración (preferentemente auditivos) - Planes de mejora";"BUS: 24 , 102";"ENSEÑANZA: Educación infantil - Primaria - Enseñanza biling&amp;uuml;e";"0";"http://www.madrid.es/sites/v/index.jsp?vgnextchannel=bfa48ab43d6bb410VgnVCM100000171f5a0aRCRD&vgnextoid=2180a3f5ca71c010VgnVCM1000000b205a0aRCRD";"SIERRA DE LA SOLANA";"CALLE";"NUM";"2";"";"";"";"";"MADRID";"MADRID";"28053";"SAN DIEGO";"PUENTE DE VALLECAS";"443179";"4471236";"40.3879037093727";"-3.6707625153722523";"914 785 884";"914 771 646";"";"/contenido/entidadesYorganismos/CentrosEducacion/ColegiosPublicos"; 
5191;"Colegio Público Jaime Vera";"";"";"Comedor - Horario ampliado - Planes de mejora";"METRO: Estrecho  BUS: 3 , 43 , 64 , 66 , 124 , 128";"ENSEÑANZA: Educación Infantil - Primaria";"0";"http://www.madrid.es/sites/v/index.jsp?vgnextchannel=bfa48ab43d6bb410VgnVCM100000171f5a0aRCRD&vgnextoid=7690a3f5ca71c010VgnVCM1000000b205a0aRCRD";"BRAVO MURILLO";"CALLE";"V";"162";"";"";"";"";"MADRID";"MADRID";"28020";"CUATRO CAMINOS";"TETUAN";"440394";"4478218";"40.45247841346628";"-3.702962807620527";"915 723 019 - 915 723 026";"915 709 453";"";"/contenido/entidadesYorganismos/CentrosEducacion/ColegiosPublicos"; 
5192;"Colegio Público Javier de Miguel";"";"";"Comedor  - Horario ampliado";"BUS: 136, 310";"ENSEÑANZA: Educación infantil - Primaria - Enseñanza biling&amp;uuml;e -";"0";"http://www.madrid.es/sites/v/index.jsp?vgnextchannel=bfa48ab43d6bb410VgnVCM100000171f5a0aRCRD&vgnextoid=cba0a3f5ca71c010VgnVCM1000000b205a0aRCRD";"JAVIER DE MIGUEL";"CALLE";"V";"90";"";"";"";"";"MADRID";"MADRID";"28018";"PALOMERAS BAJAS";"PUENTE DE VALLECAS";"444219";"4470829";"40.38617971853788";"-3.657208307609012";"913 035 102";"913 805 770";"";"/contenido/entidadesYorganismos/CentrosEducacion/ColegiosPublicos"; 
5193;"Colegio Público Joaquín Costa";"";"";"Horario ampliado - Comedor - Planes de mejora - Integración preferente (Trastornos generales del desarrollo)";"METRO: Puerta Toledo, Pirámides, Acacias  BUS: 3, 17, 18, 23, 35, 36, 41, 62, 148, C";"ENSEÑANZA: Educación Infantil - Primaria - Enseñanza biling&amp;uuml;e -";"0";"http://www.madrid.es/sites/v/index.jsp?vgnextchannel=bfa48ab43d6bb410VgnVCM100000171f5a0aRCRD&vgnextoid=11c0a3f5ca71c010VgnVCM1000000b205a0aRCRD";"PONTONES";"PASEO";"NUM";"8";"";"";"";"";"MADRID";"MADRID";"28005";"IMPERIAL";"ARGANZUELA";"439367";"4473016";"40.40555135378083";"-3.7145657673590473";"913 653 632 - 913 642 825";"913 653 559";"";"/contenido/entidadesYorganismos/CentrosEducacion/ColegiosPublicos"; 
5194;"Colegio Público Joaquín Dicenta";"";"";"Comedor - Horario ampliado - Planes de mejora";"BUS: 138";"ENSEÑANZA: Educación Infantil - Primaria";"0";"http://www.madrid.es/sites/v/index.jsp?vgnextchannel=bfa48ab43d6bb410VgnVCM100000171f5a0aRCRD&vgnextoid=66d0a3f5ca71c010VgnVCM1000000b205a0aRCRD";"OLIVOS";"PASEO";"V";"70";"";"";"";"";"MADRID";"MADRID";"28011";"PUERTA DEL ANGEL";"LATINA";"437346";"4473042";"40.40563593391012";"-3.7383841619985705";"914 632 093";"917 550 696";"";"/contenido/entidadesYorganismos/CentrosEducacion/ColegiosPublicos"; 
6025;"Colegio Público Joaquín Turina";"";"";"Comedor - Horario ampliado - Planes de mejora";"BUS 29 , 125 , 129 , 150";"ENSEÑANZA: Educacion Infantil - Primaria";"0";"http://www.madrid.es/sites/v/index.jsp?vgnextchannel=bfa48ab43d6bb410VgnVCM100000171f5a0aRCRD&vgnextoid=4cd4ae10c471c010VgnVCM1000000b205a0aRCRD";"ARTURO SORIA";"CALLE";"NUM";"332";"";"";"";"";"MADRID";"MADRID";"28033";"COSTILLARES";"CIUDAD LINEAL";"443524";"4481320";"40.480641242461274";"-3.66632834447267";"913 025 556";"913 022 741";"";"/contenido/entidadesYorganismos/CentrosEducacion/ColegiosPublicos"; 
5195;"Colegio Público Jorge Guillén";"";"";"Comedor - Transporte - Integración preferente (motóricos) - Horario ampliado";"METRO: Barrio del Pilar BUS: 42 , 49 , 126 , 128 , 147";"ENSEÑANZA: Educación Infantil - Primaria";"1";"http://www.madrid.es/sites/v/index.jsp?vgnextchannel=bfa48ab43d6bb410VgnVCM100000171f5a0aRCRD&vgnextoid=bbe0a3f5ca71c010VgnVCM1000000b205a0aRCRD";"EL FERROL";"AVENIDA";"NUM";"47";"";"";"";"";"MADRID";"MADRID";"28029";"EL PILAR";"FUENCARRAL-EL PARDO";"440011";"4480755";"40.47531422517472";"-3.7077074438048214";"917 393 801";"917 393 801";"cp.jorgeguillen.madrid@educa.madrid.org";"/contenido/entidadesYorganismos/CentrosEducacion/ColegiosPublicos"; 
5196;"Colegio Público Jorge Manrique";"";"";"Comedor - Horario ampliado - Planes de mejora";"METRO: Usera BUS: 55 , 60, 47, 147";"ENSEÑANZA: Educación Infantil - Primaria";"0";"http://www.madrid.es/sites/v/index.jsp?vgnextchannel=bfa48ab43d6bb410VgnVCM100000171f5a0aRCRD&vgnextoid=0101a3f5ca71c010VgnVCM1000000b205a0aRCRD";"PINTOR LUCAS";"PLAZA";"NUM";"17";"";"";"";"";"MADRID";"MADRID";"28026";"MOSCARDO";"USERA";"439708";"4471078";"40.38810858515369";"-3.710375518289677";"915 656 300";"915 691 615";"";"/contenido/entidadesYorganismos/CentrosEducacion/ColegiosPublicos"; 
5430866;"Colegio Público Josep Tarradellas";"";"";"Horario ampliado - Comedor";"Bus: 172, 176Metro: Las Tablas";"ENSEÑANZA: Educación infantil - Primaria";"0";"http://www.madrid.es/sites/v/index.jsp?vgnextchannel=bfa48ab43d6bb410VgnVCM100000171f5a0aRCRD&vgnextoid=0f3147ec3af04210VgnVCM1000000b205a0aRCRD";"TRIACASTELA";"CALLE";"V";"1";"";"";"";"";"MADRID";"MADRID";"28050";"VALVERDE";"FUENCARRAL-EL PARDO";"443199";"4484552";"40.50973426099199";"-3.670452271301756";"914 274 125 - 628 576 819";"914 274 161";"cp.joseptarradellas.madrid@educa.madrid.org";"/contenido/entidadesYorganismos/CentrosEducacion/ColegiosPublicos"; 
5197;"Colegio Público José Bergamín";"";"";"Comedor - Horario ampliado - Planes de mejora";"METRO: Fuencarral BUS: 66 ,124 , 137";"ENSEÑANZA: Educación Infantil - Primaria";"0";"http://www.madrid.es/sites/v/index.jsp?vgnextchannel=bfa48ab43d6bb410VgnVCM100000171f5a0aRCRD&vgnextoid=5611a3f5ca71c010VgnVCM1000000b205a0aRCRD";"BRAILLE";"CALLE";"NUM";"19";"";"";"";"";"MADRID";"MADRID";"28034";"VALVERDE";"FUENCARRAL-EL PARDO";"441018";"4482990";"40.495510999757265";"-3.6960480794830053";"917 355 560 -917 345 042";"91 734 50 42";"";"/contenido/entidadesYorganismos/CentrosEducacion/ColegiosPublicos"; 
5198;"Colegio Público José Calvo Sotelo";"";"";"Comedor - Horario ampliado";"METRO: Pacífico, Puente de Vallecas BUS: 8 , 10 , 24 , 37 , 54 , 56 , 57 , 136 , 141 , 310";"ENSEÑANZA: Educación Infantil - Primaria";"0";"http://www.madrid.es/sites/v/index.jsp?vgnextchannel=bfa48ab43d6bb410VgnVCM100000171f5a0aRCRD&vgnextoid=ab21a3f5ca71c010VgnVCM1000000b205a0aRCRD";"CIUDAD DE BARCELONA";"AVENIDA";"V";"83";"";"";"";"";"MADRID";"MADRID";"28007";"ADELFAS";"RETIRO";"442826";"4472467";"40.4008413126834";"-3.6737662524006756";"914 337 125";"914 336 781";"";"/contenido/entidadesYorganismos/CentrosEducacion/ColegiosPublicos"; 
5200;"Colegio Público José María de Pereda";"";"";"Comedor - Horario ampliado - Planes de mejora";"BUS: 24 , 102 , 111";"ENSEÑANZA: Educación infantil - Primaria";"0";"http://www.madrid.es/sites/v/index.jsp?vgnextchannel=bfa48ab43d6bb410VgnVCM100000171f5a0aRCRD&vgnextoid=f041a3f5ca71c010VgnVCM1000000b205a0aRCRD";"MESTANZA";"CALLE";"V";"94";"";"";"";"";"MADRID";"MADRID";"28053";"ENTREVIAS";"PUENTE DE VALLECAS";"442824";"4470565";"40.381834618749636";"-3.6748845263872902";"915 072 651";"917 861 787";"";"/contenido/entidadesYorganismos/CentrosEducacion/ColegiosPublicos"; 
5201;"Colegio Público José Ortega y Gasset";"";"";"Comedor - Horario ampliado - Planes de mejora - Integración preferente (Trastornos generales del desarrollo)";"METRO: Tetuán, Valdeacederas BUS: 149, 66, 124";"ENSEÑANZA: Educación Infantil - Primaria - Enseñanza biling&amp;uuml;e";"0";"http://www.madrid.es/sites/v/index.jsp?vgnextchannel=bfa48ab43d6bb410VgnVCM100000171f5a0aRCRD&vgnextoid=4651a3f5ca71c010VgnVCM1000000b205a0aRCRD";"ORENSE";"CALLE";"NUM";"87";"";"";"";"";"MADRID";"MADRID";"28020";"CASTILLEJOS";"TETUAN";"441144";"4479225";"40.461603417432755";"-3.6942000296394557";"915 720 997";"915 701 341";"";"/contenido/entidadesYorganismos/CentrosEducacion/ColegiosPublicos"; 
6518289;"Colegio Público José de Echegaray";"";"";"";"BUS: 142, 145";"ENSEÑANZA: Educación Infantil - Primaria - Enseñanza Biling&amp;uuml;e";"0";"http://www.madrid.es/sites/v/index.jsp?vgnextchannel=bfa48ab43d6bb410VgnVCM100000171f5a0aRCRD&vgnextoid=dd26d08058cd8310VgnVCM2000000c205a0aRCRD";"PUENTEDEY";"CALLE";"V";"14";"";"";"";"";"MADRID";"MADRID";"28051";"CASCO H.VALLECAS";"VILLA DE VALLECAS";"447829";"4468813";"40.368261154491805";"-3.614501949365195";"911 996 781 / 911 996 782";"911 996 782";"cp.josedeechegaray.madrid@educa.madrid.org";"/contenido/entidadesYorganismos/CentrosEducacion/ColegiosPublicos"; 
5202;"Colegio Público Jovellanos";"";"";"Comedor - Transporte - Horario ampliado - Planes de mejora - Integración preferente (Trastornos generales del desarrollo)";"BUS: 34 , 39 , 139 RENFE: Las Aguilas";"ENSEÑANZA: Educación Infantil - Primaria";"0";"http://www.madrid.es/sites/v/index.jsp?vgnextchannel=bfa48ab43d6bb410VgnVCM100000171f5a0aRCRD&vgnextoid=9b61a3f5ca71c010VgnVCM1000000b205a0aRCRD";"MONROY";"CALLE";"V";"34";"";"";"";"";"MADRID";"MADRID";"28044";"LAS AGUILAS";"LATINA";"433534";"4470148";"40.379270096494";"-3.783014879023733";"917 055 018";"915 095 089";"";"/contenido/entidadesYorganismos/CentrosEducacion/ColegiosPublicos"; 
5204;"Colegio Público Juan Gris";"";"";"Comedor - Transporte - Horario ampliado - Planes de mejora";"BUS: 58 , 142 , 54 METRO: Congosto";"ENSEÑANZA: Educación Infantil - Primaria";"0";"http://www.madrid.es/sites/v/index.jsp?vgnextchannel=bfa48ab43d6bb410VgnVCM100000171f5a0aRCRD&vgnextoid=3691a3f5ca71c010VgnVCM1000000b205a0aRCRD";"MUELA DE SAN JUAN";"CALLE";"V";"31";"";"";"";"";"MADRID";"MADRID";"28031";"CASCO H.VALLECAS";"VILLA DE VALLECAS";"447591";"4469300";"40.372633463040025";"-3.6173451376298167";"913 327 264";"913 327 263";"";"/contenido/entidadesYorganismos/CentrosEducacion/ColegiosPublicos"; 
5205;"Colegio Público Juan Ramón Jiménez";"";"";"Horario ampliado - Comedor";"METRO: Tetuán BUS: 66 , 124";"ENSEÑANZA: Educación Infantil - Primaria";"0";"http://www.madrid.es/sites/v/index.jsp?vgnextchannel=bfa48ab43d6bb410VgnVCM100000171f5a0aRCRD&vgnextoid=8ba1a3f5ca71c010VgnVCM1000000b205a0aRCRD";"MARQUES DE VIANA";"CALLE";"NUM";"58";"";"";"";"";"MADRID";"MADRID";"28039";"VALDEACEDERAS";"TETUAN";"440380";"4479417";"40.46327856245691";"-3.7032287227178435";"915 717 512";"914 250 976";"";"/contenido/entidadesYorganismos/CentrosEducacion/ColegiosPublicos"; 
5206;"Colegio Público Juan Sebastián Elcano";"";"";"Comedor - Horario ampliado - Planes de mejora";"METRO: Usera BUS: 6 , 23 , 47";"ENSEÑANZA: Educación Infantil - Primaria";"0";"http://www.madrid.es/sites/v/index.jsp?vgnextchannel=bfa48ab43d6bb410VgnVCM100000171f5a0aRCRD&vgnextoid=d0c1a3f5ca71c010VgnVCM1000000b205a0aRCRD";"MIRASIERRA";"CALLE";"NUM";"29";"";"";"";"";"MADRID";"MADRID";"28026";"MOSCARDO";"USERA";"440185";"4471177";"40.38904382319174";"-3.704765272620041";"914 765 139";"914 768 107";"";"/contenido/entidadesYorganismos/CentrosEducacion/ColegiosPublicos"; 
5207;"Colegio Público Juan Zaragüeta";"";"";"Transporte - Horario ampliado - Comedor - Planes de mejora";"METRO: San Lorenzo BUS: 72 , 87";"ENSEÑANZA: Educación Infantil - Primaria - Enseñanza biling&amp;uuml;e";"0";"http://www.madrid.es/sites/v/index.jsp?vgnextchannel=bfa48ab43d6bb410VgnVCM100000171f5a0aRCRD&vgnextoid=26d1a3f5ca71c010VgnVCM1000000b205a0aRCRD";"VIA DE LOS POBLADOS";"CALLE";"V";"19";"";"";"";"";"MADRID";"MADRID";"28033";"VALDEFUENTES";"HORTALEZA";"446510";"4480350";"40.47210978701385";"-3.631007402473766";"917 630 869 - 913 821 057";"917 630 869";"";"/contenido/entidadesYorganismos/CentrosEducacion/ColegiosPublicos"; 
5203;"Colegio Público Juan de la Cierva";"";"";"Comedor -  Horario ampliado - Planes de mejora - Integración preferente (Trastornos generales del desarrollo)";"BUS: 22 , 59 , 79 , 85 , 123 , 130 METRO: Villaverde Bajo Cruce";"ENSEÑANZA: Educación Infantil - Primaria";"0";"http://www.madrid.es/sites/v/index.jsp?vgnextchannel=bfa48ab43d6bb410VgnVCM100000171f5a0aRCRD&vgnextoid=e081a3f5ca71c010VgnVCM1000000b205a0aRCRD";"VILLARROSA";"CALLE";"NUM";"7";"";"";"";"";"MADRID";"MADRID";"28041";"LOS ROSALES";"VILLAVERDE";"441368";"4467326";"40.354436009188994";"-3.690461923731924";"917 965 560 - 917 230 235";"917 965 560";"";"/contenido/entidadesYorganismos/CentrosEducacion/ColegiosPublicos"; 
5208;"Colegio Público Julián Besteiro";"";"";"Comedor - Planes de mejora";"METRO: Abrantes BUS: 47 , 108 , 118";"ENSEÑANZA: Educación Infantil - Primaria";"0";"http://www.madrid.es/sites/v/index.jsp?vgnextchannel=bfa48ab43d6bb410VgnVCM100000171f5a0aRCRD&vgnextoid=7be1a3f5ca71c010VgnVCM1000000b205a0aRCRD";"ABRANTES";"AVENIDA";"NUM";"79";"";"";"";"";"MADRID";"MADRID";"28025";"ABRANTES";"CARABANCHEL";"438306";"4470466";"40.38059274136839";"-3.7281206806824976";"915 600 091";"915 655 204";"";"/contenido/entidadesYorganismos/CentrosEducacion/ColegiosPublicos"; 
176859;"Colegio Público Julián Marías";"";"";"Horario ampliado - Comedor.";"BUS: 38 , 140";"ENSEÑANZA: Educacion Infantil - Primaria";"0";"http://www.madrid.es/sites/v/index.jsp?vgnextchannel=bfa48ab43d6bb410VgnVCM100000171f5a0aRCRD&vgnextoid=fe444b6faa61c010VgnVCM1000000b205a0aRCRD";"BUDAPEST";"CALLE";"V";"11";"";"";"";"";"MADRID";"MADRID";"28022";"ROSAS";"SAN BLAS-CANILLEJAS";"448887";"4475342";"40.42714432750662";"-3.6025767698118516";"917 609 323";"917 609 319";"";"/contenido/entidadesYorganismos/CentrosEducacion/ColegiosPublicos"; 
5153;"Colegio Público La Alameda";"";"";"Comedor - Horario ampliado - Planes de mejora";"BUS: 38 , 48 , 140";"ENSEÑANZA: Educación infantil - Primaria - Enseñanza biling&amp;uuml;e";"0";"http://www.madrid.es/sites/v/index.jsp?vgnextchannel=bfa48ab43d6bb410VgnVCM100000171f5a0aRCRD&vgnextoid=c002a3f5ca71c010VgnVCM1000000b205a0aRCRD";"MUSAS";"CALLE";"NUM";"9";"";"";"";"";"MADRID";"MADRID";"28022";"CANILLEJAS";"SAN BLAS-CANILLEJAS";"448400";"4476500";"40.43753723503757";"-3.6084115811852313";"917 411 453";"913 204 540";"";"/contenido/entidadesYorganismos/CentrosEducacion/ColegiosPublicos"; 
6023;"Colegio Público La Dehesa del Príncipe";"";"";"Comedor - Horario ampliado - Planes de mejora";"METRO: Cuatro Vientos BUS: 139 RENFE: Cuatro Vientos";"ENSEÑANZA: Educacion Infantil - Primaria";"0";"http://www.madrid.es/sites/v/index.jsp?vgnextchannel=bfa48ab43d6bb410VgnVCM100000171f5a0aRCRD&vgnextoid=a1b4ae10c471c010VgnVCM1000000b205a0aRCRD";"LANCEROS";"PASEO";"V";"4";"";"";"";"";"MADRID";"MADRID";"28024";"CAMPAMENTO";"LATINA";"443032";"4474162";"40.37977209501616";"-3.7939529685128695";"915 091 679";"915 090 044";"";"/contenido/entidadesYorganismos/CentrosEducacion/ColegiosPublicos"; 
5210;"Colegio Público La Latina";"";"";"Comedor - Horario ampliado - Planes de mejora - Integración preferente (Trastornos generales del desarrollo)";"METRO: Aluche BUS: 17 , 121 , 131 , H RENFE: Aluche";"ENSEÑANZA: Educación Infantil - Primaria";"0";"http://www.madrid.es/sites/v/index.jsp?vgnextchannel=bfa48ab43d6bb410VgnVCM100000171f5a0aRCRD&vgnextoid=1612a3f5ca71c010VgnVCM1000000b205a0aRCRD";"MAQUEDA";"CALLE";"NUM";"130";"";"";"";"";"MADRID";"MADRID";"28024";"ALUCHE";"LATINA";"435434";"4471408";"40.388887867589375";"-3.7620245761086015";"915 099 915";"917 196 252";"";"/contenido/entidadesYorganismos/CentrosEducacion/ColegiosPublicos"; 
5294;"Colegio Público La Rioja";"";"";"Comedor - Planes de mejora";"METRO: Miguel Hernández BUS: 54 , 58 , 103 , 142 , 143 , 144";"ENSEÑANZA: Educación infantil - Primaria";"0";"http://www.madrid.es/sites/v/index.jsp?vgnextchannel=bfa48ab43d6bb410VgnVCM100000171f5a0aRCRD&vgnextoid=6b22a3f5ca71c010VgnVCM1000000b205a0aRCRD";"LEON FELIPE";"CALLE";"NUM";"3";"";"";"";"";"MADRID";"MADRID";"28038";"PALOMERAS SURESTE";"PUENTE DE VALLECAS";"445935";"4471034";"40.388148628884075";"-3.637009550808539";"917 773 912";"917 773 912";"";"/contenido/entidadesYorganismos/CentrosEducacion/ColegiosPublicos"; 
5211;"Colegio Público Legado Crespo";"";"";"Comedor - Horario ampliado - Planes de mejora";"METRO: EmbajadoresBUS: 27 , 34 , 36 , 60 , 69 , 78 , 116 , 118 , 119RENFE: Embajadores";"ENSEÑANZA: Educación Infantil - Primaria - Enseñanza biling&amp;uuml;e";"1";"http://www.madrid.es/sites/v/index.jsp?vgnextchannel=bfa48ab43d6bb410VgnVCM100000171f5a0aRCRD&vgnextoid=b042a3f5ca71c010VgnVCM1000000b205a0aRCRD";"ACACIAS";"PASEO";"V";"2";"";"";"";"";"MADRID";"MADRID";"28005";"ACACIAS";"ARGANZUELA";"440271";"4472927";"40.404805864280796";"-3.7039161461158803";"915 286 325";"915 286 325";"cp.legadocrespo.madrid@educa.madrid.org";"/contenido/entidadesYorganismos/CentrosEducacion/ColegiosPublicos"; 
5212;"Colegio Público Leopoldo Alas";"";"";"Comedor - Horario ampliado - Planes de mejora";"BUS: 15 , 28 , 106 , 110 , 210";"ENSEÑANZA: Educación Infantil - Primaria";"1";"http://www.madrid.es/sites/v/index.jsp?vgnextchannel=bfa48ab43d6bb410VgnVCM100000171f5a0aRCRD&vgnextoid=0652a3f5ca71c010VgnVCM1000000b205a0aRCRD";"PEDREZUELA";"CALLE";"NUM";"18";"";"";"";"";"MADRID";"MADRID";"28017";"VENTAS";"CIUDAD LINEAL";"444573";"4475495";"40.42824645764569";"-3.6534325307123314";"914 033 755";"914 042 281";"cp.leopoldoalas.madrid@educa.madrid.org";"/contenido/entidadesYorganismos/CentrosEducacion/ColegiosPublicos"; 
4974266;"Colegio Público Leopoldo Calvo Sotelo";"";"";"Horario ampliado - Comedor";"BUS: 172, 176";"ENSEÑANZA: Educacion Infantil - Primaria - Enseñanza biling&amp;uuml;e";"0";"http://www.madrid.es/sites/v/index.jsp?vgnextchannel=bfa48ab43d6bb410VgnVCM100000171f5a0aRCRD&vgnextoid=7205ffc4131ab110VgnVCM2000000c205a0aRCRD";"CASTIELLO DE JACA";"CALLE";"V";"2";"";"";"";"";"MADRID";"MADRID";"28050";"VALVERDE";"FUENCARRAL-EL PARDO";"442794";"4483567";"40.50083316755261";"-3.675143321637599";"914 273 351";"914 273 083";"";"/contenido/entidadesYorganismos/CentrosEducacion/ColegiosPublicos"; 
5213;"Colegio Público Lepanto";"";"";"Comedor - Horario ampliado";"METRO: Antonio Machado BUS: 42 , 127 , 132";"ENSEÑANZA: Educación Infantil - Primaria - Enseñanza biling&amp;uuml;e";"0";"http://www.madrid.es/sites/v/index.jsp?vgnextchannel=bfa48ab43d6bb410VgnVCM100000171f5a0aRCRD&vgnextoid=5b62a3f5ca71c010VgnVCM1000000b205a0aRCRD";"VALDERREY";"CALLE";"V";"9";"";"";"";"";"MADRID";"MADRID";"28035";"VALDEZARZA";"MONCLOA-ARAVACA";"438875";"4480001";"40.46843902268448";"-3.7210473028721722";"913 160 937";"913 738 204";"";"/contenido/entidadesYorganismos/CentrosEducacion/ColegiosPublicos"; 
5214;"Colegio Público Lope de Vega";"";"";"Comedor - Planes de mejora";"Metro: Urgel  Bus: 34 , 35 , 118 , 119";"ENSEÑANZA: Educación Infantil - Primaria";"0";"http://www.madrid.es/sites/v/index.jsp?vgnextchannel=bfa48ab43d6bb410VgnVCM100000171f5a0aRCRD&vgnextoid=a082a3f5ca71c010VgnVCM1000000b205a0aRCRD";"INGLATERRA";"CALLE";"NUM";"8";"";"";"";"";"MADRID";"MADRID";"28019";"SAN ISIDRO";"CARABANCHEL";"438622";"4471811";"40.39460546257796";"-3.7232402248952865";"914 710 955";"914 710 955";"";"/contenido/entidadesYorganismos/CentrosEducacion/ColegiosPublicos"; 
5215;"Colegio Público Lorenzo Luzuriaga";"";"";"Transporte - Comedor - Horario ampliado - Planes de mejora";"METRO: Herrera Oria BUS: 49 , 67 , 83 , 124 , 133 , 134";"ENSEÑANZA: Educación Infantil - Primaria - Enseñanza biling&amp;uuml;e";"0";"http://www.madrid.es/sites/v/index.jsp?vgnextchannel=bfa48ab43d6bb410VgnVCM100000171f5a0aRCRD&vgnextoid=f592a3f5ca71c010VgnVCM1000000b205a0aRCRD";"VALENCIA DE DON JUAN";"CALLE";"V";"13";"";"";"";"";"MADRID";"MADRID";"28034";"LA PAZ";"FUENCARRAL-EL PARDO";"440538";"4482010";"40.48664862656937";"-3.7016083209102453";"917 305 938";"917 314 362";"";"/contenido/entidadesYorganismos/CentrosEducacion/ColegiosPublicos"; 
64457;"Colegio Público Los Almendros";"";"";"Comedor - Horario ampliado";"METRO: Valdebernardo BUS: 8 , 71 , 130";"ENSEÑANZA: Educación infantil - Primaria";"0";"http://www.madrid.es/sites/v/index.jsp?vgnextchannel=bfa48ab43d6bb410VgnVCM100000171f5a0aRCRD&vgnextoid=c897598d1351c010VgnVCM1000000b205a0aRCRD";"LADERA DE LOS ALMENDROS";"CALLE";"NUM";"45";"";"";"";"";"MADRID";"MADRID";"28032";"CASCO H.VICALVARO";"VICALVARO";"446895";"4471931";"40.39629114218003";"-3.625774203881319";"917 510 982";"917 726 814";"";"/contenido/entidadesYorganismos/CentrosEducacion/ColegiosPublicos"; 
5296;"Colegio Público Los Rosales";"";"";"Comedor -  Horario ampliado - Planes de mejora";"BUS: 85 , 123 , 713";"ENSEÑANZA: Educación Infantil - Primaria";"0";"http://www.madrid.es/sites/v/index.jsp?vgnextchannel=bfa48ab43d6bb410VgnVCM100000171f5a0aRCRD&vgnextoid=4ba2a3f5ca71c010VgnVCM1000000b205a0aRCRD";"LOS ROSALES";"AVENIDA";"V";"131";"";"";"";"";"MADRID";"MADRID";"28021";"BUTARQUE";"VILLAVERDE";"442439";"4467021";"40.35175390495651";"-3.677834634453844";"917 956 756";"917 956 756";"";"/contenido/entidadesYorganismos/CentrosEducacion/ColegiosPublicos"; 
4974277;"Colegio Público Loyola de Palacio";"";"";"Comedor - Horario ampliado - Planes de mejora";"Metro: Las SuertesBus: 142, 145";"ENSEÑANZA: Educación Infantil de segundo ciclo - Primaria.Enseñanza biling&amp;uuml;e";"1";"http://www.madrid.es/sites/v/index.jsp?vgnextchannel=bfa48ab43d6bb410VgnVCM100000171f5a0aRCRD&vgnextoid=4c96ffc4131ab110VgnVCM2000000c205a0aRCRD";"EMBALSE DE NAVACERRADA";"CALLE";"V";"60";"";"";"";"";"MADRID";"MADRID";"28051";"CASCO H.VALLECAS";"VILLA DE VALLECAS";"449186";"4467958";"40.36064250120841";"-3.5984510871197415";"913 326 020 - 913 851 330";"913 326 020";"cp.loyoladepalacio.madrid@educa.madrid.org";"/contenido/entidadesYorganismos/CentrosEducacion/ColegiosPublicos"; 
5216;"Colegio Público Luis Bello";"";"";"Comedor - Horario ampliado - Planes de mejora";"METRO: Prosperidad BUS: 1 , 9 , 73";"ENSEÑANZA: Educación Infantil - Primaria - Enseñanza biling&amp;uuml;e -";"1";"http://www.madrid.es/sites/v/index.jsp?vgnextchannel=bfa48ab43d6bb410VgnVCM100000171f5a0aRCRD&vgnextoid=90c2a3f5ca71c010VgnVCM1000000b205a0aRCRD";"LUIS CABRERA";"CALLE";"V";"66";"";"";"";"";"MADRID";"MADRID";"28002";"PROSPERIDAD";"CHAMARTIN";"442881";"4477221";"40.44368060148635";"-3.6735452726272593";"912 205 533";"912 205 535";"";"/contenido/entidadesYorganismos/CentrosEducacion/ColegiosPublicos"; 
5217;"Colegio Público Luis Cernuda";"";"";"Comedor - Horario ampliado - Planes de mejora";"METRO: Esperanza, Arturo Soria   BUS: 9, 72, 73 ,120 ,122";"ENSEÑANZA: Educación Infantil - Primaria - Enseñanza biling&amp;uuml;e";"0";"http://www.madrid.es/sites/v/index.jsp?vgnextchannel=bfa48ab43d6bb410VgnVCM100000171f5a0aRCRD&vgnextoid=e5d2a3f5ca71c010VgnVCM1000000b205a0aRCRD";"CARRIL DEL CONDE";"CALLE";"V";"64";"";"";"";"";"MADRID";"MADRID";"28043";"CANILLAS";"HORTALEZA";"444554";"4479166";"40.46131540437997";"-3.6539887453598747";"913 002 732";"913 002 732";"cp.luiscernuda.madrid@educa.madrid.org";"/contenido/entidadesYorganismos/CentrosEducacion/ColegiosPublicos"; 
5218;"Colegio Público Luis de Góngora";"";"";"Comedor";"METRO: Peñagrande  BUS: 42 , 126 , 132 , 137 , 147";"ENSEÑANZA: Educación Infantil - Primaria";"0";"http://www.madrid.es/sites/v/index.jsp?vgnextchannel=bfa48ab43d6bb410VgnVCM100000171f5a0aRCRD&vgnextoid=3be2a3f5ca71c010VgnVCM1000000b205a0aRCRD";"SARRIA";"CALLE";"NUM";"49";"";"";"";"";"MADRID";"MADRID";"28029";"EL PILAR";"FUENCARRAL-EL PARDO";"439443";"4480681";"40.47459730345878";"-3.714412445984112";"91 386 08 16";"";"";"/contenido/entidadesYorganismos/CentrosEducacion/ColegiosPublicos"; 
42017;"Colegio Público Madrid Sur";"";"";"Comedor";"BUS: 102 * 136 * 310 * 410 RENFE: El Pozo";"ENSEÑANZA: Educación infantil - Primaria";"0";"http://www.madrid.es/sites/v/index.jsp?vgnextchannel=bfa48ab43d6bb410VgnVCM100000171f5a0aRCRD&vgnextoid=cfa7598d1351c010VgnVCM1000000b205a0aRCRD";"PUERTO DE BALBARAN";"CALLE";"V";"133";"";"";"";"";"MADRID";"MADRID";"28018";"PALOMERAS BAJAS";"PUENTE DE VALLECAS";"444368";"4469762";"40.37657755418934";"-3.6553480036748622";"91 785 55 39";"";"";"/contenido/entidadesYorganismos/CentrosEducacion/ColegiosPublicos"; 
5792191;"Colegio Público Maestro Padilla";"";"";"Horario ampliado - Comedor";"Bus: 35, 118, 155";"ENSEÑANZA: Educación Infantil - Primaria - Enseñanza Biling&amp;uuml;e";"0";"http://www.madrid.es/sites/v/index.jsp?vgnextchannel=bfa48ab43d6bb410VgnVCM100000171f5a0aRCRD&vgnextoid=8b5800444dcca210VgnVCM2000000c205a0aRCRD";"PESETA";"AVENIDA";"V";"112";"";"";"";"";"MADRID";"MADRID";"28054";"BUENAVISTA";"CARABANCHEL";"436566";"4468283";"40.3626409159049";"-3.747372159760245";"911 731 852 - 699 502 387";"911 724 720";"cp.maestropadilla.madrid@educa.madrid.org";"/contenido/entidadesYorganismos/CentrosEducacion/ColegiosPublicos"; 
5221;"Colegio Público Manuel Bartolomé Cossío";"";"";"Comedor - Transporte -  Horario ampliado - Planes de mejora";"BUS: 17 , 139 RENFE: Fanjul";"ENSEÑANZA: Educación Infantil - Primaria - Enseñanza biling&amp;uuml;e";"0";"http://www.madrid.es/sites/v/index.jsp?vgnextchannel=bfa48ab43d6bb410VgnVCM100000171f5a0aRCRD&vgnextoid=8003a3f5ca71c010VgnVCM1000000b205a0aRCRD";"JOSE DE CADALSO";"CALLE";"V";"19";"";"";"";"";"MADRID";"MADRID";"28044";"LAS AGUILAS";"LATINA";"434494";"4470372";"40.38135498597348";"-3.7717294965452615";"917 067 408 (Infantil) / 917 064 098 (Primaria)";"917 064 098";"";"/contenido/entidadesYorganismos/CentrosEducacion/ColegiosPublicos"; 
5223;"Colegio Público Manuel Núñez de Arenas";"";"";"Comedor - Transporte - Horario ampliado - Planes de mejora";"BUS: 24 , 102";"ENSEÑANZA: Educación infantil - Primaria";"0";"http://www.madrid.es/sites/v/index.jsp?vgnextchannel=bfa48ab43d6bb410VgnVCM100000171f5a0aRCRD&vgnextoid=2b23a3f5ca71c010VgnVCM1000000b205a0aRCRD";"MARTOS";"CALLE";"V";"120";"";"";"";"";"MADRID";"MADRID";"28053";"ENTREVIAS";"PUENTE DE VALLECAS";"443825";"4469619";"40.37525283072323";"-3.661743346960403";"917 855 972 - 917 855 923";"917 860 204";"";"/contenido/entidadesYorganismos/CentrosEducacion/ColegiosPublicos"; 
5224;"Colegio Público Manuel Sáinz de Vicuña";"";"";"Comedor - Horario ampliado - Planes de mejora";"METRO: Vinateros BUS: 32 , 71";"ENSEÑANZA: Educación Infantil - Primaria - Enseñanza Biling&amp;uuml;e -";"0";"http://www.madrid.es/sites/v/index.jsp?vgnextchannel=bfa48ab43d6bb410VgnVCM100000171f5a0aRCRD&vgnextoid=7043a3f5ca71c010VgnVCM1000000b205a0aRCRD";"CAMINO DE LOS VINATEROS";"CALLE";"NUM";"104";"";"";"";"";"MADRID";"MADRID";"28030";"MARROQUINA";"MORATALAZ";"444851";"4473405";"40.4094369606419";"-3.6499859326517705";"914 391 349";"913 285 625";"";"/contenido/entidadesYorganismos/CentrosEducacion/ColegiosPublicos"; 
5222;"Colegio Público Manuel de Falla";"";"";"Transporte - Comedor";"BUS: 22 , 76 , 86 , 130 , 131 RENFE: Puente Alcocer";"ENSEÑANZA: Educación Infantil - Primaria";"0";"http://www.madrid.es/sites/v/index.jsp?vgnextchannel=bfa48ab43d6bb410VgnVCM100000171f5a0aRCRD&vgnextoid=d513a3f5ca71c010VgnVCM1000000b205a0aRCRD";"JOSE ORTU&amp;Ntilde;O PONCE";"CALLE";"V";"2";"";"";"";"";"MADRID";"MADRID";"28021";"SAN ANDRES";"VILLAVERDE";"440084";"4466428";"40.34625498819677";"-3.705508952749143";"917 971 448";"917 971 448";"";"/contenido/entidadesYorganismos/CentrosEducacion/ColegiosPublicos"; 
5226;"Colegio Público Marcelo Usera";"";"";"Comedor - Horario ampliado - Planes de mejora - Integración preferente (Trastornos generales del desarrollo)";"METRO: Usera BUS: 6 , 18 , 22 , 47 , 59 , 76 , 78 , 79 , 85 , 86 , 247";"ENSEÑANZA: Educación Infantil - Primaria";"0";"http://www.madrid.es/sites/v/index.jsp?vgnextchannel=bfa48ab43d6bb410VgnVCM100000171f5a0aRCRD&vgnextoid=1b63a3f5ca71c010VgnVCM1000000b205a0aRCRD";"PERALES DE TAJUÑA";"CALLE";"NUM";"1";"";"";"";"";"MADRID";"MADRID";"28026";"ALMENDRALES";"USERA";"440620";"4470964";"40.3871562007155";"-3.699608733660164";"914 753 495";"917 923 840";"";"/contenido/entidadesYorganismos/CentrosEducacion/ColegiosPublicos"; 
7048498;"Colegio Público Margaret Thatcher";"";"";"";"BUS: 105, 151";"ENSEÑANZAS: Segundo ciclo de Educación Infantil - Primaria";"0";"http://www.madrid.es/sites/v/index.jsp?vgnextchannel=bfa48ab43d6bb410VgnVCM100000171f5a0aRCRD&vgnextoid=8c8b39efd6cef310VgnVCM1000000b205a0aRCRD";"PLAYA DE SAN LORENZO";"GLORIETA";"V";"4";"";"";"";"";"MADRID";"MADRID";"28042";"TIMON";"BARAJAS";"449945";"4480145";"40.47047719759706";"-3.5904597549954724";"913 056 086";"913 055 404";"cp.margaretthatcher.madrid@educa.madrid.org";"/contenido/entidadesYorganismos/CentrosEducacion/ColegiosPublicos"; 
5228;"Colegio Público Mariano José de Larra";"";"";"Comedor - Horario ampliado - Planes de mejora";"METRO: Las Musas BUS: 38 , 48 , 140";"ENSEÑANZA: Educación infantil - Primaria - Enseñanza biling&amp;uuml;e";"0";"http://www.madrid.es/sites/v/index.jsp?vgnextchannel=bfa48ab43d6bb410VgnVCM100000171f5a0aRCRD&vgnextoid=b593a3f5ca71c010VgnVCM1000000b205a0aRCRD";"LONGARES";"CALLE";"NUM";"11";"";"";"";"";"MADRID";"MADRID";"28022";"ROSAS";"SAN BLAS-CANILLEJAS";"448347";"4475731";"40.43061532814977";"-3.6089740337850564";"913 133 789";"917 759 574";"";"/contenido/entidadesYorganismos/CentrosEducacion/ColegiosPublicos"; 
5230;"Colegio Público Marqués de Marcenado";"";"";"Comedor - Horario ampliado";"BUS: 25 , 31 , 33 , 36 , 39 , 41 , 50 , 65 , 138";"ENSEÑANZA: Educación Infantil - Primaria";"0";"http://www.madrid.es/sites/v/index.jsp?vgnextchannel=bfa48ab43d6bb410VgnVCM100000171f5a0aRCRD&vgnextoid=0ba3a3f5ca71c010VgnVCM1000000b205a0aRCRD";"LINNEO";"CALLE";"V";"31";"";"";"";"";"MADRID";"MADRID";"28005";"IMPERIAL";"ARGANZUELA";"438979";"4473763";"40.410370492110424";"-3.72048608485198";"913 658 588";"913 669 822";"";"/contenido/entidadesYorganismos/CentrosEducacion/ColegiosPublicos"; 
5231;"Colegio Público Marqués de Suanzes";"";"";"Comedor - Transporte - Horario ampliado - Integracion preferente (motóricos)";"METRO: Suanzes BUS: 77 , 104 , 105";"ENSEÑANZA: Educación infantil - Primaria";"1";"http://www.madrid.es/sites/v/index.jsp?vgnextchannel=bfa48ab43d6bb410VgnVCM100000171f5a0aRCRD&vgnextoid=50c3a3f5ca71c010VgnVCM1000000b205a0aRCRD";"VEINTICINCO DE SEPTIEMBRE";"AVENIDA";"NUM";"1";"";"";"";"";"MADRID";"MADRID";"28027";"EL SALVADOR";"SAN BLAS-CANILLEJAS";"447034";"4477126";"40.44309078731439";"-3.6245571705517694";"917 412 072";"913 203 617";"cp.marquesdesuanzes.madrid@educa.madrid.org";"/contenido/entidadesYorganismos/CentrosEducacion/ColegiosPublicos"; 
5232;"Colegio Público Martínez Montañés";"";"";"Comedor -  Horario ampliado - Planes de mejora";"METRO: PavonesBUS: 32 , 71 , 100 , 140 , 142 , 144";"ENSEÑANZA: Educación Infantil - Primaria - Enseñanza biling&amp;uuml;e";"1";"http://www.madrid.es/sites/v/index.jsp?vgnextchannel=bfa48ab43d6bb410VgnVCM100000171f5a0aRCRD&vgnextoid=a5d3a3f5ca71c010VgnVCM1000000b205a0aRCRD";"HACIENDA DE PAVONES";"CALLE";"V";"223";"";"";"";"";"MADRID";"MADRID";"28030";"PAVONES";"MORATALAZ";"446208";"4472560";"40.40191354205018";"-3.6339103602187524";"917 738 878";"917 738 878";"cp.martinezmontanes.madrid@educa.madrid.org";"/contenido/entidadesYorganismos/CentrosEducacion/ColegiosPublicos"; 
5209;"Colegio Público María Moliner";"";"";"Comedor - Horario ampliado - Planes de mejora";"BUS: 4 , 38, 48 , 106, 140 METRO: Simancas, San Blas";"ENSEÑANZA: Educación infantil - Primaria - Enseñanza biling&amp;uuml;e";"0";"http://www.madrid.es/sites/v/index.jsp?vgnextchannel=bfa48ab43d6bb410VgnVCM100000171f5a0aRCRD&vgnextoid=6083a3f5ca71c010VgnVCM1000000b205a0aRCRD";"ARCOS DE JALON";"CALLE";"V";"34";"";"";"";"";"MADRID";"MADRID";"28037";"ARCOS";"SAN BLAS-CANILLEJAS";"447480";"4474801";"40.42217402076163";"-3.619118046203692";"913 133 969";"913 069 463";"";"/contenido/entidadesYorganismos/CentrosEducacion/ColegiosPublicos"; 
11121459;"Colegio Público María de Villota";"ENSEÑANZA: Educacion Infantil - Primaria - Enseñanza biling&amp;uuml;e";"";"";"Metro: Villa de VallecasBus: 58";"ENSEÑANZA: Educacion Infantil - Primaria - Enseñanza biling&amp;uuml;e Centro de nueva creación. Su ubicación es provisional.";"0";"http://www.madrid.es/sites/v/index.jsp?vgnextchannel=bfa48ab43d6bb410VgnVCM100000171f5a0aRCRD&vgnextoid=870757e08c800710VgnVCM1000001d4a900aRCRD";"ENRIQUE GARCIA ALVAREZ";"CALLE";"V";"11";"";"";"";"";"MADRID";"MADRID";"28031";"SANTA EUGENIA";"VILLA DE VALLECAS";"447785";"4470378";"40.38235733881085";"-3.6151408497888227";"913 053 429 / 618 487 068";"";"cp.mariadevillota.madrid@educa.madrid.org";"/contenido/entidadesYorganismos/CentrosEducacion/ColegiosPublicos"; 
5235;"Colegio Público Menéndez Pelayo";"";"";"Comedor - Horario ampliado - Planes de mejora -Integración preferente (auditivos).";"METRO: Atocha BUS: 6 , 19 , 27 , 34 , 45 , 47 ,55 , 59 , 69 , 85 , 86 , 102 , 247 RENFE: Atocha";"ENSEÑANZA: Educación Infantil - Primaria";"0";"http://www.madrid.es/sites/v/index.jsp?vgnextchannel=bfa48ab43d6bb410VgnVCM100000171f5a0aRCRD&vgnextoid=9514a3f5ca71c010VgnVCM1000000b205a0aRCRD";"MENDEZ ALVARO";"CALLE";"V";"16";"";"";"";"";"MADRID";"MADRID";"28045";"PALOS DE MOGUER";"ARGANZUELA";"441334";"4473004";"40.40557510310644";"-3.691396695437019";"915 272 781";"915 397 381";"";"/contenido/entidadesYorganismos/CentrosEducacion/ColegiosPublicos"; 
5236;"Colegio Público Menéndez Pidal";"";"";"Comedor - Horario ampliado - Integración preferente (Tratornos generales del desarrollo)";"METRO: Artilleros BUS: 8 , 20 , 30 , 71 , 100";"ENSEÑANZA: Educación Infantil - Primaria";"0";"http://www.madrid.es/sites/v/index.jsp?vgnextchannel=bfa48ab43d6bb410VgnVCM100000171f5a0aRCRD&vgnextoid=ea24a3f5ca71c010VgnVCM1000000b205a0aRCRD";"ENCOMIENDA DE PALACIOS";"CALLE";"NUM";"85";"";"";"";"";"MADRID";"MADRID";"28030";"FONTARRON";"MORATALAZ";"445593";"4472413";"40.400540243883796";"-3.6411565174428118";"917 736 781";"913 016 012";"";"/contenido/entidadesYorganismos/CentrosEducacion/ColegiosPublicos"; 
5237;"Colegio Público Meseta de Orcasitas";"";"";"Comedor - Horario ampliado - Planes de mejora";"BUS: 6 , 60 , 78 , 81 , 116 , 121 , 131";"ENSEÑANZA: Educación Infantil - Primaria - Enseñanza biling&amp;uuml;e";"0";"http://www.madrid.es/sites/v/index.jsp?vgnextchannel=bfa48ab43d6bb410VgnVCM100000171f5a0aRCRD&vgnextoid=3044a3f5ca71c010VgnVCM1000000b205a0aRCRD";"CAMINO VIEJO DE VILLAVERDE";"CALLE";"NUM";"1";"";"";"";"";"MADRID";"MADRID";"28041";"ORCASITAS";"USERA";"439681";"4469283";"40.37194535398157";"-3.7105237988872513";"913 413 045";"913 417 861";"";"/contenido/entidadesYorganismos/CentrosEducacion/ColegiosPublicos"; 
5238;"Colegio Público Mesonero Romanos";"";"";"Comedor -  Horario ampliado - Planes de mejora";"BUS: 63 , 142 , 144 , E";"ENSEÑANZA: Educación infantil - Primaria - Enseñanza biling&amp;uuml;e";"0";"http://www.madrid.es/sites/v/index.jsp?vgnextchannel=bfa48ab43d6bb410VgnVCM100000171f5a0aRCRD&vgnextoid=8554a3f5ca71c010VgnVCM1000000b205a0aRCRD";"PONT DE MOLINS";"CALLE";"NUM";"31";"";"";"";"";"MADRID";"MADRID";"28038";"PORTAZGO";"PUENTE DE VALLECAS";"445313";"4471653";"40.39368443066321";"-3.644378931194483";"913 037 096";"913 800 850";"";"/contenido/entidadesYorganismos/CentrosEducacion/ColegiosPublicos"; 
5239;"Colegio Público Miguel Blasco Vilatela";"";"";"Comedor -  Horario ampliado - Planes de mejora";"METRO: García Noblejas BUS: 4 , 28 , 38 , 48 , 70";"ENSEÑANZA: Educación Infantil - Primaria";"0";"http://www.madrid.es/sites/v/index.jsp?vgnextchannel=bfa48ab43d6bb410VgnVCM100000171f5a0aRCRD&vgnextoid=da64a3f5ca71c010VgnVCM1000000b205a0aRCRD";"HERMANOS GARCIA NOBLEJAS";"CALLE";"NUM";"70";"";"";"";"";"MADRID";"MADRID";"28037";"PUEBLO NUEVO";"CIUDAD LINEAL";"446376";"4475605";"40.42934657144525";"-3.6321872882400443";"913 043 999";"913 043 999";"";"/contenido/entidadesYorganismos/CentrosEducacion/ColegiosPublicos"; 
5242;"Colegio Público Miguel Servet";"";"";"Comedor - Integración - Horario ampliado";"BUS: 17 , 25 , 118 , 119";"ENSEÑANZA: Educación Infantil - Primaria";"0";"http://www.madrid.es/sites/v/index.jsp?vgnextchannel=bfa48ab43d6bb410VgnVCM100000171f5a0aRCRD&vgnextoid=7594a3f5ca71c010VgnVCM1000000b205a0aRCRD";"FRAGATA";"CALLE";"V";"33";"";"";"";"";"MADRID";"MADRID";"28019";"SAN ISIDRO";"CARABANCHEL";"437579";"4471968";"40.39409637138602";"-3.736808786537968";"914 611 757";"914 627 953";"";"/contenido/entidadesYorganismos/CentrosEducacion/ColegiosPublicos"; 
5240;"Colegio Público Miguel de Unamuno";"";"";"Comedor - Transporte - Horario ampliado - Planes de mejora";"METRO: Legazpi BUS: 8 , 19 , 22 , 45 , 47 , 59 , 85 , 86 , 123 , 247";"ENSEÑANZA: Educación Infantil - Primaria - Enseñanza biling&amp;uuml;e";"0";"http://www.madrid.es/sites/v/index.jsp?vgnextchannel=bfa48ab43d6bb410VgnVCM100000171f5a0aRCRD&vgnextoid=2084a3f5ca71c010VgnVCM1000000b205a0aRCRD";"ALICANTE";"CALLE";"V";"5";"";"";"";"";"MADRID";"MADRID";"28045";"DELICIAS";"ARGANZUELA";"441257";"4471959";"40.39428331181165";"-3.6934728308868783";"915 282 554";"915 282 554";"";"/contenido/entidadesYorganismos/CentrosEducacion/ColegiosPublicos"; 
5243;"Colegio Público Mirasierra";"";"";"Comedor - Transporte - Horario ampliado";"BUS: 133 , 134";"ENSEÑANZA: Educación Infantil - Primaria - Enseñanza biling&amp;uuml;e";"0";"http://www.madrid.es/sites/v/index.jsp?vgnextchannel=bfa48ab43d6bb410VgnVCM100000171f5a0aRCRD&vgnextoid=caa4a3f5ca71c010VgnVCM1000000b205a0aRCRD";"LA MASO";"CALLE";"NUM";"22";"";"";"";"";"MADRID";"MADRID";"28034";"MIRASIERRA";"FUENCARRAL-EL PARDO";"439475";"4482517";"40.49113903549112";"-3.7141984471966625";"917 345 665";"917 350 356";"";"/contenido/entidadesYorganismos/CentrosEducacion/ColegiosPublicos"; 
5157;"Colegio Público Monte de El Pardo";"";"";"Comedor - Horario ampliado";"BUS: 601, 602";"ENSEÑANZA: Educación Infantil - Primaria - Enseñanza biling&amp;uuml;e";"0";"http://www.madrid.es/sites/v/index.jsp?vgnextchannel=bfa48ab43d6bb410VgnVCM100000171f5a0aRCRD&vgnextoid=10c4a3f5ca71c010VgnVCM1000000b205a0aRCRD";"GUARDIA";"AVENIDA";"NUM";"19";"";"";"";"";"MADRID";"MADRID";"28048";"EL PARDO";"FUENCARRAL-EL PARDO";"434411";"4485448";"40.51715726859882";"-3.774264310704681";"913 760 692";"913 760 636";"";"/contenido/entidadesYorganismos/CentrosEducacion/ColegiosPublicos"; 
5233;"Colegio Público Méjico (México)";"";"";"Comedor - Transporte - Integración preferente (motóricos) - Horario ampliado - Planes de mejora";"BUS: 11 , 21 , 53";"ENSEÑANZA: Educación Infantil - Primaria";"1";"http://www.madrid.es/sites/v/index.jsp?vgnextchannel=bfa48ab43d6bb410VgnVCM100000171f5a0aRCRD&vgnextoid=fae3a3f5ca71c010VgnVCM1000000b205a0aRCRD";"BADAJOZ";"AVENIDA";"NUM";"74";"";"";"";"";"MADRID";"MADRID";"28027";"SAN PASCUAL";"CIUDAD LINEAL";"444808";"4477186";"40.44348651514203";"-3.650809049182787";"91 403 57 44";"";"cp.mejico.madrid@educa.madrid.org";"/contenido/entidadesYorganismos/CentrosEducacion/ColegiosPublicos"; 
5234;"Colegio Público Méndez Núñez";"";"";"Comedor -  Planes de mejora";"BUS: 7 , 29 , 129";"ENSEÑANZA: Educación Infantil - Primaria";"0";"http://www.madrid.es/sites/v/index.jsp?vgnextchannel=bfa48ab43d6bb410VgnVCM100000171f5a0aRCRD&vgnextoid=4004a3f5ca71c010VgnVCM1000000b205a0aRCRD";"ALICUN";"CALLE";"V";"9";"";"";"";"";"MADRID";"MADRID";"28033";"APOSTOL SANTIAGO";"HORTALEZA";"444089";"4481130";"40.47897694855767";"-3.659634305967847";"913 024 834";"913 024 834";"cp.mendeznunez.madrid@educa.madrid.org";"/contenido/entidadesYorganismos/CentrosEducacion/ColegiosPublicos"; 
5244;"Colegio Público Navas de Tolosa";"";"";"Transporte - Comedor - Horario ampliado - Planes de mejora";"BUS: 59 , 79 RENFE: San Cristóbal de los Angeles";"ENSEÑANZA: Educación Infantil - Primaria";"0";"http://www.madrid.es/sites/v/index.jsp?vgnextchannel=bfa48ab43d6bb410VgnVCM100000171f5a0aRCRD&vgnextoid=65d4a3f5ca71c010VgnVCM1000000b205a0aRCRD";"BENIMAMET";"CALLE";"NUM";"109";"";"";"";"";"MADRID";"MADRID";"28021";"SAN CRISTOBAL";"VILLAVERDE";"441908";"4466410";"40.344340447262475";"-3.685296004324213";"917 976 083";"917 976 083";"cp.navasdetolosa.madrid@educa.madrid.org";"/contenido/entidadesYorganismos/CentrosEducacion/ColegiosPublicos"; 
5247;"Colegio Público Nuestra Señora de la Almudena";"";"";"Comedor";"METRO: Ibiza BUS: 15 , 20 , 26 , 61 , 63 , 69 , 152 , 202, 215";"ENSEÑANZA: Educación Infantil - Primaria";"0";"http://www.madrid.es/sites/v/index.jsp?vgnextchannel=bfa48ab43d6bb410VgnVCM100000171f5a0aRCRD&vgnextoid=0005a3f5ca71c010VgnVCM1000000b205a0aRCRD";"LOPE DE RUEDA";"CALLE";"NUM";"48";"";"";"";"";"MADRID";"MADRID";"28009";"IBIZA";"RETIRO";"442492";"4474487";"40.419015614377635";"-3.6778727223264904";"915 735 899";"915 743 106";"";"/contenido/entidadesYorganismos/CentrosEducacion/ColegiosPublicos"; 
5248;"Colegio Público Nuestra Señora de la Concepción";"";"";"Comedor - Horario ampliado - Planes de mejora - Integración preferente (Trastornos generales del desarrollo)";"METRO: Barrio de la Concepcion BUS: 21";"ENSEÑANZA: Educación Infantil - Primaria";"0";"http://www.madrid.es/sites/v/index.jsp?vgnextchannel=bfa48ab43d6bb410VgnVCM100000171f5a0aRCRD&vgnextoid=5515a3f5ca71c010VgnVCM1000000b205a0aRCRD";"VIRGEN DEL SAGRARIO";"CALLE";"NUM";"24";"";"";"";"";"MADRID";"MADRID";"28027";"CONCEPCION";"CIUDAD LINEAL";"444867";"4476481";"40.43714842135485";"-3.6500522880397286";"914 040 275";"914 047 955";"";"/contenido/entidadesYorganismos/CentrosEducacion/ColegiosPublicos"; 
5249;"Colegio Público Nuestra Señora de la Fuencisla";"";"";"Comedor - Horario ampliado - Planes de mejora";"BUS: 18 , 22 , 59 , 76 , 79 , 85 , 86 RENFE: Doce de Octubre";"ENSEÑANZA: Educación Infantil - Primaria - Enseñanza biling&amp;uuml;e";"0";"http://www.madrid.es/sites/v/index.jsp?vgnextchannel=bfa48ab43d6bb410VgnVCM100000171f5a0aRCRD&vgnextoid=aa25a3f5ca71c010VgnVCM1000000b205a0aRCRD";"TOMELLOSO";"CALLE";"V";"39";"";"";"";"";"MADRID";"MADRID";"28026";"ALMENDRALES";"USERA";"440730";"4470191";"40.380200366406136";"-3.698252688578992";"914 754 327";"915 001 173";"";"/contenido/entidadesYorganismos/CentrosEducacion/ColegiosPublicos"; 
5250;"Colegio Público Nuestra Señora de la Luz";"";"";"Transporte - Horario ampliado - Comedor - Planes de mejora";"BUS: 22";"ENSEÑANZA: Educación Infantil - Primaria";"0";"http://www.madrid.es/sites/v/index.jsp?vgnextchannel=bfa48ab43d6bb410VgnVCM100000171f5a0aRCRD&vgnextoid=ff35a3f5ca71c010VgnVCM1000000b205a0aRCRD";"MAGNESIA";"CALLE";"V";"9";"";"";"";"";"MADRID";"MADRID";"28021";"SAN ANDRES";"VILLAVERDE";"440182";"4466348";"40.34365972711248";"-3.705611429857769";"917 950 766";"917 975 020";"";"/contenido/entidadesYorganismos/CentrosEducacion/ColegiosPublicos"; 
5251;"Colegio Público Nuestra Señora de la Paloma";"";"";"Comedor - Horario ampliado - Planes de mejora";"METRO: La Latina BUS: 3 , 17 , 18 , 23 , 35 , 60 , 148";"ENSEÑANZA: Educación Infantil - Primaria - Enseñanza biling&amp;uuml;e";"1";"http://www.madrid.es/sites/v/index.jsp?vgnextchannel=bfa48ab43d6bb410VgnVCM100000171f5a0aRCRD&vgnextoid=4555a3f5ca71c010VgnVCM1000000b205a0aRCRD";"TABERNILLAS";"CALLE";"V";"2";"";"";"";"";"MADRID";"MADRID";"28005";"PALACIO";"CENTRO";"439752";"4473836";"40.4110845196558";"-3.711383150975494";"913 640 630 - 913 653 675";"913 653 675";"";"/contenido/entidadesYorganismos/CentrosEducacion/ColegiosPublicos"; 
5252;"Colegio Público Nuestra Señora del Lucero";"";"";"Comedor - Horario ampliado - Transporte - Planes de mejora";"METRO: Laguna BUS: 31 , 119 , 138 RENFE: Laguna";"ENSEÑANZA: Educación Infantil - Primaria";"0";"http://www.madrid.es/sites/v/index.jsp?vgnextchannel=bfa48ab43d6bb410VgnVCM100000171f5a0aRCRD&vgnextoid=9a65a3f5ca71c010VgnVCM1000000b205a0aRCRD";"MUÑICO";"CALLE";"NUM";"1";"";"";"";"";"MADRID";"MADRID";"28047";"LOS CARMENES";"LATINA";"437118";"4472688";"40.40242068072587";"-3.7410476655898712";"914 647 678";"914 647 678";"";"/contenido/entidadesYorganismos/CentrosEducacion/ColegiosPublicos"; 
11167184;"Colegio Público Nuria Espert";"";"";"Comedor - Horario ampliado";"Bus: SE 799";"ENSEÑANZA: Educación infantil - Primaria - Enseñanza biling&amp;uuml;e";"0";"http://www.madrid.es/sites/v/index.jsp?vgnextchannel=bfa48ab43d6bb410VgnVCM100000171f5a0aRCRD&vgnextoid=0a8c4279bad91710VgnVCM1000001d4a900aRCRD";"MARIA REICHE";"CALLE";"V";"34";"";"";"";"";"MADRID";"MADRID";"28055";"TIMON";"BARAJAS";"448214";"4482036";"40.487409274945925";"-3.6110407043008768";"686 545 008 (Secretaria)";"";"cp.nuriaespert.madrid@educa.madrid.org";"/contenido/entidadesYorganismos/CentrosEducacion/ColegiosPublicos"; 
5255;"Colegio Público Pablo Picasso";"";"";"Comedor -Horario ampliado - Planes de mejora";"BUS: 9 , 72 , 120 , 125";"ENSEÑANZA: Educación Infantil - Primaria - Enseñanza biling&amp;uuml;e";"0";"http://www.madrid.es/sites/v/index.jsp?vgnextchannel=bfa48ab43d6bb410VgnVCM100000171f5a0aRCRD&vgnextoid=ef75a3f5ca71c010VgnVCM1000000b205a0aRCRD";"ANGEL LUIS DE LA HERRAN";"CALLE";"V";"35";"";"";"";"";"MADRID";"MADRID";"28043";"PINAR DEL REY";"HORTALEZA";"445140";"4480214";"40.47078626667984";"-3.647156116262385";"913 821 795 / 917 646 297";"917 646 297";"";"/contenido/entidadesYorganismos/CentrosEducacion/ColegiosPublicos"; 
5256;"Colegio Público Padre Coloma";"";"";"Comedor - Horario ampliado";"METRO: Canillejas BUS: 77 , 89 , 105 , 114 , 115 , 140";"ENSEÑANZA: Educación infantil - Primaria";"0";"http://www.madrid.es/sites/v/index.jsp?vgnextchannel=bfa48ab43d6bb410VgnVCM100000171f5a0aRCRD&vgnextoid=3595a3f5ca71c010VgnVCM1000000b205a0aRCRD";"GUTIERREZ CANALES";"CALLE";"NUM";"19";"";"";"";"";"MADRID";"MADRID";"28022";"CANILLEJAS";"SAN BLAS-CANILLEJAS";"447859";"4477718";"40.448484963114275";"-3.6148900571656988";"91 742 64 47";"91 741 25 98";"";"/contenido/entidadesYorganismos/CentrosEducacion/ColegiosPublicos"; 
5257;"Colegio Público Padre Mariana";"";"";"Comedor - Transporte - Planes de mejora";"BUS: 102, 111";"ENSEÑANZA: Educación infantil - Primaria";"0";"http://www.madrid.es/sites/v/index.jsp?vgnextchannel=bfa48ab43d6bb410VgnVCM100000171f5a0aRCRD&vgnextoid=8aa5a3f5ca71c010VgnVCM1000000b205a0aRCRD";"SUR";"RONDA";"V";"145";"";"";"";"";"MADRID";"MADRID";"28053";"ENTREVIAS";"PUENTE DE VALLECAS";"443015";"4469823";"40.37703559395701";"-3.671302626256522";"917 861 773";"917 861 773";"";"/contenido/entidadesYorganismos/CentrosEducacion/ColegiosPublicos"; 
5258;"Colegio Público Padre Poveda";"";"";"Comedor - Horario ampliado - Planes de mejora";"METRO: Alfonso XIII  BUS: 9 , 40 , 43 , 72 , 73";"ENSEÑANZA: Educación Infantil - Primaria - Enseñanza biling&amp;uuml;e";"0";"http://www.madrid.es/sites/v/index.jsp?vgnextchannel=bfa48ab43d6bb410VgnVCM100000171f5a0aRCRD&vgnextoid=dfb5a3f5ca71c010VgnVCM1000000b205a0aRCRD";"ALFONSO XIII";"AVENIDA";"V";"23";"";"";"";"";"MADRID";"MADRID";"28002";"CIUDAD JARDIN";"CHAMARTIN";"443380";"4478055";"40.451218874985805";"-3.6677240367753114";"914 151 195 - 915 199 877";"914 162 781";"";"/contenido/entidadesYorganismos/CentrosEducacion/ColegiosPublicos"; 
5260;"Colegio Público Palacio Valdés";"";"";"Comedor - Planes de mejora";"METRO: Atocha BUS: 10 , 14 , 27 , 34 , 37 , 45 , 141 RENFE: Atocha";"ENSEÑANZA: Educación Infantil - Primaria";"0";"http://www.madrid.es/sites/v/index.jsp?vgnextchannel=bfa48ab43d6bb410VgnVCM100000171f5a0aRCRD&vgnextoid=25d5a3f5ca71c010VgnVCM1000000b205a0aRCRD";"PRADO";"PASEO";"V";"38";"";"";"";"";"MADRID";"MADRID";"28014";"CORTES";"CENTRO";"441318";"4473765";"40.41055699750786";"-3.6929209140194783";"914 203 370 - 913 695 034";"914 203 370";"";"/contenido/entidadesYorganismos/CentrosEducacion/ColegiosPublicos"; 
5261;"Colegio Público Palomeras Bajas";"";"";"Comedor - Integración (General) - Horario ampliado";"BUS: 57 , 144 RENFE: Entrevías";"ENSEÑANZA: Educación infantil - Primaria";"0";"http://www.madrid.es/sites/v/index.jsp?vgnextchannel=bfa48ab43d6bb410VgnVCM100000171f5a0aRCRD&vgnextoid=7ae5a3f5ca71c010VgnVCM1000000b205a0aRCRD";"FELIPE DE DIEGO";"CALLE";"NUM";"6";"";"";"";"";"MADRID";"MADRID";"28018";"PALOMERAS BAJAS";"PUENTE DE VALLECAS";"443902";"4470055";"40.37919484869876";"-3.6608630426434994";"91 785 48 17";"";"";"/contenido/entidadesYorganismos/CentrosEducacion/ColegiosPublicos"; 
5263;"Colegio Público Parque Aluche";"";"";"Comedor - Transporte - Integración (preferentemente motóricos) - Horario ampliado";"METRO: Empalme BUS: 25 , 121 , 131 , H";"ENSEÑANZA: Educación Infantil - PrimariaEnseñanza bling&amp;uuml;e";"1";"http://www.madrid.es/sites/v/index.jsp?vgnextchannel=bfa48ab43d6bb410VgnVCM100000171f5a0aRCRD&vgnextoid=cff5a3f5ca71c010VgnVCM1000000b205a0aRCRD";"QUERO";"CALLE";"V";"47";"";"";"";"";"MADRID";"MADRID";"28024";"ALUCHE";"LATINA";"435413";"4471416";"40.39083157827759";"-3.760997850579394";"91 717 81 90";"";"cp.parquealuche.madrid@educa.madrid.org";"/contenido/entidadesYorganismos/CentrosEducacion/ColegiosPublicos"; 
5151;"Colegio Público Parque Eugenia de Montijo";"";"";"Comedor - Horario ampliado - Planes de mejora";"BUS: 34 , 35 , 121 , 131 , 139";"ENSEÑANZA: Educación Infantil - Primaria - Enseñanza biling&amp;uuml;e";"0";"http://www.madrid.es/sites/v/index.jsp?vgnextchannel=bfa48ab43d6bb410VgnVCM100000171f5a0aRCRD&vgnextoid=d1cda3f5ca71c010VgnVCM1000000b205a0aRCRD";"PARQUE EUGENIA DE MONTIJO";"CALLE";"V";"28";"";"";"";"";"MADRID";"MADRID";"28047";"VISTA ALEGRE";"CARABANCHEL";"436244";"4470234";"40.37837446977044";"-3.7523641127237983";"914 615 653";"914 615 603";"";"/contenido/entidadesYorganismos/CentrosEducacion/ColegiosPublicos"; 
5264;"Colegio Público Pasamonte";"";"";"Comedor - Integración (General)";"METRO: Vinateros BUS: 30 , 32 , 71 , 113";"ENSEÑANZA: Educación Infantil - Primaria - Enseñanza biling&amp;uuml;e";"0";"http://www.madrid.es/sites/v/index.jsp?vgnextchannel=bfa48ab43d6bb410VgnVCM100000171f5a0aRCRD&vgnextoid=1516a3f5ca71c010VgnVCM1000000b205a0aRCRD";"DOCTOR GARCIA TAPIA";"AVENIDA";"V";"47";"";"";"";"";"MADRID";"MADRID";"28030";"MARROQUINA";"MORATALAZ";"445019";"4473719";"40.41226776087093";"-3.6480330885473093";"91 430 53 66";"";"";"/contenido/entidadesYorganismos/CentrosEducacion/ColegiosPublicos"; 
5253;"Colegio Público Patriarca Obispo Eijo y Garay";"";"";"Comedor - Horario ampliado - Planes de mejora.";"METRO: Avenida de América BUS: 9, 16, 19, 29 , 52, Circular";"ENSEÑANZA: Educación Infantil - Primaria - Enseñanza biling&amp;uuml;e";"0";"http://www.madrid.es/sites/v/index.jsp?vgnextchannel=bfa48ab43d6bb410VgnVCM100000171f5a0aRCRD&vgnextoid=6a26a3f5ca71c010VgnVCM1000000b205a0aRCRD";"LOPEZ DE HOYOS";"CALLE";"V";"40";"";"";"";"";"MADRID";"MADRID";"28006";"EL VISO";"CHAMARTIN";"442193";"4476784";"40.43969634718427";"-3.6816176968334515";"917 450 282";"917 451 152";"";"/contenido/entidadesYorganismos/CentrosEducacion/ColegiosPublicos"; 
176881;"Colegio Público Pedro Duque";"";"";"Transporte - Horario ampliado - Comedor - Planes de mejora.";"BUS: 71, 100";"ENSEÑANZA: Educación Infantil (Segundo Ciclo) - Primaria";"0";"http://www.madrid.es/sites/v/index.jsp?vgnextchannel=bfa48ab43d6bb410VgnVCM100000171f5a0aRCRD&vgnextoid=ee844b6faa61c010VgnVCM1000000b205a0aRCRD";"MARMOLINA";"CALLE";"V";"5";"";"";"";"";"MADRID";"MADRID";"28032";"CASCO H.VICALVARO";"VICALVARO";"448463";"4472023";"40.39721845156279";"-3.607306131972689";"917 762 363";"917 753 209";"";"/contenido/entidadesYorganismos/CentrosEducacion/ColegiosPublicos"; 
5267;"Colegio Público Perú";"";"";"Comedor - Horario ampliado";"METRO: Marqués de Vadillo BUS: 23 , 34 , 35 , 116 , 118 , 119";"ENSEÑANZA: Educación Infantil - Primaria";"0";"http://www.madrid.es/sites/v/index.jsp?vgnextchannel=bfa48ab43d6bb410VgnVCM100000171f5a0aRCRD&vgnextoid=bf36a3f5ca71c010VgnVCM1000000b205a0aRCRD";"BALEARES";"CALLE";"NUM";"18";"";"";"";"";"MADRID";"MADRID";"28019";"COMILLAS";"CARABANCHEL";"439577";"4471918";"40.39379355659199";"-3.713263165805392";"91 569 14 65";"";"";"/contenido/entidadesYorganismos/CentrosEducacion/ColegiosPublicos"; 
5268;"Colegio Público Pi I Margall";"";"";"Comedor - Horario ampliado - Planes de mejora";"METRO: Noviciado , Tribunal , Bilbao BUS: 3 , 21 , 40 , 147 , 149";"ENSEÑANZA: Educación Infantil - Primaria - Enseñanza biling&amp;uuml;e";"0";"http://www.madrid.es/sites/v/index.jsp?vgnextchannel=bfa48ab43d6bb410VgnVCM100000171f5a0aRCRD&vgnextoid=0556a3f5ca71c010VgnVCM1000000b205a0aRCRD";"DOS DE MAYO";"PLAZA";"V";"2";"";"";"";"";"MADRID";"MADRID";"28004";"UNIVERSIDAD";"CENTRO";"440343";"4475575";"40.42679288775549";"-3.7045815049836723";"915 323 420";"915 231 075";"";"/contenido/entidadesYorganismos/CentrosEducacion/ColegiosPublicos"; 
176871;"Colegio Público Pinar de San José";"";"";"Horario ampliado - Comedor - Integración preferente: motóricos";"BUS: 155, 35METRO: La Peseta";"ENSEÑANZA: Segundo ciclo de Educación Infantil - Primaria";"1";"http://www.madrid.es/sites/v/index.jsp?vgnextchannel=bfa48ab43d6bb410VgnVCM100000171f5a0aRCRD&vgnextoid=99744b6faa61c010VgnVCM1000000b205a0aRCRD";"PATRIMONIO DE LA HUMANIDAD";"CALLE";"NUM";"39";"";"";"";"";"MADRID";"MADRID";"28054";"BUENAVISTA";"CARABANCHEL";"435102";"4468331";"40.36301638063713";"-3.764359559786085";"915 112 417";"915 112 418";"cp.pinardesanjose.madrid@educa.madrid.org";"/contenido/entidadesYorganismos/CentrosEducacion/ColegiosPublicos"; 
5269;"Colegio Público Pinar del Rey";"";"";"Comedor - Horario ampliado - Planes de mejora";"BUS: 107 , 125";"ENSEÑANZA: Educación Infantil - Primaria - Enseñanza Biling&amp;uuml;e";"0";"http://www.madrid.es/sites/v/index.jsp?vgnextchannel=bfa48ab43d6bb410VgnVCM100000171f5a0aRCRD&vgnextoid=5a66a3f5ca71c010VgnVCM1000000b205a0aRCRD";"SAN LUIS";"AVENIDA";"NUM";"23";"";"";"";"";"MADRID";"MADRID";"28033";"PINAR DEL REY";"HORTALEZA";"444541";"4480310";"40.471620244949925";"-3.6542420626066923";"917 664 763";"917 664 763";"";"/contenido/entidadesYorganismos/CentrosEducacion/ColegiosPublicos"; 
5270;"Colegio Público Pintor Rosales";"";"";"Comedor - Horario ampliado - Planes de mejora";"METRO: Cruz del Rayo  BUS: 29 , 52";"ENSEÑANZA: Educación Infantil - Primaria - Enseñanza biling&amp;uuml;e -";"0";"http://www.madrid.es/sites/v/index.jsp?vgnextchannel=bfa48ab43d6bb410VgnVCM100000171f5a0aRCRD&vgnextoid=af76a3f5ca71c010VgnVCM1000000b205a0aRCRD";"PRINCIPE DE VERGARA";"CALLE";"V";"139";"";"";"";"";"MADRID";"MADRID";"28002";"EL VISO";"CHAMARTIN";"442559";"4477537";"40.44462379507087";"-3.6786369687124028";"915 623 948";"915 638 730";"";"/contenido/entidadesYorganismos/CentrosEducacion/ColegiosPublicos"; 
5430971;"Colegio Público Plácido Domingo";"";"";"Horario ampliado - Comedor";"Bus: 8, 102, 152, 156Metro: Méndez Álvaro";"ENSEÑANZA: Educación infantil - Primaria";"0";"http://www.madrid.es/sites/v/index.jsp?vgnextchannel=bfa48ab43d6bb410VgnVCM100000171f5a0aRCRD&vgnextoid=81ecf6fddbf04210VgnVCM1000000b205a0aRCRD";"TEJO";"CALLE";"V";"5";"";"";"";"";"MADRID";"MADRID";"28045";"ATOCHA";"ARGANZUELA";"442433";"4472093";"40.39744510759389";"-3.678351566632272";"917 650 789 - 633 494 079";"";"";"/contenido/entidadesYorganismos/CentrosEducacion/ColegiosPublicos"; 
5273;"Colegio Público Portugal";"";"";"Comedor";"METRO: Ventura Rodríguez , Plaza de España BUS: 1 , 2 , 44 , 46 , 74 , 75 , 133 , 138 , 148 , 202";"ENSEÑANZA: Educación Infantil - Primaria";"0";"http://www.madrid.es/sites/v/index.jsp?vgnextchannel=bfa48ab43d6bb410VgnVCM100000171f5a0aRCRD&vgnextoid=9fb6a3f5ca71c010VgnVCM1000000b205a0aRCRD";"JUAN ALVAREZ MENDIZABAL";"CALLE";"V";"20";"";"";"";"";"MADRID";"MADRID";"28008";"ARGUELLES";"MONCLOA-ARAVACA";"439356";"4475167";"40.42491865180926";"-3.7149121447760582";"91 541 73 30";"";"";"/contenido/entidadesYorganismos/CentrosEducacion/ColegiosPublicos"; 
5275;"Colegio Público Pradolongo";"";"";"Comedor - Horario ampliado";"BUS: 6 , 60 , 78 , 81";"ENSEÑANZA: Educación Infantil - Primaria";"0";"http://www.madrid.es/sites/v/index.jsp?vgnextchannel=bfa48ab43d6bb410VgnVCM100000171f5a0aRCRD&vgnextoid=e4d6a3f5ca71c010VgnVCM1000000b205a0aRCRD";"PARQUE DE LA PALOMA";"CALLE";"NUM";"9";"";"";"";"";"MADRID";"MADRID";"28026";"ZOFIO";"USERA";"439235";"4470063";"40.37893066302815";"-3.7158394380500623";"91 469 35 81";"";"";"/contenido/entidadesYorganismos/CentrosEducacion/ColegiosPublicos"; 
5276;"Colegio Público Príncipe de Asturias";"";"";"Comedor";"Desconocido";"ENSEÑANZA: Educación Infantil - Primaria";"0";"http://www.madrid.es/sites/v/index.jsp?vgnextchannel=bfa48ab43d6bb410VgnVCM100000171f5a0aRCRD&vgnextoid=3ae6a3f5ca71c010VgnVCM1000000b205a0aRCRD";"KANT";"CALLE";"V";"2";"";"";"";"";"MADRID";"MADRID";"28049";"EL GOLOSO";"FUENCARRAL-EL PARDO";"440993";"4488102";"40.54156879341023";"-3.6968198242534527";"917 355 115";"917 355 003";"";"/contenido/entidadesYorganismos/CentrosEducacion/ColegiosPublicos"; 
5278;"Colegio Público Puerto Rico";"";"";"Comedor - Horario ampliado - Planes de mejora";"BUS: 6 , 60 , 131";"ENSEÑANZA: Educación Infantil - Primaria - Enseñanza biling&amp;uuml;e";"0";"http://www.madrid.es/sites/v/index.jsp?vgnextchannel=bfa48ab43d6bb410VgnVCM100000171f5a0aRCRD&vgnextoid=d417a3f5ca71c010VgnVCM1000000b205a0aRCRD";"SEGURA";"CALLE";"V";"74";"";"";"";"";"MADRID";"MADRID";"28041";"ORCASITAS";"USERA";"438923";"4468845";"40.36794449938085";"-3.7193980638250013";"913 412 726";"913 416 960";"";"/contenido/entidadesYorganismos/CentrosEducacion/ColegiosPublicos"; 
5271;"Colegio Público Pío Baroja";"";"";"Comedor - Horario ampliado";"METRO: Artilleros, Pavones BUS: 20, 30, 32 , 100 , 140 , 142";"ENSEÑANZA: Educacion Infantil - Primaria - Enseñanza biling&amp;uuml;e";"0";"http://www.madrid.es/sites/v/index.jsp?vgnextchannel=bfa48ab43d6bb410VgnVCM100000171f5a0aRCRD&vgnextoid=f496a3f5ca71c010VgnVCM1000000b205a0aRCRD";"LUIS DE HOYOS SAINZ";"CALLE";"NUM";"84";"";"";"";"";"MADRID";"MADRID";"28030";"VINATEROS";"MORATALAZ";"445867";"4472744";"40.40354001887506";"-3.6379441929941656";"917 739 618 - 913 713 235";"917 739 618";"";"/contenido/entidadesYorganismos/CentrosEducacion/ColegiosPublicos"; 
5272;"Colegio Público Pío XII";"";"";"Comedor - Transporte";"METRO: Plaza de Castilla BUS: 5 , 27 , 42 , 49 , 66 ,124 , 134 , 135 ,";"ENSEÑANZA: Educación Infantil - Primaria";"0";"http://www.madrid.es/sites/v/index.jsp?vgnextchannel=bfa48ab43d6bb410VgnVCM100000171f5a0aRCRD&vgnextoid=4aa6a3f5ca71c010VgnVCM1000000b205a0aRCRD";"DELFIN";"CALLE";"NUM";"2";"";"";"";"";"MADRID";"MADRID";"28029";"ALMENARA";"TETUAN";"441176";"4479817";"40.46693859499291";"-3.693889291907082";"91 315 12 21";"";"";"/contenido/entidadesYorganismos/CentrosEducacion/ColegiosPublicos"; 
5279;"Colegio Público Rabindranath Tagore";"";"";"Comedor - Horario ampliado - Planes de mejora";"BUS: 67 , 132";"ENSEÑANZA: Educacion Infantil - Primaria - Enseñanza biling&amp;uuml;e";"0";"http://www.madrid.es/sites/v/index.jsp?vgnextchannel=bfa48ab43d6bb410VgnVCM100000171f5a0aRCRD&vgnextoid=2a27a3f5ca71c010VgnVCM1000000b205a0aRCRD";"JULIO PALACIOS";"CALLE";"NUM";"35";"";"";"";"";"MADRID";"MADRID";"28029";"LA PAZ";"FUENCARRAL-EL PARDO";"441019";"4481612";"40.48309753300499";"-3.695908037156805";"917 332 373";"917 332 373";"";"/contenido/entidadesYorganismos/CentrosEducacion/ColegiosPublicos"; 
6027;"Colegio Público Ramiro de Maeztu";"";"Secretaria: de lunes a viernes de 9 a 16 horas.";"Comedor - Horario ampliado - Planes de mejora";"Metro: República Argentina Bus: 9 , 16 , 19 , 51";"Enseñanzas Autorizadas: Educación infantil segundo ciclo - Educación Primaria - Enseñanza biling&amp;uuml;e  - Alemán";"0";"http://www.madrid.es/sites/v/index.jsp?vgnextchannel=bfa48ab43d6bb410VgnVCM100000171f5a0aRCRD&vgnextoid=91f4ae10c471c010VgnVCM1000000b205a0aRCRD";"SERRANO";"CALLE";"V";"127";"";"";"";"";"MADRID";"MADRID";"28006";"EL VISO";"CHAMARTIN";"441811";"4477054";"40.44209298097929";"-3.6861462152769775";"915 616 249";"915 647 056";"cp.ramirodemaeztu.madrid@educa.madrid.org";"/contenido/entidadesYorganismos/CentrosEducacion/ColegiosPublicos"; 
5280;"Colegio Público Ramón Gómez de la Serna";"";"";"Comedor - Transporte";"BUS: 59 , 79 RENFE: San Cristóbal de los Angeles";"ENSEÑANZA: Educacion Infantil - Primaria - Enseñanza biling&amp;uuml;e";"0";"http://www.madrid.es/sites/v/index.jsp?vgnextchannel=bfa48ab43d6bb410VgnVCM100000171f5a0aRCRD&vgnextoid=7f37a3f5ca71c010VgnVCM1000000b205a0aRCRD";"GODELLA";"CALLE";"V";"170";"";"";"";"";"MADRID";"MADRID";"28021";"SAN CRISTOBAL";"VILLAVERDE";"441540";"4465897";"40.33969327538041";"-3.689581642256062";"917 972 522 - 915 053 446";"917 972 554";"";"/contenido/entidadesYorganismos/CentrosEducacion/ColegiosPublicos"; 
5281;"Colegio Público Ramón María del Valle Inclán";"";"";"Comedor -  Horario ampliado - Planes de mejora";"METRO: San Blas BUS: 38 , 48";"ENSEÑANZA: Educación infantil - Primaria";"0";"http://www.madrid.es/sites/v/index.jsp?vgnextchannel=bfa48ab43d6bb410VgnVCM100000171f5a0aRCRD&vgnextoid=c457a3f5ca71c010VgnVCM1000000b205a0aRCRD";"ALCONERA";"CALLE";"V";"1";"";"";"";"";"MADRID";"MADRID";"28037";"HELLIN";"SAN BLAS-CANILLEJAS";"447556";"4475652";"40.429854215285445";"-3.618280698226673";"913 130 739";"913 130 739";"";"/contenido/entidadesYorganismos/CentrosEducacion/ColegiosPublicos"; 
5282;"Colegio Público Ramón Pérez de Ayala";"";"";"Comedor - Horario ampliado - Planes de mejora";"METRO: Canillas  BUS: 73 , 112 , 120";"ENSEÑANZA: Educación Infantil - Primaria - Enseñanza biling&amp;uuml;e";"0";"http://www.madrid.es/sites/v/index.jsp?vgnextchannel=bfa48ab43d6bb410VgnVCM100000171f5a0aRCRD&vgnextoid=1a67a3f5ca71c010VgnVCM1000000b205a0aRCRD";"MOTILLA DEL PALANCAR";"CALLE";"V";"19";"";"";"";"";"MADRID";"MADRID";"28043";"CANILLAS";"HORTALEZA";"446318";"4479712";"40.46634990040974";"-3.6332300542597373";"917 592 205";"917 599 412";"";"/contenido/entidadesYorganismos/CentrosEducacion/ColegiosPublicos"; 
5283;"Colegio Público Real Armada";"";"";"Comedor - Horario ampliado - Planes de mejora";"BUS: 8 , 20 , 30 , 63 , 143 METRO: Artilleros";"ENSEÑANZA: Educación Infantil - Primaria - Enseñanza Biling&amp;uuml;e";"0";"http://www.madrid.es/sites/v/index.jsp?vgnextchannel=bfa48ab43d6bb410VgnVCM100000171f5a0aRCRD&vgnextoid=6f77a3f5ca71c010VgnVCM1000000b205a0aRCRD";"CORREGIDOR JUAN FRANCISCO DE LUJAN";"CALLE";"V";"114";"";"";"";"";"MADRID";"MADRID";"28030";"FONTARRON";"MORATALAZ";"445219";"4472545";"40.401704924123834";"-3.645563131710102";"917 736 583        
917 724 429 (Primaria)";"917 736 583";"";"/contenido/entidadesYorganismos/CentrosEducacion/ColegiosPublicos"; 
5284;"Colegio Público Regimiento Inmemorial del Rey";"";"";"Comedor - Horario ampliado - Planes de mejora";"BUS: 8 , 20 , 30 , 32 , 113";"ENSEÑANZA: Educación Infantil - Primaria - Enseñanza biling&amp;uuml;e -";"0";"http://www.madrid.es/sites/v/index.jsp?vgnextchannel=bfa48ab43d6bb410VgnVCM100000171f5a0aRCRD&vgnextoid=b497a3f5ca71c010VgnVCM1000000b205a0aRCRD";"MORATALAZ";"AVENIDA";"NUM";"51";"";"";"";"";"MADRID";"MADRID";"28030";"MEDIA LEGUA";"MORATALAZ";"444220";"4473183";"40.407386072133015";"-3.6573909677766716";"914 390 948";"913 282 535";"";"/contenido/entidadesYorganismos/CentrosEducacion/ColegiosPublicos"; 
5170;"Colegio Público Reina Victoria";"";"";"Comedor - Horario ampliado - Planes de mejora";"METRO: Núñez de Balboa  BUS: 1 , 29 , 52 , 74";"ENSEÑANZA: Educación Infantil - Primaria";"1";"http://www.madrid.es/sites/v/index.jsp?vgnextchannel=bfa48ab43d6bb410VgnVCM100000171f5a0aRCRD&vgnextoid=714fa3f5ca71c010VgnVCM1000000b205a0aRCRD";"PRINCIPE DE VERGARA";"CALLE";"NUM";"61";"";"";"";"";"MADRID";"MADRID";"28006";"CASTELLANA";"SALAMANCA";"442462";"4476303";"40.43350060791133";"-3.679668747386544";"915 631 283";"914 113 067";"";"/contenido/entidadesYorganismos/CentrosEducacion/ColegiosPublicos"; 
5293;"Colegio Público República Dominicana";"";"";"Comedor - Planes de mejora - Horario ampliado";"BUS: 34 , 35 , 121 , 131 , 139 , 47";"ENSEÑANZA: Educación Infantil - Primaria";"0";"http://www.madrid.es/sites/v/index.jsp?vgnextchannel=bfa48ab43d6bb410VgnVCM100000171f5a0aRCRD&vgnextoid=e96813db5b71c010VgnVCM1000000b205a0aRCRD";"DON BOSCO";"RONDA";"NUM";"2";"";"";"";"";"MADRID";"MADRID";"28044";"BUENAVISTA";"CARABANCHEL";"436256";"4470002";"40.37628543221565";"-3.752199516614656";"914 629 060";"914 662 819";"";"/contenido/entidadesYorganismos/CentrosEducacion/ColegiosPublicos"; 
5289;"Colegio Público República de Brasil";"";"";"Comedor - Horario ampliado - Planes de mejora";"BUS: 23 , 78 , 123";"ENSEÑANZA: Educación Infantil - PrimariaEnseñanza bling&amp;uuml;e";"0";"http://www.madrid.es/sites/v/index.jsp?vgnextchannel=bfa48ab43d6bb410VgnVCM100000171f5a0aRCRD&vgnextoid=0aa7a3f5ca71c010VgnVCM1000000b205a0aRCRD";"FUEROS";"AVENIDA";"NUM";"34";"";"";"";"";"MADRID";"MADRID";"28041";"SAN FERMIN";"USERA";"441427";"4469102";"40.37043939785913";"-3.6899302716018574";"917 923 478";"917 920 822";"";"/contenido/entidadesYorganismos/CentrosEducacion/ColegiosPublicos"; 
5286;"Colegio Público República de Chile";"";"";"Comedor - Horario ampliado";"METRO: Simancas BUS: 4 , 38 , 48 , 70 , 109";"ENSEÑANZA: Educación infantil - Primaria";"0";"http://www.madrid.es/sites/v/index.jsp?vgnextchannel=bfa48ab43d6bb410VgnVCM100000171f5a0aRCRD&vgnextoid=5fb7a3f5ca71c010VgnVCM1000000b205a0aRCRD";"CASTILLO DE UCLES";"CALLE";"NUM";"28";"";"";"";"";"MADRID";"MADRID";"28037";"SIMANCAS";"SAN BLAS-CANILLEJAS";"447003";"4475462";"40.42809852476456";"-3.6247839198679577";"91 304 66 58";"";"";"/contenido/entidadesYorganismos/CentrosEducacion/ColegiosPublicos"; 
5285;"Colegio Público República de Colombia";"";"";"Comedor - Horario ampliado - Planes de mejora";"METRO: Pan Bendito BUS: 47 , 108 , 118 , 121 , 131";"ENSEÑANZA: Educación Infantil - Primaria";"0";"http://www.madrid.es/sites/v/index.jsp?vgnextchannel=bfa48ab43d6bb410VgnVCM100000171f5a0aRCRD&vgnextoid=a4d7a3f5ca71c010VgnVCM1000000b205a0aRCRD";"ALLOZ";"PLAZA";"V";"3";"";"";"";"";"MADRID";"MADRID";"28025";"PUERTA BONITA";"CARABANCHEL";"437550";"4469963";"40.37598607317299";"-3.737129783095065";"914 650 587";"914 650 587";"";"/contenido/entidadesYorganismos/CentrosEducacion/ColegiosPublicos"; 
5290;"Colegio Público República de Ecuador";"";"";"Comedor -  Horario ampliado - Planes de mejora";"METRO: Oporto , Opañel BUS: 34 , 35 , 55 , 81 , 108 , 118 , 247";"ENSEÑANZA: Educación Infantil - Primaria";"0";"http://www.madrid.es/sites/v/index.jsp?vgnextchannel=bfa48ab43d6bb410VgnVCM100000171f5a0aRCRD&vgnextoid=f9e7a3f5ca71c010VgnVCM1000000b205a0aRCRD";"VALLE DE ORO";"CALLE";"V";"41";"";"";"";"";"MADRID";"MADRID";"28019";"OPAÑEL";"CARABANCHEL";"438554";"4471240";"40.38761083602051";"-3.7252507882198085";"914 603 284 - 915 600 937";"914 603 284";"";"/contenido/entidadesYorganismos/CentrosEducacion/ColegiosPublicos"; 
5291;"Colegio Público República de El Salvador";"";"";"Comedor - Planes de mejora";"BUS: 22 , 86 , 130";"ENSEÑANZA: Educación Infantil - Primaria";"0";"http://www.madrid.es/sites/v/index.jsp?vgnextchannel=bfa48ab43d6bb410VgnVCM100000171f5a0aRCRD&vgnextoid=945813db5b71c010VgnVCM1000000b205a0aRCRD";"SACEDON";"CALLE";"V";"2";"";"";"";"";"MADRID";"MADRID";"28021";"LOS ANGELES";"VILLAVERDE";"440728";"4466783";"40.34949911149915";"-3.6979477280735917";"917 964 041";"917 987 815";"cp.elsalvador.madrid@educa.madrid.org";"/contenido/entidadesYorganismos/CentrosEducacion/ColegiosPublicos"; 
5262;"Colegio Público República de Panamá Nº 1";"";"";"Comedor - Horario ampliado - Planes de mejora";"METRO: San BlasBUS: 38 , 48";"ENSEÑANZA: Educación infantil - Primaria";"0";"http://www.madrid.es/sites/v/index.jsp?vgnextchannel=bfa48ab43d6bb410VgnVCM100000171f5a0aRCRD&vgnextoid=4ff7a3f5ca71c010VgnVCM1000000b205a0aRCRD";"PEONES";"CALLE";"V";"2";"";"";"";"";"MADRID";"MADRID";"28037";"ARCOS";"SAN BLAS-CANILLEJAS";"447612";"4475289";"40.42658755563361";"-3.617602405153018";"913 065 472    
917 754 199";"913 065 472";"";"/contenido/entidadesYorganismos/CentrosEducacion/ColegiosPublicos"; 
5287;"Colegio Público República de Paraguay";"";"";"Comedor - Transporte - Horario ampliado";"BUS: 124";"ENSEÑANZA: Educación Infantil - Primaria";"0";"http://www.madrid.es/sites/v/index.jsp?vgnextchannel=bfa48ab43d6bb410VgnVCM100000171f5a0aRCRD&vgnextoid=a41813db5b71c010VgnVCM1000000b205a0aRCRD";"MANRESA";"CALLE";"V";"60";"";"";"";"";"MADRID";"MADRID";"28034";"VALVERDE";"FUENCARRAL-EL PARDO";"441081";"4482594";"40.49194816139676";"-3.695267856666852";"917 343 888";"917 351 680";"";"/contenido/entidadesYorganismos/CentrosEducacion/ColegiosPublicos"; 
5292;"Colegio Público República de Uruguay";"";"";"Comedor - Horario ampliado - Planes de mejora";"METRO: Carpetana BUS: 17 , 25 , 55, 119";"ENSEÑANZA: Educación Infantil - Primaria";"0";"http://www.madrid.es/sites/v/index.jsp?vgnextchannel=bfa48ab43d6bb410VgnVCM100000171f5a0aRCRD&vgnextoid=f92813db5b71c010VgnVCM1000000b205a0aRCRD";"NUESTRA SEÑORA DE VALVANERA";"AVENIDA";"NUM";"120";"";"";"";"";"MADRID";"MADRID";"28047";"LOS CARMENES";"LATINA";"437093";"4471695";"40.39347350069245";"-3.741232360556739";"914 661 360";"914 613 919";"";"/contenido/entidadesYorganismos/CentrosEducacion/ColegiosPublicos"; 
5288;"Colegio Público República de Venezuela";"";"";"Comedor - Horario ampliado - Planes de mejora";"METRO: Plaza Elíptica BUS: 6 , 47 , 60 , 81 , 247";"ENSEÑANZA: Educación Infantil - Primaria";"0";"http://www.madrid.es/sites/v/index.jsp?vgnextchannel=bfa48ab43d6bb410VgnVCM100000171f5a0aRCRD&vgnextoid=4f3813db5b71c010VgnVCM1000000b205a0aRCRD";"CERECINOS";"CALLE";"V";"8";"";"";"";"";"MADRID";"MADRID";"28026";"ZOFIO";"USERA";"439428";"4470578";"40.38358402272625";"-3.713626711959121";"915 698 392";"914 695 258";"";"/contenido/entidadesYorganismos/CentrosEducacion/ColegiosPublicos"; 
5295;"Colegio Público Rosa Luxemburgo";"";"";"Comedor - Horario ampliado - Planes de mejora";"BUS: 160";"ENSEÑANZA: Educación Infantil - Primaria - Enseñanza biling&amp;uuml;e";"0";"http://www.madrid.es/sites/v/index.jsp?vgnextchannel=bfa48ab43d6bb410VgnVCM100000171f5a0aRCRD&vgnextoid=3f7813db5b71c010VgnVCM1000000b205a0aRCRD";"BARDEGUERAL";"CALLE";"V";"16";"";"";"";"";"MADRID";"MADRID";"28023";"ARAVACA";"MONCLOA-ARAVACA";"434574";"4477995";"40.450031818221355";"-3.7715711526219784";"913 570 212";"913 570 661";"";"/contenido/entidadesYorganismos/CentrosEducacion/ColegiosPublicos"; 
5298;"Colegio Público Rufino Blanco";"";"";"Horario ampliado - Comedor - Planes de mejora";"METRO: Canal BUS: 3 , 12 , 37 , 149";"ENSEÑANZA: Educacion Infantil - Primaria - Enseñanza biling&amp;uuml;e";"0";"http://www.madrid.es/sites/v/index.jsp?vgnextchannel=bfa48ab43d6bb410VgnVCM100000171f5a0aRCRD&vgnextoid=849813db5b71c010VgnVCM1000000b205a0aRCRD";"GENERAL ALVAREZ DE CASTRO";"CALLE";"V";"46";"";"";"";"";"MADRID";"MADRID";"28010";"TRAFALGAR";"CHAMBERI";"440424";"4476634";"40.43821121285092";"-3.7024604612596157";"914 484 083";"915 944 701";"";"/contenido/entidadesYorganismos/CentrosEducacion/ColegiosPublicos"; 
5300;"Colegio Público Sagunto";"";"";"Comedor - Transporte - Horario ampliado - Planes de mejora.";"BUS: 59 , 79 RENFE: San Cristóbal de los Angeles";"ENSEÑANZA: Educación Infantil (Segundo ciclo) - Primaria";"0";"http://www.madrid.es/sites/v/index.jsp?vgnextchannel=bfa48ab43d6bb410VgnVCM100000171f5a0aRCRD&vgnextoid=d9a813db5b71c010VgnVCM1000000b205a0aRCRD";"PATERNA";"CALLE";"V";"14";"";"";"";"";"MADRID";"MADRID";"28021";"SAN CRISTOBAL";"VILLAVERDE";"441938";"4466057";"40.34116249559141";"-3.6849106315684015";"917 976 726";"917 976 726";"";"/contenido/entidadesYorganismos/CentrosEducacion/ColegiosPublicos"; 
5301;"Colegio Público San Benito";"";"";"Comedor - Horario ampliado - Planes de mejora";"BUS: 21 , 70";"ENSEÑANZA: Educación Infantil - Primaria - Enseñanza biling&amp;uuml;e";"0";"http://www.madrid.es/sites/v/index.jsp?vgnextchannel=bfa48ab43d6bb410VgnVCM100000171f5a0aRCRD&vgnextoid=2fb813db5b71c010VgnVCM1000000b205a0aRCRD";"JUAN PEREZ ZUÑIGA";"CALLE";"NUM";"36";"";"";"";"";"MADRID";"MADRID";"28027";"CONCEPCION";"CIUDAD LINEAL";"445139";"4477270";"40.4442650725657";"-3.6469252698024386";"913 670 800 - 913 680 735";"913 570 800";"";"/contenido/entidadesYorganismos/CentrosEducacion/ColegiosPublicos"; 
5302;"Colegio Público San Carlos";"";"";"Planes de mejora";"BUS: 22, 79 , 130 RENFE: Villaverde Alto";"ENSEÑANZA: Educación Infantil - Primaria";"0";"http://www.madrid.es/sites/v/index.jsp?vgnextchannel=bfa48ab43d6bb410VgnVCM100000171f5a0aRCRD&vgnextoid=74d813db5b71c010VgnVCM1000000b205a0aRCRD";"VILLASTAR";"CALLE";"V";"8";"";"";"";"";"MADRID";"MADRID";"28021";"SAN ANDRES";"VILLAVERDE";"439602";"4466184";"40.34402221395892";"-3.7111491204293108";"917 966 105";"917 979 728";"";"/contenido/entidadesYorganismos/CentrosEducacion/ColegiosPublicos"; 
5303;"Colegio Público San Cristóbal";"";"";"Comedor - Horario ampliado - Planes de mejora";"METRO: Canal  BUS: 3 , 12 , 37 , 149";"ENSEÑANZA: Educación Infantil - Primaria - Enseñanza biling&amp;uuml;e";"0";"http://www.madrid.es/sites/v/index.jsp?vgnextchannel=bfa48ab43d6bb410VgnVCM100000171f5a0aRCRD&vgnextoid=c9e813db5b71c010VgnVCM1000000b205a0aRCRD";"BRAVO MURILLO";"CALLE";"V";"41";"";"";"";"";"MADRID";"MADRID";"28015";"ARAPILES";"CHAMBERI";"440254";"4476549";"40.43743329914089";"-3.7044567612586508";"914 481 381";"914 480 206";"";"/contenido/entidadesYorganismos/CentrosEducacion/ColegiosPublicos"; 
5304;"Colegio Público San Eugenio y San Isidro";"";"";"Comedor - Horario ampliado - Planes de mejora";"METRO: Embajadores , Acacias BUS: 34 , 36 , 116 , 118 , 119 , Circular 127 , 148 RENFE: Pirámides , Embajadores";"ENSEÑANZA: Educación Infantil - Primaria - Enseñanza biling&amp;uuml;e";"0";"http://www.madrid.es/sites/v/index.jsp?vgnextchannel=bfa48ab43d6bb410VgnVCM100000171f5a0aRCRD&vgnextoid=1ff813db5b71c010VgnVCM1000000b205a0aRCRD";"PEÑUELAS";"CALLE";"NUM";"31";"";"";"";"";"MADRID";"MADRID";"28005";"ACACIAS";"ARGANZUELA";"440331";"4472630";"40.402134715838024";"-3.7031694724884066";"914 737 711";"914 737 785";"";"/contenido/entidadesYorganismos/CentrosEducacion/ColegiosPublicos"; 
5305;"Colegio Público San Ignacio de Loyola";"";"";"Comedor - Horario ampliado - Planes de mejora";"METRO: Opañel , Plaza Elíptica BUS: 47 , 55 , 247";"ENSEÑANZA: Educación Infantil - Primaria - Enseñanza biling&amp;uuml;e";"0";"http://www.madrid.es/sites/v/index.jsp?vgnextchannel=bfa48ab43d6bb410VgnVCM100000171f5a0aRCRD&vgnextoid=641913db5b71c010VgnVCM1000000b205a0aRCRD";"ABRANTES";"AVENIDA";"V";"1";"";"";"";"";"MADRID";"MADRID";"28025";"ABRANTES";"CARABANCHEL";"438851";"4470931";"40.38484910708361";"-3.7217220947079097";"915 651 989";"914 698 461";"";"/contenido/entidadesYorganismos/CentrosEducacion/ColegiosPublicos"; 
6028;"Colegio Público San Ildefonso";"";"";"Horario ampliado - Comedor - Planes de mejora.";"BUS: 31 , 50 , 65 , 3 , 148 METRO: Latina";"ENSEÑANZA: Educacion Infantil - Primaria - Enseñanza biling&amp;uuml;e";"0";"http://www.madrid.es/sites/v/index.jsp?vgnextchannel=bfa48ab43d6bb410VgnVCM100000171f5a0aRCRD&vgnextoid=e605ae10c471c010VgnVCM1000000b205a0aRCRD";"ALFONSO VI";"CALLE";"V";"1";"";"";"";"";"MADRID";"MADRID";"28005";"PALACIO";"CENTRO";"439577";"4473851";"40.41307968243987";"-3.712170272137244";"913 643 923";"913 641 170";"";"/contenido/entidadesYorganismos/CentrosEducacion/ColegiosPublicos"; 
5306;"Colegio Público San Isidoro";"";"";"Comedor - Horario ampliado - Planes de mejora.";"METRO: Atocha , Menéndez Pelayo BUS: 10 , 14 , 26 , 32 RENFE: Atocha";"ENSEÑANZA: Educación Infantil (Segundo ciclo) - Primaria";"0";"http://www.madrid.es/sites/v/index.jsp?vgnextchannel=bfa48ab43d6bb410VgnVCM100000171f5a0aRCRD&vgnextoid=b92913db5b71c010VgnVCM1000000b205a0aRCRD";"FUENTERRABIA";"CALLE";"NUM";"15";"";"";"";"";"MADRID";"MADRID";"28014";"PACIFICO";"RETIRO";"442188";"4473100";"40.40650867169137";"-3.6813417078981567";"915 514 845";"915 015 983";"";"/contenido/entidadesYorganismos/CentrosEducacion/ColegiosPublicos"; 
5308;"Colegio Público San Juan Bautista";"";"";"Comedor - Horario ampliado - Planes de mejora - Convenio con Bristish Council";"BUS: 53";"ENSEÑANZA: Educación Infantil - Primaria";"0";"http://www.madrid.es/sites/v/index.jsp?vgnextchannel=bfa48ab43d6bb410VgnVCM100000171f5a0aRCRD&vgnextoid=0f3913db5b71c010VgnVCM1000000b205a0aRCRD";"SORZANO";"CALLE";"NUM";"1";"";"";"";"";"MADRID";"MADRID";"28043";"SAN JUAN BAUTISTA";"CIUDAD LINEAL";"444118";"4478043";"40.451160716316814";"-3.6590202395182456";"914 131 225";"915 194 638";"";"/contenido/entidadesYorganismos/CentrosEducacion/ColegiosPublicos"; 
5309;"Colegio Público San Juan Bosco";"";"";"Comedor -  Horario ampliado - Planes de mejora";"BUS: 110 , 113 , 210";"ENSEÑANZA: Educación Infantil - Primaria - Enseñanza biling&amp;uuml;e";"0";"http://www.madrid.es/sites/v/index.jsp?vgnextchannel=bfa48ab43d6bb410VgnVCM100000171f5a0aRCRD&vgnextoid=545913db5b71c010VgnVCM1000000b205a0aRCRD";"SANTA IRENE";"CALLE";"NUM";"2";"";"";"";"";"MADRID";"MADRID";"28017";"VENTAS";"CIUDAD LINEAL";"444640";"4474545";"40.41968378283889";"-3.652559914198146";"914 053 610";"914 043 233";"";"/contenido/entidadesYorganismos/CentrosEducacion/ColegiosPublicos"; 
5310;"Colegio Público San Juan de la Cruz";"";"";"Comedor - Horario ampliado - Planes de mejora";"METRO: Colombia BUS: 11 , 14 , 16, 29, 40 , 51 ,150";"ENSEÑANZA: Educacion Infantil - Primaria - Enseñanza biling&amp;uuml;e";"1";"http://www.madrid.es/sites/v/index.jsp?vgnextchannel=bfa48ab43d6bb410VgnVCM100000171f5a0aRCRD&vgnextoid=a96913db5b71c010VgnVCM1000000b205a0aRCRD";"HONDURAS";"CALLE";"V";"10";"";"";"";"";"MADRID";"MADRID";"28016";"NUEVA ESPAÑA";"CHAMARTIN";"442495";"4479193";"40.459537375982286";"-3.67954186336266";"913 453 044";"913 509 861";"";"/contenido/entidadesYorganismos/CentrosEducacion/ColegiosPublicos"; 
5311;"Colegio Público San Miguel";"";"";"Comedor - Transporte - Horario ampliado -Planes de mejora";"BUS: 9 , 107 , 72";"ENSEÑANZA: Educación Infantil - Primaria";"0";"http://www.madrid.es/sites/v/index.jsp?vgnextchannel=bfa48ab43d6bb410VgnVCM100000171f5a0aRCRD&vgnextoid=fe7913db5b71c010VgnVCM1000000b205a0aRCRD";"VIRGEN DEL CARMEN";"AVENIDA";"NUM";"32";"";"";"";"";"MADRID";"MADRID";"28033";"PINAR DEL REY";"HORTALEZA";"444713";"4480618";"40.47440638983908";"-3.6522282145254072";"917 639 281";"917 639 281";"";"/contenido/entidadesYorganismos/CentrosEducacion/ColegiosPublicos"; 
5312;"Colegio Público San Pablo";"";"";"Horario ampliado - Comedor - Planes de mejora";"METRO: Buenos Aires BUS: 54 , 58 , 103 , 143";"ENSEÑANZA: Educación infantil - Primaria";"0";"http://www.madrid.es/sites/v/index.jsp?vgnextchannel=bfa48ab43d6bb410VgnVCM100000171f5a0aRCRD&vgnextoid=449913db5b71c010VgnVCM1000000b205a0aRCRD";"PE&amp;Ntilde;A MORRAZ";"PLAZA";"V";"1";"";"";"";"";"MADRID";"MADRID";"28038";"PORTAZGO";"PUENTE DE VALLECAS";"444683";"4471183";"40.389399772744945";"-3.6517608828166077";"913 031 550";"913 031 550";"";"/contenido/entidadesYorganismos/CentrosEducacion/ColegiosPublicos"; 
5313;"Colegio Público San Roque";"";"";"Comedor - Horario ampliado - Planes de mejora";"BUS: 22 , 79, 86, 130 , 131  RENFE: Puente Alcocer";"ENSEÑANZA: Educación Infantil - Primaria";"0";"http://www.madrid.es/sites/v/index.jsp?vgnextchannel=bfa48ab43d6bb410VgnVCM100000171f5a0aRCRD&vgnextoid=99a913db5b71c010VgnVCM1000000b205a0aRCRD";"OXIGENO";"CALLE";"V";"43";"";"";"";"";"MADRID";"MADRID";"28021";"SAN ANDRES";"VILLAVERDE";"440281";"4466495";"40.34686367965085";"-3.703195663444635";"917 962 774";"917 100 003";"";"/contenido/entidadesYorganismos/CentrosEducacion/ColegiosPublicos"; 
5314;"Colegio Público Santa María";"";"";"Comedor - Horario ampliado - Planes de mejora";"METRO: Embajadores, Acacias BUS: , 34 , 36 , 41 , 60 , 116 , 118 , 119 , 148 RENFE: Embajadores";"ENSEÑANZA: Educación Infantil - Primaria";"0";"http://www.madrid.es/sites/v/index.jsp?vgnextchannel=bfa48ab43d6bb410VgnVCM100000171f5a0aRCRD&vgnextoid=eeb913db5b71c010VgnVCM1000000b205a0aRCRD";"CASINO";"CALLE";"V";"7";"";"";"";"";"MADRID";"MADRID";"28005";"EMBAJADORES";"CENTRO";"440126";"4473283";"40.406129867007586";"-3.7069233554021004";"915 275 281";"914 673 704";"";"/contenido/entidadesYorganismos/CentrosEducacion/ColegiosPublicos"; 
5315;"Colegio Público Santo Domingo";"";"";"Comedor - Horario ampliado - Planes de mejora";"METRO: Alto del Arenal BUS: 54 , 58 , 103 , 143";"ENSEÑANZA: Educación infantil - Primaria - Enseñanza biling&amp;uuml;e";"0";"http://www.madrid.es/sites/v/index.jsp?vgnextchannel=bfa48ab43d6bb410VgnVCM100000171f5a0aRCRD&vgnextoid=34d913db5b71c010VgnVCM1000000b205a0aRCRD";"SAN FELIU DE GUIXOLS";"CALLE";"NUM";"7";"";"";"";"";"MADRID";"MADRID";"28038";"PORTAZGO";"PUENTE DE VALLECAS";"445184";"4471469";"40.39201829942787";"-3.6458947958734735";"917 785 293";"913 037 833";"";"/contenido/entidadesYorganismos/CentrosEducacion/ColegiosPublicos"; 
5316;"Colegio Público Tirso de Molina";"";"";"Comedor - Horario ampliado - Planes de mejora";"METRO: Arganzuela-Planetario BUS: 62, 148, 156";"ENSEÑANZA: Educación Infantil - Primaria";"0";"http://www.madrid.es/sites/v/index.jsp?vgnextchannel=bfa48ab43d6bb410VgnVCM100000171f5a0aRCRD&vgnextoid=89e913db5b71c010VgnVCM1000000b205a0aRCRD";"BRONCE";"CALLE";"V";"1";"";"";"";"";"MADRID";"MADRID";"28045";"LEGAZPI";"ARGANZUELA";"441597";"4471521";"40.392243024735016";"-3.6881496913853913";"915 278 932";"914 683 695";"cp.tirsodemolina.madrid@educa.madrid.org";"/contenido/entidadesYorganismos/CentrosEducacion/ColegiosPublicos"; 
5317;"Colegio Público Tomás Bretón";"";"";"Transporte - Comedor - Horario ampliado - Integración preferente (motóricos)";"METRO: Pirámides BUS: 17 , 36 , 50";"ENSEÑANZA: Educación Infantil - Primaria";"1";"http://www.madrid.es/sites/v/index.jsp?vgnextchannel=bfa48ab43d6bb410VgnVCM100000171f5a0aRCRD&vgnextoid=def913db5b71c010VgnVCM1000000b205a0aRCRD";"ALEJANDRO DUMAS";"CALLE";"V";"4";"";"";"";"";"MADRID";"MADRID";"28005";"IMPERIAL";"ARGANZUELA";"439254";"4472520";"40.40106583461258";"-3.7158617370259046";"913 642 214";"913 667 387";"cp.tomasbreton.madrid@educa.madrid.org";"/contenido/entidadesYorganismos/CentrosEducacion/ColegiosPublicos"; 
42016;"Colegio Público Valdebernardo";"";"";"Comedor - Horario ampliado - Planes de mejora";"METRO: Valdebernardo BUS: 8 , 30, 71, 100, 130";"ENSEÑANZA: Educación Infantil - Primaria - Enseñanza biling&amp;uuml;e";"0";"http://www.madrid.es/sites/v/index.jsp?vgnextchannel=bfa48ab43d6bb410VgnVCM100000171f5a0aRCRD&vgnextoid=6ad7598d1351c010VgnVCM1000000b205a0aRCRD";"TREN DE ARGANDA";"CALLE";"V";"9";"";"";"";"";"MADRID";"MADRID";"28032";"CASCO H.VICALVARO";"VICALVARO";"447573";"4472716";"40.40340595669721";"-3.6178383019210627";"913 713 523";"913 051 773";"cp.valdebernardo.madrid@educa.madrid.org";"/contenido/entidadesYorganismos/CentrosEducacion/ColegiosPublicos"; 
5318;"Colegio Público Vasco Núñez de Balboa";"";"";"Comedor - Transporte - Horario ampliado - Planes de mejora";"BUS: 66 , 137 RENFE: Fuencarral";"ENSEÑANZA: Educación Infantil - Primaria";"0";"http://www.madrid.es/sites/v/index.jsp?vgnextchannel=bfa48ab43d6bb410VgnVCM100000171f5a0aRCRD&vgnextoid=241a13db5b71c010VgnVCM1000000b205a0aRCRD";"NUESTRA SEÑORA DE VALVERDE";"CALLE";"NUM";"149";"";"";"";"";"MADRID";"MADRID";"28034";"VALVERDE";"FUENCARRAL-EL PARDO";"441837";"4483415";"40.49939736356688";"-3.686422886278671";"917 343 267 - 917 350 225";"917 355 336";"";"/contenido/entidadesYorganismos/CentrosEducacion/ColegiosPublicos"; 
5320;"Colegio Público Vicálvaro";"";"";"Comedor - Transporte - Horario ampliado - Planes de mejora";"METRO: San Cipriano BUS: 4 , 100 , 106";"ENSEÑANZA: Educación Infantil - Primaria - Enseñanza biling&amp;uuml;e";"0";"http://www.madrid.es/sites/v/index.jsp?vgnextchannel=bfa48ab43d6bb410VgnVCM100000171f5a0aRCRD&vgnextoid=ce3a13db5b71c010VgnVCM1000000b205a0aRCRD";"FORGES";"CALLE";"V";"15";"";"";"";"";"MADRID";"MADRID";"28032";"AMBROZ";"VICALVARO";"449105";"4473094";"40.4050257573927";"-3.601094918515076";"917 769 938 - 917 760 333";"913 718 488";"";"/contenido/entidadesYorganismos/CentrosEducacion/ColegiosPublicos"; 
5325;"Colegio Público Virgen del Cerro";"";"";"Transporte -  Horario ampliado - Comedor - Planes de mejora - Integración preferente (motóricos)";"BUS: 63 , 143 , E";"ENSEÑANZA: Educación infantil - Primaria - Enseñanza biling&amp;uuml;eIntegración preferente: Motóricos";"1";"http://www.madrid.es/sites/v/index.jsp?vgnextchannel=bfa48ab43d6bb410VgnVCM100000171f5a0aRCRD&vgnextoid=145a13db5b71c010VgnVCM1000000b205a0aRCRD";"MOHERNANDO";"CALLE";"NUM";"1";"";"";"";"";"MADRID";"MADRID";"28038";"PORTAZGO";"PUENTE DE VALLECAS";"444915";"4471909";"40.39595533182647";"-3.6491021370173584";"917 785 083";"917 784 994";"cp.cerro.madrid@educa.madrid.org";"/contenido/entidadesYorganismos/CentrosEducacion/ColegiosPublicos"; 
5326;"Colegio Público Virgen del Cortijo";"";"";"Comedor - Transporte - Horario ampliado - Integración preferente (Trastorno generalizado del desarrollo)";"BUS: 150 , 174";"ENSEÑANZA: Educación Infantil - Primaria - Enseñanza biling&amp;uuml;e";"0";"http://www.madrid.es/sites/v/index.jsp?vgnextchannel=bfa48ab43d6bb410VgnVCM100000171f5a0aRCRD&vgnextoid=696a13db5b71c010VgnVCM1000000b205a0aRCRD";"MANOTERAS";"AVENIDA";"V";"63";"";"";"";"";"MADRID";"MADRID";"28050";"VALDEFUENTES";"HORTALEZA";"444064";"4482049";"40.487253962803756";"-3.6600221185724506";"917 661 215";"913 844 438";"";"/contenido/entidadesYorganismos/CentrosEducacion/ColegiosPublicos"; 
5319;"Colegio Público Vázquez de Mella";"";"";"Comedor - Horario ampliado - Planes de mejora";"METRO: La Latina, Puerta de Toledo BUS: 3 , 25 , 39 , 148, Circular";"ENSEÑANZA: Educación Infantil - Primaria";"0";"http://www.madrid.es/sites/v/index.jsp?vgnextchannel=bfa48ab43d6bb410VgnVCM100000171f5a0aRCRD&vgnextoid=792a13db5b71c010VgnVCM1000000b205a0aRCRD";"BAILEN";"CALLE";"NUM";"18";"";"";"";"";"MADRID";"MADRID";"28005";"PALACIO";"CENTRO";"439422";"4473742";"40.41209542948543";"-3.7139985334961243";"913 654 878";"913 665 312";"";"/contenido/entidadesYorganismos/CentrosEducacion/ColegiosPublicos"; 
4690940;"Colegio Público Winston Churchill";"";"";"Horario ampliado - Comedor";"Bus: 4, 100 Metro: Puerta de Arganda";"ENSEÑANZA: Educación infantil - Primaria";"0";"http://www.madrid.es/sites/v/index.jsp?vgnextchannel=bfa48ab43d6bb410VgnVCM100000171f5a0aRCRD&vgnextoid=d3875f9fa7166110VgnVCM1000000b205a0aRCRD";"GRAN VIA DEL ESTE";"AVENIDA";"V";"5";"";"";"";"";"MADRID";"MADRID";"28032";"CASCO H.VICALVARO";"VICALVARO";"449484";"4472655";"40.4029655566785";"-3.595313927334039";"913 716 066 - 676 695 332";"917 604 921";"";"/contenido/entidadesYorganismos/CentrosEducacion/ColegiosPublicos"; 
5096;"Colegio Público de Practicas Asunción Rincón";"";"";"Comedor - Horario ampliado - Planes de mejora";"METRO: Islas FilipinasBUS: 2 , 12 , 202";"ENSEÑANZA: Educación Infantil - Primaria - Enseñanza biling&amp;uuml;e";"0";"http://www.madrid.es/sites/v/index.jsp?vgnextchannel=bfa48ab43d6bb410VgnVCM100000171f5a0aRCRD&vgnextoid=28d9a3f5ca71c010VgnVCM1000000b205a0aRCRD";"FILIPINAS";"AVENIDA";"V";"5";"";"";"";"";"MADRID";"MADRID";"28003";"VALLEHERMOSO";"CHAMBERI";"439704";"4476829";"40.43991596115193";"-3.7109677259909084";"915 542 118";"915 345 120";"";"/contenido/entidadesYorganismos/CentrosEducacion/ColegiosPublicos"; 
4690849;"Colegio Público Álvaro de Bazan";"";"";"Horario ampliado - Comedor - Integración prefernete (Trastornos generales del desarrollo)";"Bus: 4, 106, 140, 153";"ENSEÑANZA: Educación infantil - Primaria";"0";"http://www.madrid.es/sites/v/index.jsp?vgnextchannel=bfa48ab43d6bb410VgnVCM100000171f5a0aRCRD&vgnextoid=eb583058a6166110VgnVCM1000000b205a0aRCRD";"ZURICH";"CALLE";"V";"10";"";"";"";"";"MADRID";"MADRID";"28022";"ROSAS";"SAN BLAS-CANILLEJAS";"448486";"4474724";"40.42154331046489";"-3.607241921623869";"917 757 114";"917 757 114";"";"/contenido/entidadesYorganismos/CentrosEducacion/ColegiosPublicos"; 
