LibraryAdministration,LibraryCode,ID,Library,Address,ZIPcode,Town,Province,Telephone,Email
Biblioteca Pública Municipal de Abengibre,54,02008092665,BIBLIOTECA PÚBLICA MUNICIPAL DE ABENGIBRE,"Castilla-La Mancha, 5",2250,Abengibre,Albacete,967090665,biblioabengibre@hotmail.com
Biblioteca Pública Municipal de Alatoz,55,02009142666,BIBLIOTECA PÚBLICA MUNICIPAL DE ALATOZ,"Cuesta de Enmedio, s/n",2152,Alatoz,Albacete,967402222,biblioalatoz@yahoo.es
Red de Bibliotecas Municipales de Albacete,60,02009721206,BIBLIOTECA PÚBLICA MUNICIPAL DE ALBACETE,"Federico García Lorca, 20",2001,Albacete,Albacete,967248790,poligono.bibliotecas@ayto-albacete.es
"Sección del Libro, Archivos y Bibliotecas. Central de bibliobús.",53,02008377042,BIBLIOBÚS DE ALBACETE,"Avda. de la Estación, 2",2001,Albacete,Albacete,967596413,bibliobusab@jccm.es
Red de Bibliotecas Municipales de Albacete,752,02009721204,BIBLIOTECA PÚBLICA MUNICIPAL DE ALBACETE,"Ciudad Real, 22",2002,Albacete,Albacete,967512706,parquesur.bibliotecas@ayto-albacete.es
Biblioteca Pública del Estado en Albacete,99,02001982621,BIBLIOTECA PÚBLICA DEL ESTADO EN ALBACETE,"San José de Calasanz, 14",2002,Albacete,Albacete,967558490,bp.albacete@jccm.es
Red de Bibliotecas Municipales de Albacete,751,02009726473,BIBLIOTECA PÚBLICA MUNICIPAL DE ALBACETE,"Marzo, 50",2002,Albacete,Albacete,967195400,red.bibliotecas@ayto-albacete.es
Red de Bibliotecas Municipales de Albacete,62,02009721207,BIBLIOTECA PÚBLICA MUNICIPAL DE ALBACETE,"Hermanos Falco, 20",2002,Albacete,Albacete,967248990,hospital.bibliotecas@ayto-albacete.es
Red de Bibliotecas Municipales de Albacete,69,02009721213,BIBLIOTECA PÚBLICA MUNICIPAL DE ALBACETE,"Paseo de Simón Abril, s/n",2003,Albacete,Albacete,967221559,parque.bibliotecas@ayto-albacete.es
Red de Bibliotecas Municipales de Albacete,61,02009721200,BIBLIOTECA PÚBLICA MUNICIPAL DE ALBACETE,"Arquitecto Vandelvira, 73",2004,Albacete,Albacete,967503523,ensanche.bibliotecas@ayto-albacete.es
Red de Bibliotecas Municipales de Albacete,68,02009721210,BIBLIOTECA PÚBLICA MUNICIPAL DE ALBACETE,"Magallanes, 14",2005,Albacete,Albacete,967248774,industria.bibliotecas@ayto-albacete.es
Red de Bibliotecas Municipales de Albacete,888,02009721211,BIBLIOTECA PÚBLICA MUNICIPAL DE ALBACETE,"Teruel, 13",2005,Albacete,Albacete,967224388,elpilar.bibliotecas@ayto-albacete.es
Red de Bibliotecas Municipales de Albacete,67,02009721209,BIBLIOTECA PÚBLICA MUNICIPAL DE ALBACETE,"José de Espronceda, s/n",2006,Albacete,Albacete,967248640,hnosfalco.bibliotecas@ayto-albacete.es
Red de Bibliotecas Municipales de Albacete,64,02009721208,BIBLIOTECA PÚBLICA MUNICIPAL DE ALBACETE,"José Echegaray, 26",2006,Albacete,Albacete,967512703,sanpablo.bibliotecas@ayto-albacete.es
Red de Bibliotecas Municipales de Albacete,936,020097210447,BIBLIOTECA PÚBLICA MUNICIPAL DE ALBACETE,"Cardenal Tabera y Araoz, s/n",2006,Albacete,Albacete,967523043,saramago.bibliotecas@ayto-albacete.es
Biblioteca Pública Municipal de Aguas Nuevas,831,02008216434,BIBLIOTECA PÚBLICA MUNICIPAL DE AGUAS NUEVAS,"Avenida de Albacete, 21",2049,Albacete,Albacete,967273572,bibliotecaaguasnuevas@gmail.com
Red de Bibliotecas Municipales de Albacete,57,02009721212,BIBLIOTECA PÚBLICA MUNICIPAL ALBACETE  PEDANÍA,"Carretera de Las Peñas, 11",2140,Albacete,Albacete,967271729,elsalobral.bibliotecas@ayto-albacete.es
Red de Bibliotecas Municipales de Albacete,877,02009721205,BIBLIOTECA PÚBLICA MUNICIPAL DE ALBACETE,"Deportes, s/n  (Tinajeros)",2155,Albacete,Albacete,967252101,tinajeros.bibliotecas@ayto-albacete.es
Red de Bibliotecas Municipales de Albacete,920,02009728390,BIBLIOTECA PÚBLICA MUNICIPAL DE ALBACETE,"Nueva, 30 (Argamasón)",2328,Albacete,Albacete,967576149,argamason.bibliotecas@ayto-albacete.es
Red de Bibliotecas Municipales de Albacete,736,02009721203,BIBLIOTECA PÚBLICA MUNICIPAL DE ALBACETE,"Avda. del Príncipe, 15",2328,Albacete,Albacete,967270088,santaana.bibliotecas@ayto-albacete.es
Biblioteca Pública Municipal de Albatana,112,02002772624,BIBLIOTECA PÚBLICA MUNICIPAL DE ALBATANA,"La Vega, s/n",2653,Albatana,Albacete,967323717,bibliotecaalbatana@gmail.com
Sala de Lectura Pública de Alborea,750,02010482671,BIBLIOTECA PÚBLICA MUNICIPAL DE ALBOREA,"Casas Ibáñez, 2",2215,Alborea,Albacete,967860500,alborea@dipualba.es
Biblioteca Pública Municipal de Alcalá del Júcar,113,02009352667,BIBLIOTECA PÚBLICA MUNICIPAL DE ALCALÁ DEL JÚCAR,"Olmeda, 33",2210,Alcalá del Júcar,Albacete,967473141,biblioalcala@gmail.com
Biblioteca Pública Municipal de Alcaraz,114,02002832625,BIBLIOTECA PÚBLICA MUNICIPAL DE ALCARAZ,"Mayor, 50",2300,Alcaraz,Albacete,967380502,bibliotecaalcaraz@yahoo.es
Red de Bibliotecas Públicas Municipales de Almansa,115,02010641233,BIBLIOTECA PÚBLICA MUNICIPAL DE ALMANSA,"Aragón, 19-21",2640,Almansa,Albacete,967344444,rociobt@ayto-almansa.es
Red de Bibliotecas Públicas Municipales de Almansa,848,02010646475,BIBLIOTECA PÚBLICA MUNICIPAL DE ALMANSA.,"Plaza Santiago Bernabeu, s/n",2640,Almansa,Albacete,967313329,rociobt@ayto-almansa.es
Biblioteca Pública Municipal de Alpera,116,02007822664,BIBLIOTECA PÚBLICA MUNICIPAL DE ALPERA,"Plaza del Ayuntamiento, 14",2690,Alpera,Albacete,967330555,bpmalpera@hotmail.es
Biblioteca Pública Municipal de Balazote,118,02010702673,BIBLIOTECA PÚBLICA MUNICIPAL DE BALAZOTE,"Lonja, 1",2320,Balazote,Albacete,967367009,biblioteca.balazote@dipualba.es
Biblioteca Pública Municipal de El Ballestero,119,02003172627,BIBLIOTECA PÚBLICA MUNICIPAL DE EL BALLESTERO,"Calle Nueva, s/n",2614,Ballestero (El),Albacete,967384009,mariabiblioballes@gmail.com
Biblioteca Pública Municipal de Barrax,120,02003222628,BIBLIOTECA PÚBLICA MUNICIPAL DE BARRAX,"Plaza Alcalde Domingo Castillejo, 1",2639,Barrax,Albacete,967364620,jorgebbx@gmail.com
Biblioteca Pública Municipal de Bienservida,121,020033810439,BIBLIOTECA PÚBLICA MUNICIPAL DE BIENSERVIDA,"Duque de Ahumada, 2",2360,Bienservida,Albacete,967394241,bibliobienservida@gmail.com
Biblioteca Pública Municipal de Bogarra,122,02003432629,BIBLIOTECA PÚBLICA MUNICIPAL DE BOGARRA,Calvario 26,2130,Bogarra,Albacete,609406101,bibliobogarra@hotmail.com
Biblioteca Pública Municipal de Bonete,123,02009402668,BIBLIOTECA PÚBLICA MUNICIPAL DE BONETE,"Murillo, 18",2691,Bonete,Albacete,967334156,bibliobonete@hotmail.com
Biblioteca Pública Municipal de El Bonillo,124,02003692630,BIBLIOTECA PÜBLICA MUNICIPAL DE EL BONILLO,"Don Quijote, s/n",2610,Bonillo (El),Albacete,967371227,bibliobonillo@gmail.com
Biblioteca Pública Municipal de Carcelén,125,02010862674,BIBLIOTECA PÚBLICA MUNICIPAL DE CARCELÉN,"Plaza de Juan José Gómez Molina, s/n",2153,Carcelén,Albacete,967403022,raquelsotos2003@yahoo.es
Biblioteca Pública Municipal de Casas de Juan Núñez,126,02003752631,BIBLIOTECA PÚBLICA MUNICIPAL DE CASAS DE JUAN NÚÑEZ,"Miguel Hernández, 2",2151,Casas de Juan Núñez,Albacete,620578427,casas-juan-nunez@local.jccm.es
Biblioteca Pública Municipal de Casas de Ves,127,02003812632,BIBLIOTECA PÚBLICA MUNICIPAL DE CASAS DE VES,"La Marquesa, 15",2212,Casas de Ves,Albacete,967475062,bpmcasasdeves@hotmail.com
Biblioteca Pública Municipal de Casas Ibáñez,129,02003942633,BIBLIOTECA PÚBLICA MUNICIPAL DE CASAS IBÁÑEZ,"Plaza de la Constitución, 9",2200,Casas-Ibáñez,Albacete,967460903,biblioteca@casasibanez.com
Biblioteca Pública Municipal de Caudete,130,02004082634,BIBLIOTECA PÚBLICA MUNICIPAL DE CAUDETE,"Eras, 33",2660,Caudete,Albacete,965828131,biblioteca@caudete.org
Biblioteca Pública Municipal de Cenizate,709,02011032676,BIBLIOTECA PÚBLICA MUNICIPAL DE CENIZATE,"Botica, 4",2247,Cenizate,Albacete,967489596,biblioteca.cenizate@dipualba.es
Biblioteca Pública Municipal de Chinchilla de Monte-Aragón,131,02004152635,BIBLIOTECA PÚBLICA MUNICIPAL DE CHINCHILLA DE MONTE-ARAGÓN,"Arco de la Plaza, 5",2520,Chinchilla de Monte-Aragón,Albacete,967260658,chinbiblio@hotmail.com
Sala de Lectura Pública de Corral-Rubio,710,02011102677,BIBLIOTECA PÚBLICA MUNICIPAL DE CORRAL-RUBIO,"Gabinete, 24",2693,Corral-Rubio,Albacete,967285100,bibliocorralvilla@hotmail.com
Biblioteca Pública Municipal de Elche de La Sierra,132,02004202636,BIBLIOTECA PÚBLICA MUNICIPAL DE ELCHE DE LA SIERRA,"Calderón de la Barca, s/n",2430,Elche de la Sierra,Albacete,967417054,biblioelchesierra@gmail.com
Biblioteca Pública Municipal de Férez,133,02011252678,BIBLIOTECA PÚBLICA MUNICIPAL DE FÉREZ,"Cantarería, 28",2436,Férez,Albacete,967420207,biblioteca-ferez@hotmail.com
Biblioteca Pública Municipal de Fuente-Álamo,134,02004362637,BIBLIOTECA PÚBLICA MUNICIPAL DE FUENTE-ÁLAMO,"Colegios, 2",2651,Fuente-Álamo,Albacete,967321784,lmillapalencia@yahoo.es
Bibliotecas dependientes del Ayuntamiento de Fuentealbilla,818,02004411216,BIBLIOTECA PÚBLICA MUNICIPAL DE BORMATE,"Monjas, 36",2249,Fuentealbilla,Albacete,967471791,mreque55@hotmail.com
Bibliotecas dependientes del Ayuntamiento de Fuentealbilla,135,02004416468,BIBLIOTECA PÚBLICA MUNICIPAL DE FUENTEALBILLA,"Fuente Grande, 4",2260,Fuentealbilla,Albacete,967472510,fuentealbilla.capi@jccm.es
Biblioteca Pública Municipal de La Gineta,136,02004542638,BIBLIOTECA PÚBLICA MUNICIPAL DE LA GINETA,"Lope de Vega, 11",2110,Gineta (La),Albacete,967275704,biblioteca.gineta@dipualba.es
Red de Bibliotecas Públicas Municipales de Hellín,137,02004676469,BIBLIOTECA PÚBLICA MUNICIPAL DE HELLÍN,"Plaza de las Monjas, 3",2400,Hellín,Albacete,967541502,biblioteca@hellin.es
Red de Bibliotecas Públicas Municipales de Hellín,910,02004678389,BIBLIOTECA PÚBLICA MUNICIPAL BARRIO DE LA ESTACIÓN,"Andrómeda, s/n",2400,Hellín,Albacete,967306248,bibliored.estacion@hellin.es
Red de Bibliotecas Públicas Municipales de Hellín,743,02004671221,BIBLIOTECA PÚBLICA MUNICIPAL DE CAÑADA DE AGRA,"Plaza de la Constitución, s/n",2409,Hellín,Albacete,661438610,bibliored.salas@hellin.es
Red de Bibliotecas Públicas Municipales de Hellín,742,02004671219,BIBLIOTECA PÚBLICA MUNICIPAL DE MINGOGIL,"Real, 13",2409,Hellín,Albacete,661438610,bibliored.salas@hellin.es
Red de Bibliotecas Públicas Municipales de Hellín,741,02004671217,BIBLIOTECA PÚBLICA MUNICIPAL DE NAVA DE CAMPAÑA,"Maestros, 7",2409,Hellín,Albacete,661438610,bibliored.salas@hellin.es
Red de Bibliotecas Públicas Municipales de Hellín,738,02004671220,BIBLIOTECA PÚBLICA MUNICIPAL DE ISSO,"Carretera de Jaén, 22",2420,Hellín,Albacete,967308401,bibliored.isso@hellin.es
Red de Bibliotecas Públicas Municipales de Hellín,737,02004671218,BIBLIOTECA PÚBLICA MUNICIPAL DE AGRAMÓN,"Manuel Díaz Cano, nº 18",2490,Hellín,Albacete,967322100,bibliored.agramon@hellin.es
Biblioteca Pública Municipal de Higueruela,139,02004892640,BIBLIOTECA PÚBLICA MUNICIPAL DE HIGUERUELA,"Juan Carlos I, 1",2694,Higueruela,Albacete,967287196,bibliohigueruela@hotmail.com
Sala de Lectura Pública de Hoya-Gonzalo,711,02011972679,BIBLIOTECA PÚBLICA MUNICIPAL DE HOYA-GONZALO,"Calle Nueva, s/n",2696,Hoya-Gonzalo,Albacete,967287666,bibliotecahoya@yahoo.es
Biblioteca Pública Municipal de Letur,141,02009532669,BIBLIOTECA PÚBLICA MUNICIPAL DE LETUR,"Portalico, 7",2434,Letur,Albacete,967426304,julian.letur@dipualba.es
Bibliotecas dependientes del Ayuntamiento de Lezuza,142,02009666472,BIBLIOTECA PÚBLICA MUNICIPAL DE LEZUZA,"Travesía Posito, 3",2160,Lezuza,Albacete,967354298,v_munera@hotmail.com
Bibliotecas dependientes del Ayuntamiento de Lezuza,834,02009661232,BIBLIOTECA PÚBLICA MUNICIPAL DE TIRIEZ,"Belen, s/n (Tiriez)",2161,Lezuza,Albacete,967350430,bibliotecatiriez@hotmail.com
Biblioteca Pública Municipal de Liétor,712,02004922641,BIBLIOTECA PÚBLICA MUNICIPAL DE LIÉTOR,"Molinos, 1",2410,Liétor,Albacete,967200312,bpm.lietor@jccm.es
Biblioteca Pública Municipal de Madrigueras,144,02005052642,BIBLIOTECA PÚBLICA MUNICIPAL DE MADRIGUERAS,"Pablo Picasso, s/n",2230,Madrigueras,Albacete,967484812,biblioteca.madrigueras@dipualba.es
Biblioteca Pública Municipal de Mahora,145,02005122643,BIBLIOTECA PÚBLICA MUNICIPAL DE MAHORA,"Tercia, 1",2240,Mahora,Albacete,967494320,bibliotecamahora@hotmail.com
Biblioteca Pública Municipal de Minaya,146,02005272644,BIBLIOTECA PÚBLICA MUNICIPAL DE MINAYA,"Los Árboles, 4",2620,Minaya,Albacete,967450006,carmenj_a@hotmail.com
Biblioteca Municipal de Molinicos,147,02005332645,BIBLIOTECA MUNICIPAL DE MOLINICOS,"Mayor, 35 bajo",2440,Molinicos,Albacete,967437001,bibliotecamolinicos@gmail.com
Biblioteca Pública Municipal de Montealegre del Castillo,148,02005482646,BIBLIOTECA PÚBLICA MUNICIPAL DE MONTEALEGRE DEL CASTILLO,"Capataz Santiago, 10",2650,Montealegre del Castillo,Albacete,648973091,bpm@montealegredelcastillo.es
Biblioteca Pública Municipal de Munera,149,02005512647,BIBLIOTECA PÚBLICA MUNICIPAL DE MUNERA,"Tilanes, 23",2612,Munera,Albacete,967375137,bpm.munera@jccm.es
Biblioteca Pública Municipal de Nerpio,150,02005702648,BIBLIOTECA PÚBLICA MUNICIPAL DE NERPIO,"Plaza Mayor, 8",2530,Nerpio,Albacete,967438196,cculturanerpio@hotmail.com
Biblioteca Pública Municipal de Ontur,151,02005862649,BIBLIOTECA PÚBLICA MUNICIPAL DE ONTUR,"Plaza del Alcalde Joaquín Ortí Martínez, 7",2652,Ontur,Albacete,967324206,biblioteca.ontur@dipualba.es
Biblioteca Pública Municipal de Ossa de Montiel,152,02005992650,BIBLIOTECA PÚBLICA MUNICIPAL DE OSSA DE MONTIEL,"Príncipe de Asturias, 40",2611,Ossa de Montiel,Albacete,967378101,biblioteca.ossa@dipualba.es
Biblioteca Publica Municipal Paterna del Madera,153,02006032651,BIBLIOTECA PÚBLICA MUNICIPAL DE PATERNA DEL MADERA,"Libertad, 64",2136,Paterna del Madera,Albacete,664219817,bibliopaternademadera@hotmail.es
Biblioteca Pública Municipal de Peñas de San Pedro,926,NN846510443,BIBLIOTECA PÚBLICA MUNICIPAL DE PEÑAS DE SAN PEDRO,"Cristo del Sahúco, s/n",2120,Peñas de San Pedro,Albacete,967292640,msarriotierraseca@yahoo.es
Biblioteca Pública Municipal de Peñascosa,715,02012232682,BIBLIOTECA PÚBLICA MUNICIPAL DE PEÑASCOSA,Plaza Mayor 1,2313,Peñascosa,Albacete,967382466,bibliopenascosa@gmail.com
Biblioteca Pública Municipal de Pétrola,154,02006252652,BIBLIOTECA PÚBLICA MUNICIPAL DE PETROLA,"Constitución, s/n",2692,Pétrola,Albacete,967286306,petrola.capi@jccm.es
Biblioteca Pública Municipal de Povedilla,155,02006312653,BIBLIOTECA PÚBLICA MUNICIPAL DE POVEDILLA,"Doctor Fleming, 4",2311,Povedilla,Albacete,999999999,bibliotecapovedilla@hotmail.com
Biblioteca Pública Municipal de Pozo Cañada,59,02012392683,BIBLIOTECA PÚBLICA MUNICIPAL DE POZO CAÑADA,"Alcalde Joaquín Azorín, 8",2510,Pozo Cañada,Albacete,684450530,biblioteca@pozocanada.es
Bibliotecas dependientes del Ayuntamiento de Pozohondo,157,02009886474,BIBLIOTECA PÚBLICA MUNICIPAL DE POZOHONDO,"Hellin, 13",2141,Pozohondo,Albacete,967293408,bpmpozohondo@yahoo.es
Bibliotecas dependientes del Ayuntamiento de Pozohondo,806,02009881223,BIBLIOTECA PÚBLICA MUNICIPAL DE NAVA DE ABAJO,"Noria, 10",2142,Pozohondo,Albacete,967293450,bibliotecadenavadeabajo@gmail.com
Biblioteca Pública Municipal de Pozo-Lorente,156,02009912670,BIBLIOTECA PÚBLICA MUNICIPAL DE POZO-LORENTE,"Libertad, 17",2154,Pozo-Lorente,Albacete,967406448,bibliotecapl@hotmail.com
Biblioteca Pública Municipal de Pozuelo,807,02012572684,BIBLIOTECA PÚBLICA MUNICIPAL DE POZUELO,"Torca, 9",2327,Pozuelo,Albacete,967363899,pozueloab.capi@jccm.es
Biblioteca Pública Municipal de Riópar,158,02006462654,BIBLIOTECA PÚBLICA MUNICIPAL DE RIÓPAR,"Plaza de Luis Escudero,2,  1º",2450,Riópar,Albacete,967435001,bibliotecariop@hotmail.com
Biblioteca Pública Municipal de La Roda,160,02006592655,BIBLIOTECA PÚBLICA MUNICIPAL DE LA RODA,"General de la Torre, 12",2630,Roda (La),Albacete,967445242,antoniaescobar@laroda.es
Biblioteca Pública Municipal de Salobre,747,02012952685,BIBLIOTECA PÚBLICA MUNICIPAL DE SALOBRE,"Nueva, 1",2316,Salobre,Albacete,967382036,bibliosalobre@hotmail.com
Biblioteca Pública Municipal de San Pedro,740,02013092686,BIBLIOTECA PÚBLICA MUNICIPAL DE SAN PEDRO,"Castilla-La Mancha, 1",2326,San Pedro,Albacete,699524125,bibliosanpedrored@gmail.com
Bibliotecas dependientes del Ayuntamiento de Socovos,161,02006786470,BIBLIOTECA PÚBLICA MUNICIPAL DE SOCOVOS,"Coronel Navarro, 39",2435,Socovos,Albacete,967420381,bpm.socovos@jccm.es
Bibliotecas dependientes del Ayuntamiento de Socovos,837,02006781260,BIBLIOTECA PÚBLICA MUNICIPAL DE TAZONA-LOS OLMOS,"Las Escuelas, s/n",2437,Socovos,Albacete,967413706,bibliotazona@hotmail.com
Biblioteca Pública Municipal de Tarazona,162,02006842656,BIBLIOTECA PÚBLICA MUNICIPAL DE TARAZONA DE LA MANCHA,"Rambla Alta, 33",2100,Tarazona de la Mancha,Albacete,967497511,biblioteca.tarazona@dipualba.es
Bibliotecas dependientes del Ayuntamiento de Tobarra,163,02006976471,BIBLIOTECA PÚBLICA MUNICIPAL DE TOBARRA,"Juan Carlos I, 16",2500,Tobarra,Albacete,967328162,bibliotecatobarra@gmail.com
Bibliotecas dependientes del Ayuntamiento de Tobarra,744,02006971226,SALA DE LECTURA PÚBLICA,"Camino de los Roques, 1",2513,Tobarra,Albacete,967328162,salalectura.cordovilla@gmail.com
Bibliotecas dependientes del Ayuntamiento de Tobarra,745,02006971227,BIBLIOTECA PÚBLICA MUNICIPAL DE SANTIAGO DE MORA,Plaza de la Iglesia,2513,Tobarra,Albacete,967328162,salalectura.santiagodemora@gmail.com
Biblioteca Pública Municipal de Valdeganga,164,02007012657,BIBLIOTECA PÚBLICA MUNICIPAL DE VALDEGANGA,"Nueva, s/n",2150,Valdeganga,Albacete,967400158,crisboira@hotmail.com
Biblioteca Pública Municipal de Vianos,909,NN846410197,BIBLIOTECA PÚBLICA MUNICIPAL DE VIANOS,"Calvario, s/n",2315,Vianos,Albacete,637449984,bibliotecavianos@hotmail.com
Biblioteca Pública Municipal de Villalgordo del Júcar,820,02013552687,BIBLIOTECA PÚBLICA MUNICIPAL DE VILLALGORDO DEL JÚCAR,"Huertas, s/n",2636,Villalgordo del Júcar,Albacete,967455001,bibliovillalgordo@hotmail.com
Biblioteca Pública Municipal de Villamalea,165,02007182658,BIBLIOTECA PÚBLICA MUNICIPAL DE VILLAMALEA,"Carcel, 2",2270,Villamalea,Albacete,967486283,bibliovillamalea@hotmail.com
Biblioteca Pública Municipal de Villapalacios,166,02007232659,BIBLIOTECA PÚBLICA MUNICIPAL DE VILLAPALACIOS,"Cervantes, 11",2350,Villapalacios,Albacete,967388700,bibliovillapalacios@hotmail.com
Bibliotecas dependientes del Ayuntamiento de Villarrobledo,940,020073911196,BIBLIOTECA DEL SILO DEL CONOCIMIENTO,"Reyes Católicos, 101",2600,Villarrobledo,Albacete,661468397,bibliotecasilo@villarrobledo.com
Bibliotecas dependientes del Ayuntamiento de Villarrobledo,167,02007392660,BIBLIOTECA PÚBLICA MUNICIPAL DE VILLARROBLEDO,"Carrasca, 29",2600,Villarrobledo,Albacete,967555630,biblioteca@villarrobledo.com
Sala de Lectura Pública de Villavaliente,717,02013682688,BIBLIOTECA PÚBLICA MUNICIPAL DE VILLAVALIENTE,"La Sierra, 1",2154,Villavaliente,Albacete,967401604,bibliocorralvilla@hotmail.com
Sala de Lectura Pública de Villaverde,168,02007442661,BIBLIOTECA PÚBLICA MUNICIPAL DE VILLAVERDE DE GUADALIMAR,Paseo de las Delicias,2460,Villaverde de Guadalimar,Albacete,967434001,villaverde@dipualba.es
Biblioteca Pública Municipal de Yeste,169,02007602663,BIBLIOTECA PÚBLICA MUNICIPAL DE YESTE,"Rayo, 3",2480,Yeste,Albacete,967540013,biblioteca.yeste@dipualba.es
Biblioteca Pública Municipal de Abenójar,170,13000103748,BIBLIOTECA PÚBLICA MUNICIPAL DE ABENÓJAR,"Calle Nueva, 20",13180,Abenójar,Ciudad Real,926835001,biblioteca_abenojar@hotmail.com
Biblioteca Pública Municipal de Agudo,171,13000253749,BIBLIOTECA PÚBLICA MUNICIPAL DE AGUDO,"Pablo Picasso, 1-1º",13410,Agudo,Ciudad Real,926730713,biblioteca@agudo.es
Bibliotecas dependientes del Ayuntamiento de Alcázar de San Juan,180,13000596518,BIBLIOTECA PÚBLICA MUNICIPAL DE ALCÁZAR DE SAN JUAN,"Goya, 1",13600,Alcázar de San Juan,Ciudad Real,926551008,cdominguez.bibliotecas@patronatoculturaalcazar.org
Sala de Lectura Pública de Alcolea de Calatrava,182,13000843752,BIBLIOTECA PÚBLICA MUNICIPAL DE ALCOLEA DE CALATRAVA,"Ronda Santa Escolástica, s/n",13107,Alcolea de Calatrava,Ciudad Real,926778017,universidadpopular@alcoleacva.com
Biblioteca Pública Municipal de Alcubillas,183,13013713827,BIBLIOTECA PÚBLICA MUNICIPAL DE ALCUBILLAS,"Ronda de las Escuelas, s/n",13391,Alcubillas,Ciudad Real,926356233,bpm.alcubillas@jccm.es
Biblioteca Pública Municipal de Aldea del Rey,184,13000973753,BIBLIOTECA PÚBLICA MUNICIPAL DE ALDEA DEL REY,"Real, 94",13380,Aldea del Rey,Ciudad Real,926865099,biblio@aldeadelrey.es
Biblioteca Pública Municipal de Alhambra,185,13001013754,BIBLIOTECA PÚBLICA MUNICIPAL DE ALHAMBRA,"Cervantes, 10",13248,Alhambra,Ciudad Real,670857489,bibliotecaalhambra1990@gmail.com
Biblioteca Pública Municipal de Almadén,188,13001233755,BIBLIOTECA PÚBLICA MUNICIPAL DE ALMADÉN,"Antonio Blázquez, 92",13400,Almadén,Ciudad Real,926711914,casacultura@almaden.es
Biblioteca Pública Municipal de Almagro,190,13001443757,BIBLIOTECA PÚBLICA MUNICIPAL DE ALMAGRO,"Mayor de Carnicerías, 11",13270,Almagro,Ciudad Real,926882090,biblioteca@almagro.es
Biblioteca Pública Municipal de Almedina,191,13001603758,BIBLIOTECA PÚBLICA MUNICIPAL DE ALMEDINA,"Mayor, 42",13328,Almedina,Ciudad Real,926356427,richarmo6@hotmail.com
Biblioteca Pública Municipal de Almodóvar del Campo,192,13001763759,BIBLIOTECA PÚBLICA MUNICIPAL DE ALMODÓVAR DEL CAMPO,"Corredera, 12",13580,Almodóvar del Campo,Ciudad Real,926483449,casamarquesa@almodovardelcampo.es
Sala de Lectura Pública de Anchuras,194,13001953761,BIBLIOTECA PÚBLICA MUNICIPAL DE ANCHURAS,"José María del Moral, 7",13117,Anchuras,Ciudad Real,926773001,anchurasayuntamiento@yahoo.es
Biblioteca Pública Municipal de Arenales de San Gregorio,172,13004866436,BIBLIOTECA PÚBLICA MUNICIPAL DE ARENALES DE SAN GREGORIO,"Dulcinea, s/n",13619,Arenales de San Gregorio,Ciudad Real,926584101,biblioarenales@gmail.com
Biblioteca Pública Municipal de Arenas de San Juan,195,NN481010440,BIBLIOTECA PÚBLICA MUNICIPAL DE ARENAS DE SAN JUAN,"Plaza de España, 1",13679,Arenas de San Juan,Ciudad Real,926893002,bibliotecasj@hotmail.com
Red de Bibliotecas Públicas Muncipales de Argamasilla de Alba,196,13002161215,BIBLIOTECA PÚBLICA MUNICIPAL DE ARGAMASILLA DE ALBA,"Capitán Sánchez Alcántara, 5",13710,Argamasilla de Alba,Ciudad Real,926523234,biblioteca@argamasilladealba.es
Biblioteca Pública Municipal de Argamasilla de Calatrava,197,13002213762,BIBLIOTECA PÚBLICA MUNICIPAL,"José María Roales, 6",13440,Argamasilla de Calatrava,Ciudad Real,926478215,bp_medrano.argamasilladecalatrava@hotmail.com
Biblioteca Pública Municipal de Arroba de Los Montes,198,13002373763,BIBLIOTECA PÚBLICA MUNICIPAL DE ARROBA DE LOS MONTES,"Plaza de las Escuelas, s/n",13193,Arroba de los Montes,Ciudad Real,926771621,claverosancheza@gmail.com
Sala de Lectura Pública de Ballesteros de Calatrava,199,13002423764,BIBLIOTECA PÚBLICA MUNICIPAL DE BALLESTEROS DE CALATRAVA,"Plaza Constitución, 1",13432,Ballesteros de Calatrava,Ciudad Real,926842001,biblioteca@ballesterosdecalatrava.es
Biblioteca Pública Municipal de Bolaños de Calatrava,200,13002553765,BIBLIOTECA PÚBLICA MUNICIPAL DE BOLAÑOS,"Toledillo,19",13260,Bolaños de Calatrava,Ciudad Real,926871866,biblioteca@bolanosdecalatrava.es
Biblioteca Pública Municipal de Brazatortas,201,13002683766,BIBLIOTECA PÚBLICA MUNICIPAL DE BRAZATORTAS,"Avenida de Alcudia, 19",13450,Brazatortas,Ciudad Real,926471501,bibliotecabrazatortas@gmail.com
Biblioteca Pública Municipal de Cabezarrubias del Puerto,203,13002743767,BIBLIOTECA PÚBLICA MUNICIPAL DE CABEZARRUBIAS DEL PUERTO,"Plaza de la Constitución, 1",13591,Cabezarrubias del Puerto,Ciudad Real,926476021,bpmcabezarrubias@yahoo.es
Biblioteca Pública Municipal de Calzada de Calatrava,204,13002803768,BIBLIOTECA PÚBLICA MUNICIPAL DE CALZADA DE CALATRAVA,"Constitución, 13",13370,Calzada de Calatrava,Ciudad Real,926876157,biblioteca@calzadadecalatrava.es
Biblioteca Pública Municipal de Campo de Criptana,205,13002933769,BIBLIOTECA PÚBLICA MUNICIPAL DE CAMPO DE CRIPTANA,"Santa Ana, 3",13610,Campo de Criptana,Ciudad Real,926562454,biblioteca@campodecriptana.es
Biblioteca Pública Municipal de Carrión de Calatrava,207,13003143770,BIBLIOTECA PÚBLICA MUNICIPAL DE CARRIÓN DE CALATRAVA,"Echegaray, 1",13150,Carrión de Calatrava,Ciudad Real,926814040,biblioteca@carriondecalatrava.es
Biblioteca Pública Municipal de Carrizosa,208,13003293771,BIBLIOTECA PÚBLICA MUNICIPAL DE CARRIZOSA,"Fuente, 5",13329,Carrizosa,Ciudad Real,926368118,bibliocarrizosa@yahoo.es
Biblioteca Pública Municipal de Castellar de Santiago,209,13003353772,BIBLIOTECA PÚBLICA MUNICIPAL DE CASTELLAR DE SANTIAGO,"Plaza de la Constitución, 3",13750,Castellar de Santiago,Ciudad Real,926340225,antonialopez@castellardesantiago.es
Biblioteca Pública Municipal de Chillón,210,13005453777,BIBLIOTECA PÚBLICA MUNICIPAL DE CHILLÓN,"Rosario Márquez, 37",13412,Chillón,Ciudad Real,926712030,casacultura@chillon.es
Red de Bibliotecas Públicas Municipales de Ciudad Real,221,13013491235,BIBLIOTECA PÚBLICA MUNICIPAL DE CIUDAD REAL,"Plaza Pío XII, 1",13002,Ciudad Real,Ciudad Real,926211044,bmpioxii@ext.ayto-ciudadreal.es
Red de Bibliotecas Públicas Municipales de Ciudad Real,257,13013491246,"BIBLIOTECA PÚBLICA MUNICIPAL DE CIUDAD REAL ""SANTIAGO""","Calatrava, 35",13003,Ciudad Real,Ciudad Real,926211044,bmsantiago@ext.ayto-ciudadreal.es
Red de Bibliotecas Públicas Municipales de Ciudad Real,255,13013491236,BIBLIOTECA PÚBLICA MUNICIPAL DE CIUDAD REAL,"Guadalajara, 9",13003,Ciudad Real,Ciudad Real,926211044,bmsanjuan@ext.ayto-ciudadreal.es
Biblioteca Pública del Estado en Ciudad Real,211,13003533773,BIBLIOTECA PÚBLICA DEL ESTADO EN CIUDAD REAL,"Avda. Ferrocarril, s/n",13004,Ciudad Real,Ciudad Real,926279215,bpcr@jccm.es
Red de Bibliotecas Públicas Municipales de Ciudad Real,237,13013491244,"BIBLIOTECA PÚBLICA MUNICIPAL DE CIUDAD REAL ""LARACHE""","Carretera Fuensanta, 18",13004,Ciudad Real,Ciudad Real,926211044,bmlarache@ext.ayto-ciudadreal.es
Red de Bibliotecas Públicas Municipales de Ciudad Real,230,13013491241,"BIBLIOTECA PÚBLICA MUNICIPAL DE CIUDAD REAL ""LOS ÁNGELES""","Madrid, 6",13004,Ciudad Real,Ciudad Real,926211044,bmangeles@ext.ayto-ciudadreal.es
Red de Bibliotecas Públicas Municipales de Ciudad Real,229,13013491242,"Biblioteca Pública Municipal de Ciudad Real  ""El Pilar""",Virgen Blanca s /n,13004,Ciudad Real,Ciudad Real,926211044,bmpilar@ext.ayto-ciudadreal.es
Red de Bibliotecas Públicas Municipales de Ciudad Real,232,13013491243,BIBLIOTECA PÚBLICA MUNICIPAL LA GRANJA,"Brasil, 4",13005,Ciudad Real,Ciudad Real,926211040,bmgranja@ext.ayto-ciudadreal.es
Red de Bibliotecas Públicas Municipales de Ciudad Real,227,13013491237,BIBLIOTECA PÚBLICA MUNICIPAL DE VALVERDE,"Valeriano García, nº9",13195,Ciudad Real,Ciudad Real,926211044,bmvalverde@ext.ayto-ciudadreal.es
Red de Bibliotecas Públicas Municipales de Ciudad Real,218,13013491245,BIBLIOTECA PÚBLICA MUNICIPAL DE LAS CASAS,"Las Escuelas, s/n",13196,Ciudad Real,Ciudad Real,926211044,bmcasas@ext.ayto-ciudadreal.es
Red de Bibliotecas Públicas Municipales de Ciudad Real,776,13013491238,BIBLIOTECA PÚBLICA MUNICIPAL DE LA POBLACHUELA,"Carretera Puertollano, km. 2",13197,Ciudad Real,Ciudad Real,926211044,bmpoblachuela@ext.ayto-ciudadreal.es
Biblioteca Pública Municipal de Corral de Calatrava,258,13014043829,BIBLIOTECA PÚBLICA MUNICIPAL DE CORRAL DE CALATRAVA,Paseo Ángel Díaz del Castillo s/n,13190,Corral de Calatrava,Ciudad Real,926830001,administracion@corraldecalatrava.es
Biblioteca Pública Municipal de Los Cortijos,259,13005243775,BIBLIOTECA PÚBLICA MUNICIPAL DE LOS CORTIJOS,"Paraje La Loma, s/n",13427,Cortijos (Los),Ciudad Real,926808052,universidadpopular@loscortijos.com
Biblioteca Pública Municipal de Cózar,260,13005303776,BIBLIOTECA PÚBLICA MUNICIPAL DE CÓZAR,"Bajada del Pilar, 12",13345,Cózar,Ciudad Real,926365022,biblio@cozar.es
Biblioteca Pública Municipal de Daimiel,262,13005613778,BIBLIOTECA PÚBLICA MUNICIPAL DE DAIMIEL,"Gregorio Molinero, 9",13250,Daimiel,Ciudad Real,926260894,biblioteca@aytodaimiel.es
Sala de Lectura Pública de Fernán Caballero,263,13005773779,BIBLIOTECA PÚBLICA MUNICIPAL DE FERNÁN CABALLERO,"San Isidro, 3",13140,Fernán Caballero,Ciudad Real,664472680,bpmfernancaballero@gmail.com
Biblioteca Pública Municipal de Fuencaliente,265,13005963781,BIBLIOTECA PÚBLICA MUNICIPAL DE FUENCALIENTE,"Plaza de España, 5",13130,Fuencaliente,Ciudad Real,926470184,bibliofuen@hotmail.com
Biblioteca Pública Municipal de Fuente El Fresno,267,13006173782,BIBLIOTECA PÚBLICA MUNICIPAL DE FUENTE EL FRESNO,"Antonio de la Fuente, 23",13680,Fuente el Fresno,Ciudad Real,926806717,bpm.fuenteelfresno@hotmail.com
Biblioteca Pública Municipal de Granátula de Calatrava,268,13006223783,BIBLIOTECA PÚBLICA MUNICIPAL DE GRANÁTULA DE CALATRAVA,"Plaza de la Constitución, 2",13360,Granátula de Calatrava,Ciudad Real,926868131,granatulacalatrava.capi@jccm.es
Biblioteca Pública Municipal de Herencia,270,13006433785,BIBLIOTECA PÚBLICA MUNICIPAL DE HERENCIA,"Lope de Vega, 35",13640,Herencia,Ciudad Real,926572475,biblioteca@herencia.es
Biblioteca Pública Municipal de Horcajo de Los Montes,272,13006563786,BIBLIOTECA PÚBLICA MUNICIPAL DE HORCAJO DE LOS MONTES,"Cervantes, 7",13110,Horcajo de los Montes,Ciudad Real,926032709,culturaydeportes@aytohorcajodelosmontes.es
Biblioteca Pública Municipal de Las Labores,273,13006693787,BIBLIOTECA PÚBLICA MUNICIPAL DE LAS LABORES,"Plaza de la Cultura, s/n",13660,Labores (Las),Ciudad Real,926892233,bibliotecalaslabores@gmail.com
Biblioteca Pública Municipal de Llanos del Caudillo,279,13012733823,BIBLIOTECA PÚBLICA MUNICIPAL DE LLANOS DEL CAUDILLO,"Plaza la Constitución, s/n",13220,Llanos del Caudillo,Ciudad Real,926644152,bibliollanos@hotmail.com
Biblioteca Pública Municipal de Luciana,274,NN45307936,BIBLIOTECA PÚBLICA MUNICIPAL DE LUCIANA,"Juan Carlos I, 4",13108,Luciana,Ciudad Real,926769027,bibliotecadeluciana@hotmail.com
Biblioteca Pública Municipal de Malagón,275,13006813788,BIBLIOTECA PÚBLICA MUNICIPAL DE MALAGÓN,"Tercia, 54",13420,Malagón,Ciudad Real,926801135,bibliotecamalagon@hotmail.es
Bibliotecas dependientes del Ayuntamiento de Manzanares,277,13006941222,BIBLIOTECA PÚBLICA MUNICIPAL DE MANZANARES,"Cárcel, 9",13200,Manzanares,Ciudad Real,926613208,biblioteca@manzanares.es
Biblioteca Pública Municipal de Membrilla,3,13007153790,BIBLIOTECA PÚBLICA MUNICIPAL DE MEMBRILLA,"San León, s/n",13230,Membrilla,Ciudad Real,926648022,biblioteca@aytomembrilla.org
Biblioteca Pública Municipal de Miguelturra,6,13007363791,BIBLIOTECA PÚBLICA MUNICIPAL DE MIGUELTURRA,"Calle Carretas , 22",13170,Miguelturra,Ciudad Real,926272049,bibliotecamiguelturra@hotmail.com
Biblioteca Pública Municipal de Montiel,7,13014263831,BIBLIOTECA PÚBLICA MUNICIPAL DE MONTIEL,"Diputación, 8",13326,Montiel,Ciudad Real,926353496,bibliotecamontiel@yahoo.es
Biblioteca Pública Municipal de Moral de Calatrava,8,13007413792,BIBLIOTECA PÚBLICA MUNICIPAL DE MORAL DE CALATRAVA,"Reyes Católicos, 21",13350,Moral de Calatrava,Ciudad Real,926319736,biblioteca@moraldecalatrava.org
Biblioteca Pública Municipal de Pedro Muñoz,11,13007733794,BIBLIOTECA PÚBLICA MUNICIPAL DE PEDRO MUÑOZ,Plaza de España,13620,Pedro Muñoz,Ciudad Real,926586355,biblioteca@pedro-munoz.com
Red de bibliotecas públicas municipales de Piedrabuena,13,13007926521,BIBLIOTECA PÚBLICA MUNICIPAL DE PIEDRABUENA,"Rodríguez Marín, 5",13100,Piedrabuena,Ciudad Real,926760250,mercedesnavaslaguna@yahoo.es
Red de bibliotecas públicas municipales de Piedrabuena,856,13007921261,BIBLIOTECA PÚBLICA MUNICIPAL DE EL ALCORNOCAL,Carolina 12,13100,Piedrabuena,Ciudad Real,926760250,mercedesnavaslaguna@yahoo.es
Biblioteca Pública Municipal de Poblete,14,13008063796,BIBLIOTECA PÚBLICA MUNICIPAL DE POBLETE,"Plaza Cervantes, 2",13195,Poblete,Ciudad Real,926836960,biblioteca@poblete.es
Bibliotecas dependientes del Ayuntamiento de Porzuna,15,13008136522,BIBLIOTECA PÚBLICA MUNICIPAL DE PORZUNA,"Toledo, 28",13120,Porzuna,Ciudad Real,926781289,bpporzuna@gmail.com
Bibliotecas dependientes del Ayuntamiento de Porzuna,850,13008131224,BIBLIOTECA PÚBLICA MUNICIPAL DE EL TRINCHETO,"Crta. de Los Cortijos, 15",13129,Porzuna,Ciudad Real,926780001,bibliotecatrincheto@gmail.com
Biblioteca Pública Municipal de Pozuelo de Calatrava,16,13008283797,BIBLIOTECA PÚBLICA MUNICIPAL DE POZUELO DE CALATRAVA,"Plaza de España, 1",13179,Pozuelo de Calatrava,Ciudad Real,926840341,biblioteca@pozuelodecalatrava.es
Biblioteca Pública Municipal de Puebla de Don Rodrigo,18,13008343798,BIBLIOTECA PÚBLICA MUNICIPAL DE PUEBLA DE DON RODRIGO,"Cuatro Esquinas, 13",13109,Puebla de Don Rodrigo,Ciudad Real,926777278,bibliopurodrigo@gmail.com
Biblioteca Pública Municipal de Puerto Lápice,20,13012363819,BIBLIOTECA PÚBLICA MUNICIPAL DE PUERTO LÁPICE,"Cervantes, 2",13650,Puerto Lápice,Ciudad Real,926576041,nupave7@hotmail.com
Red de Bibliotecas Públicas Municipales de Puertollano,25,13008656523,BIBLIOTECA PÚBLICA MUNICIPAL DE PUERTOLLANO,"Numancia, 55",13500,Puertollano,Ciudad Real,926410564,luisfernando.biblioteca@puertollano.es
Red de Bibliotecas Públicas Municipales de Puertollano,786,13008651239,"BIBLIOTECA PÚBLICA MUNICIPAL ""LAS MERCEDES""","Pelayo, 5",13500,Puertollano,Ciudad Real,926410564,biblioteca@puertollano.es
Biblioteca Pública Municipal de Retuerta del Bullaque,26,13005196437,BIBLIOTECA PÚBLICA MUNICIPAL DE RETUERTA DEL BULLAQUE,"Peligro, 1",13194,Retuerta del Bullaque,Ciudad Real,658519282,cristina.retu@yahoo.es
Biblioteca Pública Municipal de El Robledo,27,13007546438,BIBLIOTECA PÚBLICA MUNICIPAL DE EL ROBLEDO,"Candelaria,19",13114,Robledo (El),Ciudad Real,618410848,biblioteca@elrobledo.es
Biblioteca Pública Municipal de Ruidera,808,13012153818,BIBLIOTECA PÚBLICA MUNICIPAL DE RUIDERA,"Redondilla, 14",13249,Ruidera,Ciudad Real,926528103,bibliotecaruidera@gmail.com
Biblioteca Pública Municipal de Saceruela,28,13014473832,BIBLIOTECA PÚBLICA MUNICIPAL DE SACERUELA,"Virgen de las Cruces, 16",13414,Saceruela,Ciudad Real,926779900,bibliosace@yahoo.es
Biblioteca Pública Municipal de San Carlos del Valle,29,13008873801,BIBLIOTECA PÚBLICA MUNICIPAL DE SAN CARLOS DEL VALLE,"Plaza Rasillo de la Mancha, 10",13247,San Carlos del Valle,Ciudad Real,926630267,bibliocarlos3@gmail.com
Biblioteca Pública Municipal de Santa Cruz de Mudela,32,13009113802,BIBLIOTECA PÚBLICA MUNICIPAL DE SANTA CRUZ DE MUDELA,"Plaza de Andres Cacho, 6",13730,Santa Cruz de Mudela,Ciudad Real,926331448,biblioteca@stacruzmudela.org
Biblioteca Pública Municipal de Socuéllamos,33,13009263803,BIBLIOTECA PÚBLICA MUNICIPAL DE SOCUÉLLAMOS,"Pedro Arias, 87",13630,Socuéllamos,Ciudad Real,926539425,bibliopilar@yahoo.es
Biblioteca Pública Municipal de La Solana,34,13009323804,BIBLIOTECA  PÚBLICA  MUNICIPAL DE LA SOLANA,"Puerta del Sol, 10",13240,Solana (La),Ciudad Real,926631000,biblioteca@lasolana.es
Biblioteca Pública Municipal de Tomelloso,37,13009633805,BIBLIOTECA PÚBLICA MUNICIPAL DE TOMELLOSO,"Independencia, 32",13700,Tomelloso,Ciudad Real,926528801,biblioteca@aytotomelloso.es
Biblioteca Pública Municipal de Torralba de Calatrava,40,13009793806,BIBLIOTECA PÚBLICA MUNICIPAL DE TORRALBA DE CALATRAVA,"Juan Félix Huertas, 2",13160,Torralba de Calatrava,Ciudad Real,926811903,mgomez@ayuntorralba.com
Biblioteca Pública Municipal de Torre de Juan Abad,41,13009853807,BIBLIOTECA PÚBLICA MUNICIPAL DE TORRE DE JUAN ABAD “FRANCISCO DE QUEVEDO”,"Oscura, 8",13344,Torre de Juan Abad,Ciudad Real,926383000,biblioteca@torredejuanabad.es
Biblioteca Pública Municipal de Torrenueva,42,13009983808,BIBLIOTECA PÚBLICA MUNICIPAL DE TORRENUEVA,"Plaza de España, 5",13740,Torrenueva,Ciudad Real,926341531,bibliotorrenueva@gmail.com
Biblioteca Pública Municipal de Valdepeñas,46,13013526524,BIBLIOTECA PÚBLICA MUNICIPAL DE VALDEPEÑAS,"Real, 9",13300,Valdepeñas,Ciudad Real,926329200,bibliotecapublica@valdepenas.es
Biblioteca Pública Municipal de Valenzuela de Calatrava,47,13013283826,BIBLIOTECA PÚBLICA MUNICIPAL DE VALENZUELA DE CALATRAVA,"Marqueses de Torremejía, 4",13279,Valenzuela de Calatrava,Ciudad Real,926867005,biblioteca@valenzueladecalatrava.es
Biblioteca Pública Municipal de Villahermosa,48,13010243810,BIBLIOTECA PÚBLICA MUNICIPAL DE VILLAHERMOSA,"Cura Vicario, 1",13332,Villahermosa,Ciudad Real,926375021,angelinabl@hotmail.com
Biblioteca Pública Municipal de Villamanrique,49,13014983833,BIBLIOTECA PÚBLICA MUNICIPAL DE VILLAMANRIQUE,de los Toriles s/n,13343,Villamanrique,Ciudad Real,926354290,biblioteca@villamanrique.net
Biblioteca Pública Municipal de Villamayor de Calatrava,50,13010613811,BIBLIOTECA PÚBLICA MUNICIPAL DE VILLAMAYOR DE CALATRAVA,"Real, 36",13595,Villamayor de Calatrava,Ciudad Real,926466009,biblioteca@villamayordecalatrava.es
Biblioteca Pública Municipal de Villanueva de la Fuente,51,13012673822,BIBLIOTECA PÚBLICA MUNICIPAL DE VILLANUEVA DE LA FUENTE,"Escuelas, 3",13330,Villanueva de la Fuente,Ciudad Real,967396000,vvadelafuente@gmail.com
Biblioteca Pública Municipal de Villanueva de los Infantes,281,13010773812,BIBLIOTECA PÚBLICA MUNICIPAL DE VILLANUEVA DE LOS INFANTES,"General Pérez Ballesteros, 1",13320,Villanueva de los Infantes,Ciudad Real,926360794,bpm.villa-infantes@local.jccm.es
Biblioteca Pública Municipal de Villarrubia de los Ojos,283,13010963814,BIBLIOTECA PÚBLICA MUNICIPAL DE VILLARRUBIA DE LOS OJOS,"Plaza de la Constitución, 1",13670,Villarrubia de los Ojos,Ciudad Real,926897403,biblioteca@villarrubiadelosojos.es
Biblioteca Pública Municipal de Villarta de San Juan,284,13011003815,BIBLIOTECA PÚBLICA MUNICIPAL DE VILLARTA DE SAN JUAN,"Escuelas, 7",13210,Villarta de San Juan,Ciudad Real,926640380,bpm.villart-sanjuan@local.jccm.es
Biblioteca Pública Municipal del Viso del Marqués,285,13011173816,BIBLIOTECA PÚBLICA MUNICIPAL DEL VISO DEL MARQUÉS,"Real, 60",13770,Viso del Marqués,Ciudad Real,926336409,bibliotecavisodelmarques@gmail.com
Biblioteca Pública Municipal de Alarcón,823,16009143989,BIBLIOTECA PÚBLICA MUNICIPAL DE ALARCÓN,"Posadas, 6",16214,Alarcón,Cuenca,969330319,bibliotecaalarcon@hotmail.es
Biblioteca Pública Municipal de Albalate de las Nogueras,287,16000133918,BIBLIOTECA PÚBLICA MUNICIPAL DE ALBALATE DE LAS NOGUERAS,"Plaza Mayor, s/n",16841,Albalate de las Nogueras,Cuenca,969313529,biblio_albalate@hotmail.com
Biblioteca Pública Municipal de Albendea,753,16009293990,BIBLIOTECA PÚBLICA MUNICIPAL DE ALBENDEA,"Calle Mayor, 2",16812,Albendea,Cuenca,969316001,bibliotecaalbendea@gmail.com
Biblioteca Pública Municipal de La Alberca de Záncara,288,16000283919,BIBLIOTECA PÚBLICA MUNICIPAL DE ALBERCA DE ZÁNCARA,"Cultura, 4",16620,Alberca de Záncara (La),Cuenca,967150144,mercheyyo@hotmail.com
Biblioteca Pública Municipal de Aliaguilla,291,16000343920,BIBLIOTECA PÚBLICA MUNICIPAL DE ALIAGUILLA,"Pablo Casal, 4",16313,Aliaguilla,Cuenca,969364502,biblioteca_aliaguilla@hotmail.com
Sala de Lectura Pública Municipal de Almodóvar del Pinar,839,16013376444,BIBLIOTECA PÚBLICA MUNICIPAL DE ALMODÓVAR DEL PINAR,"La Virgen, s/n",16215,Almodóvar del Pinar,Cuenca,969336377,almodovarpinar.capi@jccm.es
Sala de Lectura Pública de Almonacid del Marquesado,293,16000493921,BIBLIOTECA PÚBLICA MUNICIPAL DE ALMONACID DEL MARQUESADO,Las Peñas,16431,Almonacid del Marquesado,Cuenca,969120231,biblioalmonacid@hotmail.com
Biblioteca Pública Municipal de Arcas del Villar,882,16007826275,BIBLIOTECA PÚBLICA MUNICIPAL DE ARCAS,"Plaza Mayor, s/n",16123,Arcas,Cuenca,969253006,biblioarcas@hotmail.com
Biblioteca-Casa de Cultura de Barajas de Melo,294,16006623972,BIBLIOTECA PÚBLICA MUNICIPAL DE BARAJAS DE MELO,Plaza Puerta del Sol,16460,Barajas de Melo,Cuenca,969121207,bibliotecabarajas@yahoo.es
Biblioteca Pública Municipal de Belmonte,295,16000523922,BIBLIOTECA PÚBLICA MUNICIPAL DE BELMONTE,"San Juan del Castillo, s/n",16640,Belmonte,Cuenca,967170761,bibliotecabelmonte@hotmail.com
Biblioteca Pública Municipal de Beteta,296,16000653923,BIBLIOTECA PÚBLICA MUNICIPAL DE BETETA,"Plaza Mayor, 2",16870,Beteta,Cuenca,969318221,bibliobeteta2@hotmail.com
Biblioteca Pública Municipal de Buenache de Alarcón,824,16009353991,BIBLIOTECA PÚBLICA MUNICIPAL DE BUENACHE DE ALARCÓN,"Calle Nueva, 175",16114,Buenache de Alarcón,Cuenca,969209085,bpmbuenache@yahoo.es
Biblioteca Pública Municipal de Buendía,297,16009403992,BIBLIOTECA PÚBLICA MUNICIPAL DE BUENDÍA,"Tercia, s/n",16512,Buendía,Cuenca,969373270,bpmbuendia@gmail.com
Biblioteca Pública Municipal de Campillo de Altobuey,298,16000713924,BIBLIOTECA PÚBLICA MUNICIPAL DE CAMPILLO DE ALTOBUEY,"Pedrizas, s/n",16210,Campillo de Altobuey,Cuenca,969337365,biblioaltobuey@hotmail.com
Biblioteca Pública Municipal de Campos del Paraíso,887,16006843974,BIBLIOTECA PÚBLICA MUNICIPAL DE CAMPOS DEL PARAÍSO,"Plaza de don Miguel de Carrascosa, s/n",16555,Campos del Paraíso,Cuenca,969124271,bibliocamparaiso@hotmail.com
Biblioteca Pública Municipal de Cañamares,754,16009663994,BIBLIOTECA PÚBLICA MUNICIPAL DE CAÑAMARES,"Rodeo, s/n",16890,Cañamares,Cuenca,969310197,bibliocanamares@hotmail.com
Biblioteca Pública Municipal de Cañete,302,16000903926,BIBLIOTECA PÚBLICA MUNICIPAL DE CAÑETE,"San Andrés, 2",16300,Cañete,Cuenca,969346373,bpmmiguelromero@gmail.com
Bibliotecas dependientes del Ayuntamiento de Cañizares,826,16009916620,BIBLIOTECA PÚBLICA MUNICIPAL DE CAÑIZARES,"Plaza de Santiago,1",16891,Cañizares,Cuenca,969313009,biblio_canizares@hotmail.com
Bibliotecas dependientes del Ayuntamiento de Cañizares,827,16009911247,BIBLIOTECA PÚBLICA MUNICIPAL DE PUENTE DE VADILLOS,"Ctra Beteta, s/n",16892,Cañizares,Cuenca,969313172,biblio_canizares@hotmail.com
Biblioteca Pública Municipal de Carboneras de Guadazaón,303,16006783973,BIBLIOTECA PÚBLICA MUNICIPAL DE CARBONERAS DE GUADAZAÓN,La Flor,16350,Carboneras de Guadazaón,Cuenca,969341009,bpmcarboneras@gmail.com
Biblioteca Pública Municipal de Cardenete,305,16013686447,BIBLIOTECA PÚBLICA MUNICIPAL DE CARDENETE,"Calle Nueva,20",16373,Cardenete,Cuenca,675882886,bibliotecardenete@gmail.com
Sala de Lectura Pública de Casas de Benítez,306,16001113927,BIBLIOTECA PÚBLICA MUNICIPAL DE CASAS DE BENÍTEZ,Rodríguez de La Fuente,16707,Casas de Benítez,Cuenca,969382001,bpm.casasdebenitez@yahoo.es
Biblioteca Pública Municipal de Casas de Fernando Alonso,307,16001263928,BIBLIOTECA PÚBLICA MUNICIPAL DE CASAS DE FERNANDO ALONSO,"Parque, s/n",16610,Casas de Fernando Alonso,Cuenca,969383013,angelinesrmontero@hotmail.com
Biblioteca Pública Municipal de Casas de Haro,755,16010053996,BIBLIOTECA PÚBLICA MUNICIPAL DE CASAS DE HARO,"Plaza de España, 2",16611,Casas de Haro,Cuenca,969380691,bpmcasasdeharo@yahoo.es
Biblioteca Pública Municipal Casas de Los Pinos,870,16013556446,BIBLIOTECA PÚBLICA MUNICIPAL DE CASAS DE LOS PINOS,"Del Parque, 2",16612,Casas de los Pinos,Cuenca,969383203,biblioteca_casaspinos@hotmail.com
Biblioteca Pública Municipal de Casasimarro,308,16001323929,BIBLIOTECA PÚBLICA MUNICIPAL DE CASASIMARRO,"Parque Angel Rodriguez, s/n",16239,Casasimarro,Cuenca,967487588,casasimarrobiblioteca@gmail.com
Biblioteca Pública Municipal de Chillarón de Cuenca,852,16013216443,BIBLIOTECA PÚBLICA MUNICIPAL DE CHILLARÓN DE CUENCA,"Escuelas, s/n",16190,Chillarón de Cuenca,Cuenca,969273320,bpmespidofreire@yahoo.es
Red de Bibliotecas Públicas Muncipales de Cuenca,885,16010336983,BIBLIOTECA PÚBLICA MUNICIPAL DE CUENCA,"Aguirre, 2",16002,Cuenca,Cuenca,969240403,biblioteca@cuenca.es
Red de Bibliotecas Públicas Muncipales de Cuenca,334,16010331201,BIBLIOTECA PÚBLICA MUNICIPAL DE LA FUENTE DEL ORO,"San Damián, s/n",16003,Cuenca,Cuenca,969239004,riodelavida@hotmail.com
Red de Bibliotecas Públicas Muncipales de Cuenca,893,16010331258,BIBLIOTECA PÚBLICA MUNICIPAL DE VILLA ROMÁN,"Avenida de la Música Española, s/n",16004,Cuenca,Cuenca,969234544,bpm.villaroman@hotmail.com
Biblioteca Pública del Estado en Cuenca,337,16002303933,BIBLIOTECA PÚBLICA DEL ESTADO EN CUENCA,"Glorieta González Palencia, 1",16071,Cuenca,Cuenca,969179700,bp.cuenca@jccm.es
"Dirección Provincial de la Consejería de Educación, Cultura y Deporte en Cuenca. Sección del Libro, Archivos y BibliotecasDelegación de Educación, Ciencia y Cultura en Cuenca. Sección del Libro, Archivos y Bibliotecas",544,16013567043,BIBLIOBÚS DE CUENCA I,"González Palencia, 2",16071,Cuenca,Cuenca,680220953,bibliobuscuenca1@jccm.es
"Dirección Provincial de la Consejería de Educación, Cultura y Deporte en Cuenca. Sección del Libro, Archivos y BibliotecasDelegación de Educación, Ciencia y Cultura en Cuenca. Sección del Libro, Archivos y Bibliotecas",908,16013567044,BIBLIOBÚS DE CUENCA II,"González Palencia, 2",16071,Cuenca,Cuenca,648224152,bibliobuscuenca2@jccm.es
Biblioteca Pública Municipal de Enguídanos,350,NN848910441,BIBLIOTECA PÚBLICA MUNICIPAL DE ENGUÍDANOS,"Leonardo Luján, 2",16372,Enguídanos,Cuenca,969344935,bibliotecaenguidanos@gmail.com
Sala de Pública Pública de La Frontera,756,16006973975,BIBLIOTECA PÚBLICA DE LA FRONTERA,"Lavadero, 11",16144,Frontera (La),Cuenca,969310959,bibliofrontera@hotmail.com
Sala de Lectura Pública de Fuente de Pedro Naharro,351,16002833935,BIBLIOTECA PÚBLICA MUNICIPAL DE FUENTE DE PEDRO NAHARRO,"Honorio Ruiz, 9",16411,Fuente de Pedro Naharro,Cuenca,969125297,biblioteca@fuentedepedronaharro.es
Biblioteca Pública Municipal de Fuentes,873,16013426445,BIBLIOTECA PÚBLICA MUNICIPAL DE FUENTES,"Castelar, 3",16193,Fuentes,Cuenca,969257022,bpm.fuentes@hotmail.com
Biblioteca Pública Municipal de Graja de Iniesta,854,16013166442,BIBLIOTECA PÚBLICA MUNICIPAL DE GRAJA DE INIESTA,"La Iglesia, 26",16251,Graja de Iniesta,Cuenca,962312419,grajadeiniesta.secretaria@dipucuenca.es
Biblioteca Pública Municipal de El Herrumblar,353,16002963936,BIBLIOTECA PÚBLICA MUNICIPAL DE EL HERRUMBLAR,"Cuenca, 73",16290,Herrumblar (El),Cuenca,962313100,biblioherrum@hotmail.com
Biblioteca Pública Municipal de Los Hinojosos,355,16003003937,BIBLIOTECA PÚBLICA MUNICIPAL DE LOS HINOJOSOS,"Plaza del Alcalde Adolfo Heras, 1",16417,Hinojosos (Los),Cuenca,969129740,bibliohinojosos@yahoo.es
Biblioteca Pública Municipal de Honrubia,356,16003173938,BIBLIOTECA PÚBLICA MUNICIPAL DE HONRUBIA,"Av/ de España, 40",16730,Honrubia,Cuenca,969292048,bpmhonrubia@gmail.com
Biblioteca Pública Municipal de Horcajo de Santiago,357,16003223939,BIBLIOTECA PÚBLICA MUNICIPAL DE HORCAJO DE SANTIAGO,"Huertas, 23",16410,Horcajo de Santiago,Cuenca,969127655,bibliotecahorcajo@hotmail.es
Biblioteca Pública Municipal de Huete,358,16003383940,BIBLIOTECA PÚBLICA MUNICIPAL DE HUETE,"Plaza de la Merced, 1",16500,Huete,Cuenca,969371005,bphuete@gmail.com
Biblioteca Pública Municipal de Iniesta,359,16003433941,BIBLIOTECA PÚBLICA MUNICIPAL DE INIESTA,"Alarcón, 2",16235,Iniesta,Cuenca,967490427,bpm.iniesta@hotmail.com
Biblioteca Pública Municipal de Landete,360,16003563942,BIBLIOTECA PÚBLICA MUNICIPAL DE LANDETE,"Matias Valero, 8",16330,Landete,Cuenca,969368013,bfdc.landete@gmail.com
Biblioteca Pública Municipal de Ledaña,361,16010483999,BIBLIOTECA PÚBLICA MUNICIPAL DE LEDAÑA,"Princesa, 1",16237,Ledaña,Cuenca,967492240,biblio.ledana@gmail.com
Biblioteca Pública Municipal de Las Majadas,759,16010644001,BIBLIOTECA PÚBLICA MUNICIPAL DE LAS MAJADAS,"Atanasio Lasso, 12",16142,Majadas (Las),Cuenca,969283102,majadas.capi@jccm.es
Biblioteca Pública Municipal de Las Mesas,362,16003753943,BIBLIOTECA PÚBLICA MUNICIPAL DE LAS MESAS,"Escuelas, 2",16650,Mesas (Las),Cuenca,673234334,bibliotecalasmesas@gmail.com
Biblioteca Pública Municipal de Minglanilla,363,16003813944,BIBLIOTECA PÚBLICA MUNICIPAL DE MINGLANILLA,"Plaza del Salero, 5",16260,Minglanilla,Cuenca,962187134,biblioteca@minglanilla.es
Biblioteca Pública Municipal de Mira,364,16003943945,BIBLIOTECA PÚBLICA MUNICIPAL DE MIRA,"Obispo Sangüesa, s/n",16393,Mira,Cuenca,969340919,biblioteca_mira@hotmail.com
Biblioteca Pública Municipal de Montalbo,365,16008553985,"BIBLIOTECA PÚBLICA MUNICIPAL DE MONTALBO ""ANTONIO ESCAMILLA CID""","Glorieta de la Iglesia, 4",16440,Montalbo,Cuenca,969130194,bibliomontalbo@gmail.com
Biblioteca Pública Municipal de Mota del Cuervo,366,16004083946,BIBLIOTECA PÚBLICA MUNICIPAL DE MOTA DEL CUERVO,"Escuelas, 1",16630,Mota del Cuervo,Cuenca,967182005,bpm-mcuervo@local.jccm.es
Biblioteca Pública Municipal de Motilla del Palancar,368,16004153947,BIBLIOTECA PÚBLICA MUNICIPAL DE MOTILLA DEL PALANCAR,"Cristobal Colón, 1",16200,Motilla del Palancar,Cuenca,969180127,biblioteca@motilla.com
Biblioteca Pública Municipal de Osa de La Vega,371,16008093980,BIBLIOTECA PÚBLICA MUNICIPAL DE OSA DE LA VEGA,"Iglesia, 1",16423,Osa de la Vega,Cuenca,969122905,biblioosa@yahoo.es
Biblioteca Pública Municipal de Palomares del Campo,372,160137311197,BIBLIOTECA PÚBLICA MUNICIPAL DE PALOMARES DEL CAMPO,"Cristo de la Paz, 7",16160,Palomares del Campo,Cuenca,969277826,bpmpalomares@hotmail.com
Biblioteca Pública Municipal de El Pedernoso,373,16004363949,BIBLIOTECA PÚBLICA MUNICIPAL DE EL PEDERNOSO,"Constitución, s/n",16638,Pedernoso (El),Cuenca,967164182,biblioteca@ayuntamientoelpedernoso.es
Biblioteca Pública Municipal de Las Pedroñeras,374,16004413950,BIBLIOTECA PÚBLICA MUNICIPAL DE LAS PEDROÑERAS,"Pelayo, 4",16660,Pedroñeras (Las),Cuenca,967161229,bibliotecapedroneras@telefonica.net
Biblioteca Pública Municipal de El Peral,375,16008213982,BIBLIOTECA PÚBLICA MUNICIPAL DE EL PERAL,"San Isidro, 4",16240,Peral (El),Cuenca,969339585,bp_doncrescencio@hotmail.com
Biblioteca Pública Municipal de El Picazo,874,16013746448,BIBLIOTECA PÚBLICA MUNICIPAL DE EL PICAZO,"Molino, 23",16211,Picazo (El),Cuenca,658510916,bibliotecapicazo@hotmail.com
Biblioteca Pública Municipal de Pozorrubielos de La Mancha,376,16011104003,BIBLIOTECA PÚBLICA MUNICIPAL DE POZORRUBIELOS DE LA MANCHA,"Plaza Mayor, 5",16212,Pozorrubielos de la Mancha,Cuenca,969330067,bpm.pozorrubielos@gmail.com
Biblioteca Pública Municipal de Pozorrubio de Santiago,377,16004543951,BIBLIOTECA PÚBLICA MUNICIPAL DE POZORRUBIO DE SANTIAGO,"Monte, 16",16414,Pozorrubio de Santiago,Cuenca,969127675,bpmpozorrubio@yahoo.es
Biblioteca Pública Municipal de Priego,378,16004673952,BIBLIOTECA PÚBLICA MUNICIPAL DE PRIEGO,"Ángela López de la Llana,",16800,Priego,Cuenca,969311001,bibliotecapriego@yahoo.es
Biblioteca Pública Municipal de El Provencio,379,16004733953,BIBLIOTECA PÚBLICA MUNICIPAL DE EL PROVENCIO,"Avda. de la Libertad, 13",16670,Provencio (El),Cuenca,967165708,bibliotecaelprovencio@hotmail.com
Biblioteca Pública Municipal de Puebla de Almenara,890,16010706281,BIBLIOTECA PÚBLICA MUNICIPAL DE PUEBLA DE ALMENARA,"Mayor, 23",16421,Puebla de Almenara,Cuenca,969131285,bpmpuebladealmenara@hotmail.com
Biblioteca Pública Municipal de Quintanar del Rey,380,16004893954,BIBLIOTECA PÚBLICA MUNICIPAL DE QUINTANAR DEL REY,"Cura, 22, 1º",16220,Quintanar del Rey,Cuenca,967496514,biblioquin@gmail.com
Sala de Lectura Pública de Saelices,382,16004923955,BIBLIOTECA PÚBLICA MUNICIPAL DE SAELICES,"Plaza Pública, 1",16430,Saelices,Cuenca,969132128,bpmsaelices@yahoo.es
Biblioteca Pública Municipal de San Clemente,384,16005053956,BIBLIOTECA PÚBLICA MUNICIPAL,"Plaza Mayor, 12",16600,San Clemente,Cuenca,969300003,biblioteca@sanclemente.es
Biblioteca Pública Municipal de San Lorenzo de La Parrilla,385,16005123957,BIBLIOTECA PÚBLICA MUNICIPAL DE SAN LORENZO DE LA PARRILLA,Damas,16770,San Lorenzo de la Parrilla,Cuenca,969296925,biblioparrilla@gmail.com
Biblioteca Pública Municipal de Santa Cruz de Moya,764,16011596282,BIBLIOTECA PÚBLICA MUNICIPAL DE SANTA CRUZ DE MOYA,"Plaza Mayor, 1",16336,Santa Cruz de Moya,Cuenca,617333506,bibliostacruzdemoya@hotmail.com
Sala de Lectura Pública de Santa María de los Llanos,386,16005273958,BIBLIOTECA PÚBLICA MUNICIPAL DE SANTA MARÍA DE LOS LLANOS,"Carreterilla, 53",16639,Santa María de los Llanos,Cuenca,969137276,biblioteca_santamaria@hotmail.com
Biblioteca Pública Municipal de Santa María del Campo Rus,387,16008743987,BIBLIOTECA PÚBLICA MUNICIPAL DE SANTA MARÍA DEL CAMPO RUS,"Plaza de Carlos Patiño, 1",16621,Santa María del Campo Rus,Cuenca,969196047,PALMIRAhm3@hotmail.com
Biblioteca Pública Municipal Herminio Sanz (Sisante),388,16005333959,BIBLIOTECA PÚBLICA MUNICIPAL DE SISANTE,"Juan Carlos I, 1",16700,Sisante,Cuenca,969387542,biblioteca@sisante.net
Bibliotecas dependientes del Ayuntamiento de Sotorribas,766,16011621259,BIBLIOTECA PÚBLICA MUNICIPAL DE RIBAGORDA,Cuenca,16143,Sotorribas,Cuenca,969288982,bpmsotos@yahoo.es
Bibliotecas dependientes del Ayuntamiento de Sotorribas,765,16011626621,BIBLIOTECA PÚBLICA MUNICIPAL DE SOTOS,"Herreros, 9",16143,Sotorribas,Cuenca,969288982,bpmsotos@yahoo.es
Biblioteca Pública Municipal de Talayuelas,389,16005483960,BIBLIOTECA PÚBLICA MUNICIPAL DE TALAYUELAS,"Obispo Almonacid, 9",16320,Talayuelas,Cuenca,969363280,bpmtalayuelas@gmail.com
Biblioteca Pública Municipal de Tarancón,390,16005513961,BIBLIOTECA PÚBLICA MUNICIPAL DE TARANCÓN,"San Isidro, s/n",16400,Tarancón,Cuenca,969322446,biblioteca_luisrius@tarancon.es
Biblioteca Pública Municipal de Tébar,829,16007233977,BIBLIOTECA PÚBLICA MUNICIPAL DE TÉBAR,"Escuelas, s/n",16710,Tébar,Cuenca,969381076,bibliotecatebar@gmail.com
Biblioteca Pública Municipal de Torrubia del Campo,392,16011844008,BIBLIOTECA PÚBLICA MUNICIPAL DE TORRUBIA DEL CAMPO,"Cara de Dios, s/n",16413,Torrubia del Campo,Cuenca,969134082,maricarmendelicado@yahoo.es
Biblioteca Pública Municipal de Tragacete,393,16005643962,BIBLIOTECA PÚBLICA MUNICIPAL DE TRAGACETE,"Santisima Trinidad, 9",16150,Tragacete,Cuenca,969289230,bibliotragacete@hotmail.com
Biblioteca Pública Municipal de Uclés,842,16012956440,BIBLIOTECA PÚBLICA MUNICIPAL DE UCLÉS,"Trinidad, 13",16452,Uclés,Cuenca,969136062,biblioteca@ucles.es
Biblioteca Pública Municipal de Las Valeras,394,16007393978,BIBLIOTECA PÚBLICA MUNICIPAL DE LAS VALERAS,"Samuel Baltes, 2",16120,Valeras (Las),Cuenca,969208001,bpmvaleradeabajo@outlook.com
Biblioteca Pública Municipal de Valverde de Júcar,395,16007443979,BIBLIOTECA PÚBLICA MUNICIPAL DE VALVERDE DE JÚCAR,"Señoras De Urionagoena, s/n",16100,Valverde de Júcar,Cuenca,969200441,biblioteca@valverdedejucar.net
Biblioteca Pública Municipal de Vara de Rey,396,16005703963,BIBLIOTECA PÚBLICA MUNICIPAL DE VARA DE REY,"San José, 4",16709,Vara de Rey,Cuenca,969385287,bpleondearroyal@hotmail.com
Biblioteca Pública Municipal de Villaconejos de Trabaque,841,16002243932,BIBLIOTECA PÚBLICA MUNICIPAL DE VILLACONEJOS DE TRABAQUE,"Plaza Prado, 1",16860,Villaconejos de Trabaque,Cuenca,969315686,bibliovillaconejos@gmail.com
Biblioteca Pública Municipal de Villaescusa de Haro,767,16012014010,BIBLIOTECA PÚBLICA MUNICIPAL DE VILLAESCUSA DE HARO,"Plaza San Pedro, 1",16647,Villaescusa de Haro,Cuenca,967168566,bibliovillaescusadeharo@hotmail.com
Biblioteca Pública Municipal de Villagarcía del Llano,398,16008163981,BIBLIOTECA PÚBLICA MUNICIPAL DE VILLAGARCÍA DEL LLANO,"Jose Antonio, 8",16236,Villagarcía del Llano,Cuenca,651388033,Isabelbibli12@hotmail.com
Sala de Lectura Pública de Villalba de La Sierra,399,16012394012,BIBLIOTECA PÚBLICA MUNICIPAL DE VILLALBA DE LA SIERRA,"Cerro Carrascosa, 1",16140,Villalba de la Sierra,Cuenca,969281170,bibliotecavillalba@soluip.com
Biblioteca Pública Municipal de Villalpardo,401,16005993965,BIBLIOTECA PÚBLICA MUNICIPAL DE VILLALPARDO,"San Isidro, 5",16270,Villalpardo,Cuenca,962311302,biblioteca.villalpardo@hotmail.com
Biblioteca Pública Municipal de Villamayor de Santiago,402,16006033966,BIBLIOTECA PÚBLICA MUNICIPAL DE VILLAMAYOR DE SANTIAGO,"Olímpica, 3",16415,Villamayor de Santiago,Cuenca,969139915,biblioteca@villamayordesantiago.es
Biblioteca Pública Municipal de Villanueva de la Jara,403,16006103967,BIBLIOTECA PÚBLICA MUNICIPAL DE VILLANUEVA DE LA JARA,"José María Galiano, 19",16230,Villanueva de la Jara,Cuenca,967498198,bibliojara@gmail.com
Biblioteca Pública Municipal de Villar de Olalla,769,16012604015,BIBLIOTECA PÚBLICA MUNICIPAL DE VILLAR DE OLALLA,"La Plaza, 1",16196,Villar de Olalla,Cuenca,969261405,bpmvillarolalla@gmail.com
Biblioteca Pública Municipal de Villarejo de Fuentes,405,16006253968,BIBLIOTECA PÚBLICA MUNICIPAL DE VILLAREJO DE FUENTES,"Constantino Alhambra, 29, Bajo",16432,Villarejo de Fuentes,Cuenca,969131786,villarejo.biblioteca@gmail.com
Biblioteca Pública Municipal de Villares del Saz,407,16006313969,BIBLIOTECA PÚBLICA MUNICIPAL DE VILLARES DEL SAZ,"Pilar, s/n",16442,Villares del Saz,Cuenca,969298339,bpmvillares@hotmail.com
Biblioteca Pública Municipal de Villarta,408,16006463970,BIBLIOTECA PÚBLICA MUNICIPAL DE VILLARTA,"Colón, 18",16280,Villarta,Cuenca,678541236,bibliotecavillarta@hotmail.com
Biblioteca Pública Municipal de Albalate de Zorita,770,19007056458,BIBLIOTECA PÚBLICA MUNICIPAL DE ALBALATE DE ZORITA,"La Fuente, 40",19117,Albalate de Zorita,Guadalajara,949376571,albateca1@yahoo.es
Biblioteca Municipal de Albares,932,NN849610445,BIBLIOTECA PÚBLICA MUNICIPAL DE ALBARES,"Plaza de la Iglesia, 1",19112,Albares,Guadalajara,949380870,bibliotecapm_albares@hotmail.com
Biblioteca Pública Municipal de Alcoroches,900,NN849110198,BIBLIOTECA PÚBLICA MUNICIPAL DE ALCOROCHES,"Avda. Reina Mª Cristina, 24",19310,Alcoroches,Guadalajara,949836337,biblioalcoroches@hotmail.com
Biblioteca Pública Municipal de Almonacid de Zorita,411,19000224145,BIBLIOTECA PÚBLICA MUNICIPAL DE ALMONACID DE ZORITA,"Pósito, 2",19118,Almonacid de Zorita,Guadalajara,949376201,biblioalmo1@yahoo.es
Biblioteca Pública Municipal de Alovera,412,19006294165,BIBLIOTECA PÚBLICA MUNICIPAL DE ALOVERA,"Avenida Virgen del Carmen, s/n",19208,Alovera,Guadalajara,949270590,biblioteca@aytoalovera.es
Biblioteca Pública Municipal de Alustante,797,19005554163,BIBLIOTECA PÚBLICA MUNICIPAL DE ALUSTANTE,"Iglesia, 1",19320,Alustante,Guadalajara,978714144,bibliotecadealustante@gmail.com
Biblioteca Municipal Almudena Grandes (Azuqueca de Henares),415,19000564146,BIBLIOTECA PÚBLICA MUNICIPAL DE AZUQUECA DE HENARES,"Avda. Francisco Vives, 3",19200,Azuqueca de Henares,Guadalajara,949348467,biblioteca@azuqueca.net
Biblioteca Pública Municipal de Berninches,835,19006354166,BIBLIOTECA PÚBLICA MUNICIPAL DE BERNINCHES,"Plaza Mayor, 1",19133,Berninches,Guadalajara,949284080,bibliofuentelencina@hotmail.com
Biblioteca Pública Municipal de Brihuega,417,19000754147,BIBLIOTECA PÚBLICA MUNICIPAL DE BRIHUEGA,"Margarita de Pedroso, 14",19400,Brihuega,Guadalajara,949280494,bibliotecabrihuega@hotmail.com
Sala de Lectura Pública de Budia,867,19005376454,BIBLIOTECA PÚBLICA MUNICIPAL DE BUDIA,"Eras del lagar, 1",19133,Budia,Guadalajara,949283401,juankzo@yahoo.com
Biblioteca Pública Municipal de Cabanillas del Campo,771,19008314169,BIBLIOTECA PÚBLICA MUNICIPAL DE CABANILLAS DEL CAMPO,"Calle Cuzco, 3",19171,Cabanillas del Campo,Guadalajara,949337601,dbiblio@aytocabanillas.org
Biblioteca Pública Municipal El Casar,419,19000814148,BIBLIOTECA PÚBLICA MUNICIPAL DE EL CASAR,"Avda. de los Maestros, 2",19170,Casar (El),Guadalajara,949336545,biblioteca@ayuntamientoelcasar.es
Biblioteca Pública Municipal de Chiloeches,798,19001154151,BIBLIOTECA PÚBLICA MUNICIPAL DE CHILOECHES,"Reajal, 5",19160,Chiloeches,Guadalajara,949271713,biblioteca_chiloeches@hotmail.com
Biblioteca Pública Municipal de Cifuentes,421,19000944149,BIBLIOTECA PÚBLICA MUNICIPAL DE CIFUENTES,"Plaza San Francisco, s/n",19420,Cifuentes,Guadalajara,949811048,biblioteca@cifuentes.es
Biblioteca Pública Municipal de Gárgoles de Abajo,811,19007486460,BIBLIOTECA PÚBLICA MUNICIPAL DE GARGOLES DE ABAJO,"Plaza Juan Béjar, 1 (Gárgoles de Abajo)",19459,Cifuentes,Guadalajara,949817860,cifuentesgargolesabajo.capi@jccm.es
Biblioteca Pública Municipal de Cogolludo,423,19001084150,BIBLIOTECA PÚBLICA MUNICIPAL DE COGOLLUDO,San Francisco s/n,19230,Cogolludo,Guadalajara,949855228,perugil@yahoo.es
Sala de Lectura Pública de Durón,868,19004026450,BIBLIOTECA PÚBLICA MUNICIPAL DE DURÓN,"Molino, 2",19143,Durón,Guadalajara,949283564,duron@local.jccm.es
Biblioteca Pública Municipal de Espinosa de Henares,886,19000176276,BIBLIOTECA PÚBLICA MUNICIPAL DE ESPINOSA DE HENARES,"Plaza de España, 1",19292,Espinosa de Henares,Guadalajara,949858801,biblioespinosa@hotmail.es
Biblioteca Pública Municipal de Fontanar,800,19005744164,BIBLIOTECA PÚBLICA MUNICIPAL DE FONTANAR,Antonio Machado s/n,19290,Fontanar,Guadalajara,949331535,biblioteca@aytofontanar.es
Biblioteca Pública Municipal de Fuentelencina,836,19001206277,BIBLIOTECA PÚBLICA MUNICIPAL DE FUENTELENCINA,"Plaza Mayor, s/n",19144,Fuentelencina,Guadalajara,949284201,bibliofuentelencina@hotmail.com
Biblioteca Pública Municipal de Fuentenovilla,862,19004306451,BIBLIOTECA PÚBLICA MUNICIPAL,"Plaza Mayor, 1",19113,Fuentenovilla,Guadalajara,949389708,fuentenovillabiblioteca@gmail.com
Biblioteca Pública Municipal de Galápagos,817,19006916457,BIBLIOTECA PÚBLICA MUNICIPAL DE GALÁPAGOS,"Calle del Olmo, s/n",19174,Galápagos,Guadalajara,949318084,biblioteca@galapagos.es
Biblioteca Pública del Estado en Guadalajara,440,19002524152,BIBLIOTECA PÚBLICA DEL ESTADO EN GUADALAJARA,"Plaza de Dávalos, s/n",19001,Guadalajara,Guadalajara,949885225,bpgu@jccm.es
"Sección del Libro, Archivos y Bibliotecas. Central Bibliobús",912,19009777047,BIBLIOBÚS 3 - SIERRA NORTE,"Juan Bautista Topete, 1-3",19001,Guadalajara,Guadalajara,648224151,bibliobussierranorte3@jccm.es
"Sección del Libro, Archivos y Bibliotecas. Central Bibliobús",911,19009777046,BIBLIOBÚS 2 - SIERRA-ALCARRIA,"Juan Bautista Topete, 1-3",19001,Guadalajara,Guadalajara,648224116,bibliobussierraalcarria2@jccm.es
Biblioteca Pública Municipal de Horche,726,19007126459,BIBLIOTECA PÚBLICA MUNICIPAL DE HORCHE,"Antonio Buero Vallejo, 5",19140,Horche,Guadalajara,949291167,bibliotecadehorche@yahoo.es
Biblioteca Pública Municipal de Humanes,465,19003634153,BIBLIOTECA PÚBLICA MUNICIPAL DE HUMANES,"Juan Francisco Martínez Catalina, nº 8 F",19220,Humanes,Guadalajara,949850678,bibhumanes@yahoo.es
Biblioteca Pública Municipal de Illana,927,XXXUA190102312893,BIBLIOTECA PÚBLICA MUNICIPAL DE ILLANA,"Eleuterio Revuelta, 3",19119,Illana,Guadalajara,949133001,bibliotecaillana@hotmail.com
Biblioteca Pública Municipal de Jadraque,802,19003794154,BIBLIOTECA PÚBLICA MUNICIPAL DE JADRAQUE,"Carretera de Soria,",19240,Jadraque,Guadalajara,949890257,bibjadraque@yahoo.es
Biblioteca Pública Municipal de Loranca de Tajuña,772,19008624171,BIBLIOTECA PUBLICA MUNICIPAL DE LORANCA DE TAJUÑA,"San Roque, 2",19141,Loranca de Tajuña,Guadalajara,949294639,biblioteca@loranca.org
Biblioteca Pública Municipal de Lupiana,902,NN849310200,BIBLIOTECA PÚBLICA MUNICIPAL DE LUPIANA,"Plaza Mayor, 7",19142,Lupiana,Guadalajara,949291215,bibliotecadelupiana@gmail.com
Biblioteca Pública Municipal de Maranchón,468,19003854155,BIBLIOTECA PÚBLICA MUNICIPAL DE MARANCHÓN,"Plaza de España, 7",19280,Maranchón,Guadalajara,608377081,bibliotecamaranchon@hotmail.com
Biblioteca Pública Municipal de Marchamalo,438,19006534167,BIBLIOTECA PÚBLICA MUNICIPAL DE MARCHAMALO,"Cercado, s/n",19180,Marchamalo,Guadalajara,697163747,biblioteca@marchamalo.com
"Sección del Libro, Archivos y Bibliotecas. Central Bibliobús",913,19009777045,BIBLIOBÚS 1 - SEÑORÍO DE MOLINA Y DUCADO DE MEDINACELLI,"El Carmen, 1",19300,Molina de Aragón,Guadalajara,648224150,bibliobusmolina1@jccm.es
Biblioteca Pública Municipal de Molina de Aragón,469,19003984156,BIBLIOTECA PÚBLICA MUNICIPAL DE MOLINA DE ARAGÓN,D. Antonio López Ayllón-Gaona nº 2,19300,Molina de Aragón,Guadalajara,949832100,bibliomolina@hotmail.com
Biblioteca Pública Municipal de Mondéjar,470,19008844173,BIBLIOTECA PÚBLICA MUNICIPAL DE MONDÉJAR,"Don Fernando Garcia Moreno, s/n",19110,Mondéjar,Guadalajara,949385001,biblioteca@mondejar.org
Biblioteca Pública Municipal de Pastrana,471,19004194157,BIBLIOTECA PÚBLICA MUNICIPAL DE PASTRANA,"San Juan de la Cruz, 2",19100,Pastrana,Guadalajara,949370231,biblioteca@pastrana.org
Biblioteca Pública Municipal de Pioz,903,NN849410201,BIBLIOTECA PÚBLICA MUNICIPAL DE PIOZ,"Camino de las Eras, s/n",19162,Pioz,Guadalajara,949272050,biblioteca.aytopioz@gmail.com
Biblioteca Pública Municipal del Pozo de Guadalajara,813,19009014175,BIBLIOTECA PÚBLICA MUNICIPAL DE POZO DE GUADALAJARA,"Constitución, 3",19161,Pozo de Guadalajara,Guadalajara,949272340,bibliopozo@yahoo.es
Biblioteca Pública Municipal de Quer,935,NN854110498,BIBLIOTECA PÚBLICA MUNICIPAL VILLA DE QUER,"Carretera Torrelaguna, s/n",19209,Quer,Guadalajara,949318758,biblioteca@ayuntamientodequer.es
Biblioteca Pública Municipal de Sacedón,472,19004244158,BIBLIOTECA PÚBLICA MUNICIPAL DE SACEDÓN,"Isaac Peral, 25",19120,Sacedón,Guadalajara,949350397,bibliosacedon02@hotmail.com
Biblioteca Pública Municipal de Sigüenza,476,19004774159,BIBLIOTECA PÚBLICA MUNICIPAL DE SIGÜENZA,"Valencia, 5",19250,Sigüenza,Guadalajara,949390519,biblioteca@siguenza.es
Sala de Lectura Pública de Tendilla,869,19006886456,BIBLIOTECA PÚBLICA MUNICIPAL DE TENDILLA,"Ropería Vieja, 2",19134,Tendilla,Guadalajara,949298230,bibliotecatendilla@outlook.es
Biblioteca Pública Municipal de Torija,773,19009234177,BIBLIOTECA PÚBLICA MUNICIPAL DE TORIJA,Plaza de la Villa,19190,Torija,Guadalajara,949320309,bibliotecatorija@gmail.com
Biblioteca Pública Municipal de Torrejón del Rey,774,19009394178,BIBLIOTECA PÚBLICA MUNICIPAL DULCINEA,"del Perro, s/n",19174,Torrejón del Rey,Guadalajara,949339351,biblioteca@aytotorrejondelrey.com
Biblioteca Pública Municipal de Tórtola de Henares,816,19009444179,BIBLIOTECA PÚBLICA MUNICIPAL DE TÓRTOLA DE HENARES,"Real, s/n",19198,Tórtola de Henares,Guadalajara,949323046,biblioteca.tortola@gmail.com
Sala de Lectura Pública de Trijueque,775,19009574180,BIBLIOTECA PÚBLICA MUNICIPAL DE TRIJUEQUE,"Plaza Mayor, s/n",19192,Trijueque,Guadalajara,949320291,bibliotecadetrijueque@gmail.com
Biblioteca Pública Municipal de Trillo,478,19004964160,BIBLIOTECA PÚBLICA MUNICIPAL DE TRILLO,"Enmedio, 1, 2ª planta",19450,Trillo,Guadalajara,949815599,bibliotecatrillo@hotmail.com
Bibliotecas dependientes del Ayuntamiento de Uceda,814,19003046283,BIBLIOTECA PÚBLICA MUNICIPAL DE UCEDA,"Plaza Mayor, 15",19187,Uceda,Guadalajara,949856075,bibliouceda@gmail.com
Bibliotecas dependientes del Ayuntamiento de Uceda,896,19003048387,BIBLIOTECA BARRIO CARAQUIZ DE UCEDA,"Jaralón, s/n",19188,Uceda,Guadalajara,949859861,bpmcaraquiz@gmail.com
Biblioteca Pública Municipal de Villanueva de La Torre,815,19007516461,BIBLIOTECA PÚBLICA MUNICIPAL DE VILLANUEVA DE LA TORRE,"Ctra. de Azuqueca a Valdeavero, Km. 3.300, Envios a Mayor, s/n",19209,Villanueva de la Torre,Guadalajara,949266151,biblioteca@villanuevadelatorre.es
Bibliotecas dependientes del Ayuntamiento de Yebes,945,NN932912332,BIBLIOTECA PÚBLICA MUNICIPAL DE VALDELUZ,"Asteroide Yebes s/n,  Urbanización Valdeluz",19139,Yebes,Guadalajara,949205384,biblioteca@yebes.es
Bibliotecas dependientes del Ayuntamiento de Yebes,944,NN932912331,BIBLIOTECA PÚBLICA MUNICIPAL DE YEBES,"Plaza Mayor, 1",19141,Yebes,Guadalajara,949293816,biblioteca@yebes.es
Biblioteca Pública Municipal de Yunquera de Henares,482,19005424162,BIBLIOTECA PÚBLICA MUNICIPAL DE YUNQUERA DE HENARES,"Plaza Mayor, s/n",19210,Yunquera de Henares,Guadalajara,949330393,biblioyunquera@yahoo.es
Biblioteca Pública Municipal de Ajofrín,483,45010985537,BIBLIOTECA PÚBLICA MUNICIPAL DE AJOFRÍN,"Plaza de las Monjas, 7",45110,Ajofrín,Toledo,925390688,bpm-ajofrin@local.jccm.es
Biblioteca Pública Municipal de Alameda de La Sagra,484,45014875561,BIBLIOTECA PÚBLICA MUNICIPAL DE ALAMEDA DE LA SAGRA,"Francisco de Quevedo, 2",45240,Alameda de la Sagra,Toledo,925500218,biblioteca@alamedadelasagra.es
Sala de Lectura Pública de Alcabón,485,45000125468,BIBLIOTECA PÚBLICA MUNICIPAL DE ALCABÓN,"Plaza de España, 1",45523,Alcabón,Toledo,925779480,bpm.alcabon@gmail.com
Biblioteca Pública Municipal de Alcaudete de La Jara,486,45000275469,BIBLIOTECA PÚBLICA MUNICIPAL DE ALCAUDETE DE LA JARA,"Fragua del Concejo, s/n",45662,Alcaudete de la Jara,Toledo,925853003,ayuntamiento@alcaudetedelajara.es
Biblioteca Pública Municipal de Almorox,489,45000335470,BIBLIOTECA PÚBLICA MUNICIPAL DE ALMOROX,"Don Felipe Vázquez, s/n",45900,Almorox,Toledo,918623002,marianoleon.delprado@edu.jccm.es
Biblioteca Pública Municipal de Añover de Tajo,490,45000485471,BIBLIOTECA PÚBLICA MUNICIPAL DE AÑOVER DE TAJO,"Canalejas, 2",45250,Añover de Tajo,Toledo,925506740,biblioteca@anoverdetajo.es
Biblioteca Pública Municipal de Arcicóllar,777,45022745587,BIBLIOTECA PÚBLICA MUNICIPAL DE ARCICÓLLAR,"Cervantes, 8",45182,Arcicóllar,Toledo,925350810,bpmarcicollar@hotmail.com
Biblioteca Pública Municipal de Argés,491,45011195538,BIBLIOTECA PÚBLICA MUNICIPAL DE ARGÉS,"La iglesia, 2",45122,Argés,Toledo,925293504,biblioarges@hotmail.com
Biblioteca Pública Municipal de Bargas,493,45000515472,BIBLIOTECA PÚBLICA MUNICIPAL DE BARGAS,"Barrio Alto, 9",45593,Bargas,Toledo,925493462,biblioteca@bargas.es
Biblioteca Pública Municipal de Belvís de La Jara,494,45000645473,BIBLIOTECA PÚBLICA MUNICIPAL DE BELVÍS DE LA JARA,"Bailen, s/n",45660,Belvís de la Jara,Toledo,925858580,bibliotecabelvis@hotmail.com
Biblioteca Pública Municipal de Borox,495,45011245539,BIBLIOTECA PÚBLICA MUNICIPAL DE BOROX,"Piedad Colón, 40",45222,Borox,Toledo,925548304,bibliotecaborox@yahoo.es
Sala de Lectura Pública de Buenaventura,496,45011455540,BIBLIOTECA PÚBLICA MUNICIPAL DE BUENAVENTURA,"Sartajada, 10",45634,Buenaventura,Toledo,925875044,bibliobuenaventura@gmail.com
Biblioteca Pública Municipal de Burguillos,497,45000705474,BIBLIOTECA PÚBLICA MUNICIPAL DE BURGUILLOS DE TOLEDO,"Carretera de Ciudad Real, 34",45112,Burguillos de Toledo,Toledo,925393912,biblioteca@burguillosdetoledo.org
Biblioteca Pública Municipal de Burujón,498,45016395570,BIBLIOTECA PÚBLICA MUNICIPAL DE BURUJÓN,"Soledad, s/n",45521,Burujón,Toledo,925756219,bibliotecadeburujon@hotmail.com
Biblioteca Publica Municipal de Cabañas de La Sagra,499,45003935588,BIBLIOTECA PÚBLICA MUNICIPAL DE CABAÑAS DE LA SAGRA,"Ronda, s/n",45592,Cabañas de la Sagra,Toledo,925355911,mariam_pm@hotmail.com
Biblioteca Pública Municipal de Cabezamesada,501,45015035563,BIBLIOTECA PÚBLICA MUNICIPAL DE CABEZAMESADA,"Aurora, 6",45890,Cabezamesada,Toledo,925209134,aytocabezamesada@telefonica.net
Biblioteca Pública Municipal de Calera y Chozas,502,45000865475,BIBLIOTECA PÚBLICA MUNICIPAL DE CALERA Y CHOZAS,"Estación, 2",45686,Calera y Chozas,Toledo,925050157,biblioteca@caleraychozas.com
Biblioteca Pública Municipal de Alberche del Caudillo,503,45022555585,BIBLIOTECA PÚBLICA MUNICIPAL DE ALBERCHE DEL CAUDILLO,"Ronda de la Vega, s/n",45695,Calera y Chozas,Toledo,617937318,bibliotecadealberche@yahoo.es
Biblioteca Pública Municipal de La Calzada de Oropesa,504,45022935589,BIBLIOTECA PÚBLICA MUNICIPAL DE LA CALZADA DE OROPESA,"Ildefonso Carretero, 2",45580,Calzada de Oropesa,Toledo,925435980,bibliolacalzada@gmail.com
Biblioteca Pública Municipal de Camarena,505,45015105564,BIBLIOTECA PÚBLICA MUNICIPAL DE CAMARENA,"de la salud, 1",45180,Camarena,Toledo,918174252,bpm.camarena@yahoo.es
Biblioteca Pública Municipal de Camarenilla,843,45009496465,BIBLIOTECA PÚBLICA MUNICIPAL DE CAMARENILLA,"Principe de Asturias, 2",45181,Camarenilla,Toledo,925359200,registro@aytocamarenilla.org
Biblioteca Pública Municipal de Camuñas,506,45000995476,BIBLIOTECA PÚBLICA MUNICIPAL DE CAMUÑAS,"Veracruz, 5",45720,Camuñas,Toledo,925469162,mroperogalan@gmail.com
Sala de Lectura Pública de Carmena,778,45023075590,BIBLIOTECA PÚBLICA MUNICIPAL DE CARMENA,"La Iglesia, s/n",45531,Carmena,Toledo,653427661,ayto.erustes@gmail.com
Biblioteca Pública Municipal de El Carpio de Tajo,507,45001035477,BIBLIOTECA PÚBLICA MUNICIPAL DE EL CARPIO DE TAJO,"Don Ignacio, 2",45533,Carpio de Tajo (El),Toledo,925757204,bpmcarpio@hotmail.com
Biblioteca Pública Municipal de Carranque,779,45023145591,BIBLIOTECA PÚBLICA MUNICIPAL DE CARRANQUE,"Plaza de las Eras, 5",45216,Carranque,Toledo,925544065,biblioteca@carranque.es
Bibliotecas dependientes del Ayuntamiento de Casarrubios del Monte,509,45011615541,BIBLIOTECA PÚBLICA MUNICIPAL DE CASARRUBIOS DEL MONTE,"Plaza de España, 28",45950,Casarrubios del Monte,Toledo,918182678,bpmcasarrubios@yahoo.es
Bibliotecas dependientes del Ayuntamiento de Casarrubios del Monte,907,45011618388,BIBLIOTECA PÚBLICA MUNICIPAL DE CALYPO-FADO,"Almería, 459 (Urbanización Calypo-Fado)",45950,Casarrubios del Monte,Toledo,918132150,bpmcasarrubios@yahoo.es
Biblioteca Pública Municipal de Castillo de Bayuela,511,45023295592,BIBLIOTECA PÚBLICA MUNICIPAL DE CASTILLO DE BAYUELA,C/ Deportivo,45641,Castillo de Bayuela,Toledo,925862953,bpmbayuela@hotmail.com
Biblioteca Pública Municipal de Cebolla,512,45001105478,BIBLIOTECA PÚBLICA MUNICIPAL DE CEBOLLA,"Calle Malpica, 12",45680,Cebolla,Toledo,925866556,bpmcebolla@hotmail.com
Biblioteca Pública Municipal de Cedillo del Condado,858,45001626196,BIBLIOTECA PÚBLICA MUNICIPAL DE CEDILLO DEL CONDADO,"Marqués de Estella, s.n.",45214,Cedillo del Condado,Toledo,925508818,biblioteca@cedillodelcondado.es
Biblioteca Pública Municipal de Los Cerralbos,781,45023355593,BIBLIOTECA PÚBLICA MUNICIPAL DE LOS CERRALBOS,"Iglesia, s/n",45682,Cerralbos (Los),Toledo,925872061,fachi6868@gmail.com
Sala de Lectura Pública de Cervera de Los Montes,780,45023405594,BIBLIOTECA PÚBLICA MUNICIPAL DE CERVERA DE LOS MONTES,"Costanilla, 1",45637,Cervera de los Montes,Toledo,925875599,bpmcervera@gmail.com
Biblioteca Pública Municipal de Chozas de Canales,513,45001465481,BIBLIOTECA PÚBLICA MUNICIPAL DE CHOZAS DE CANALES,"Fray Miguel de Antón, s/n (casa de la cultura 1ªpl)",45960,Chozas de Canales,Toledo,918177788,chozascanales.capi@jccm.es
Biblioteca Pública Municipal de Ciruelos,787,45023535595,BIBLIOTECA PÚBLICA MUNICIPAL DE CIRUELOS,"Plaza de España, 4",45314,Ciruelos,Toledo,925154935,biblioteca.ciruelos@yahoo.es
Biblioteca Pública Municipal de Cobeja,514,45023665596,BIBLIOTECA PÚBLICA MUNICIPAL DE COBEJA,"Plaza de la Constitución, 10",45291,Cobeja,Toledo,925551940,bibliocobeja4@hotmail.com
Biblioteca Pública Municipal de Cobisa,515,45016445571,BIBLIOTECA PÚBLICA MUNICIPAL DE COBISA,"El Cigarral, 1",45111,Cobisa,Toledo,925293568,martalarri@gmail.com
Biblioteca Pública Municipal de Consuegra,516,45001255479,BIBLIOTECA PÚBLICA MUNICIPAL DE CONSUEGRA,"Reyes Católicos, 4",45700,Consuegra,Toledo,925904696,biblioteca@aytoconsuegra.es
Biblioteca Pública Municipal de Corral de Almaguer,517,45001315480,BIBLIOTECA PÚBLICA MUNICIPAL DE CORRAL DE ALMAGUER,"Alcacer, s/n",45880,Corral de Almaguer,Toledo,925207197,biblioteca@corraldealmaguer.es
Biblioteca Pública Municipal de Cuerva,518,45017935581,BIBLIOTECA PÚBLICA MUNICIPAL DE CUERVA,"Plaza de José Antonio, 1",45126,Cuerva,Toledo,925424528,tejise@hotmail.com
Biblioteca Pública Municipal de Dosbarrios,520,45023725597,BIBLIOTECA PÚBLICA MUNICIPAL DE DOSBARRIOS,"Las Cruces, 6",45311,Dosbarrios,Toledo,925137525,bibliodosbarrios@hotmail.com
Sala de Lectura Pública de Erustes,521,45016605573,BIBLIOTECA PÚBLICA MUNICIPAL DE ERUSTES,"Paseo Miguel de Cervantes, 4",45540,Erustes,Toledo,925880032,ayto.erustes@gmail.com
Biblioteca Pública Municipal de Escalona,522,NN481110442,BIBLIOTECA PÚBLICA MUNICIPAL DE ESCALONA,"Plaza Infante Don Juan Manuel, 1",45910,Escalona,Toledo,925780436,bpmescalona@hotmail.com
Biblioteca Pública Municipal de Escalonilla,523,45011965542,BIBLIOTECA PÚBLICA MUNICIPAL DE ESCALONILLA,"Plaza de la Hispanidad, 2",45517,Escalonilla,Toledo,925758617,biblio@aytoescalonilla.com
Biblioteca Pública Municipal de Esquivias,525,45015255565,BIBLIOTECA PÚBLICA MUNICIPAL DE ESQUIVIAS,"Teresa Panza, s/n",45221,Esquivias,Toledo,925546558,biblioteca@aytoesquivias.es
Biblioteca Pública Municipal de Fuensalida,526,45001785482,BIBLIOTECA PÚBLICA MUNICIPAL DE FUENSALIDA,"C/ Nuestra Señora de la Soledad, 4",45510,Fuensalida,Toledo,925731080,biblioteca@fuensalida.com
Biblioteca Pública Municipal de Gerindote,528,45023915599,BIBLIOTECA PÚBLICA MUNICIPAL DE GERINDOTE,"Plaza de España, s/n",45518,Gerindote,Toledo,925764088,bibliotecagerindote@gmail.com
Biblioteca Pública Municipal de Guadamur,529,45001845483,BIBLIOTECA PÚBLICA MUNICIPAL DE GUADAMUR,"Andrés Hornillos, 5",45160,Guadamur,Toledo,925291130,biblioteca@guadamur.es
Biblioteca Pública Municipal de La Guardia,530,45001975484,BIBLIOTECA PÚBLICA MUNICIPAL DE LA GUARDIA,"Glorieta de Tullerías, 6",45760,Guardia (La),Toledo,925138281,biblioteca@laguardiatoledo.es
Biblioteca Pública Municipal de Hinojosa de San Vicente,533,45018355582,BIBLIOTECA PÚBLICA MUNICIPAL DE HINOJOSA DE SAN VICENTE,"Plaza de la Constitución, s/n",45645,Hinojosa de San Vicente,Toledo,925878032,bpmhinojosa@hotmail.com
Biblioteca Pública Municipal de Huecas,534,45016825575,BIBLIOTECA PÚBLICA MUNICIPAL DE HUECAS,"Plaza de España, 1",45511,Huecas,Toledo,925784781,bobliotecahuecas@outlook.com
Biblioteca Pública Municipal de Huerta de Valdecarábanos,535,45016765574,BIBLIOTECA PÚBLICA MUNICIPAL DE HUERTA DE VALDECARÁBANOS,"Gato, 8",45750,Huerta de Valdecarábanos,Toledo,925129071,clabphuerta@gmail.com
Red de Bibliotecas Públicas Municipales de Illescas,950,45081000800,BIBLIOTECA PÚBLICA MUNICIPAL SEÑORÍO DE ILLESCAS,"Antonio Skármeta, s/n",45200,Illescas,Toledo,630143397,bibliotecasenorio@illescas.es
Red de Bibliotecas Públicas Municipales de Illescas,537,45002015485,BIBLIOTECA PÚBLICA MUNICIPAL DE ILLESCAS,"Real, 86",45200,Illescas,Toledo,925512108,biblioteca@illescas.es
Biblioteca Pública Municipal de Lagartera,538,45002185486,BIBLIOTECA PÚBLICA MUNICIPAL DE LAGARTERA,"Alcalde Ramón Moreno, /n",45567,Lagartera,Toledo,925431096,biblioteca@lagartera.es
Biblioteca Pública Municipal de Lillo,539,45002235487,BIBLIOTECA PÚBLICA MUNICIPAL DE LILLO,"Mª Antonia de la Maza, 18",45870,Lillo,Toledo,925562321,desarrollo@aytodelillo.es
Biblioteca Pública Municipal de Lominchar,788,45024125601,BIBLIOTECA PÚBLICA MUNICIPAL DE LOMINCHAR,"Cambroneras, 40",45212,Lominchar,Toledo,925558553,biblioteca.lominchar@gmail.com
Biblioteca Pública Municipal de Lucillos,540,45012225544,BIBLIOTECA PÚBLICA MUNICIPAL DE LUCILLOS,"Héroes del Alcazar, s/n",45684,Lucillos,Toledo,925865245,bpmlucillos@hotmail.com
Biblioteca Pública Municipal de Madridejos,541,45002395488,BIBLIOTECA PÚBLICA MUNICIPAL DE MADRIDEJOS,"Argentina, 4",45710,Madridejos,Toledo,925460016,biblioteca@madridejos.es
Biblioteca Pública Municipal de Magán,897,45006026279,BIBLIOTECA PÚBLICA MUNICIPAL DE MAGÁN,"Merced, 7",45590,Magán,Toledo,925270931,bibliomagan@gmail.com
Biblioteca Pública Municipal de Malpica de Tajo,542,45002445489,BIBLIOTECA PÚBLICA MUNICIPAL DE MALPICA DE TAJO,"Escuelas, 11",45692,Malpica de Tajo,Toledo,925877006,bpmmalpica@hotmail.com
Sala de Lectura Pública de Maqueda,543,45024275602,BIBLIOTECA PÚBLICA MUNICIPAL DE MAQUEDA,"Torre, 1",45515,Maqueda,Toledo,925790001,maqueda@diputoledo.es
Biblioteca Pública Municipal de Mascaraque,546,45002605490,BIBLIOTECA PÚBLICA MUNICIPAL DE MASCARAQUE,"Jesús, 3",45430,Mascaraque,Toledo,925316018,bibliotecademascaraque@hotmail.com
Sala de Lectura Pública de La Mata,547,45016955576,BIBLIOTECA PÚBLICA MUNICIPAL DE LA MATA,"Lepanto, 1",45534,Mata (La),Toledo,925747191,ayto.erustes@gmail.com
Biblioteca Pública Municipal de Mazarambroz,548,45002765491,BIBLIOTECA PÚBLICA MUNICIPAL DE MAZARAMBROZ,"Vereda de la Gitana, 1",45114,Mazarambroz,Toledo,925397242,culturamazarambroz@gmail.com
Sala de Lectura Pública de Mejorada,549,45002825492,BIBLIOTECA PÚBLICA MUNICIPAL DE MEJORADA,Iglesia s/n,45622,Mejorada,Toledo,925707179,bibliotecamejorada@hotmail.com
Biblioteca Publica Municipal de Menasalbas,551,45017095583,BIBLIOTECA PÚBLICA MUNICIPAL DE MENASALBAS,"Donantes de Sangre, 1",45128,Menasalbas,Toledo,925413373,bibliomena@menasalbas.es
Biblioteca Pública Municipal de Méntrida,552,45024485603,BIBLIOTECA PÚBLICA MUNICIPAL DE MÉNTRIDA,"Baluarte, s/n",45930,Méntrida,Toledo,918178473,bibliomentrida@hotmail.com
Biblioteca Pública Municipal de Miguel Esteban,553,45003095493,BIBLIOTECA PÚBLICA MUNICIPAL DE MIGUEL ESTEBAN,"San Luis Gonzaga, 2",45830,Miguel Esteban,Toledo,925560606,biblioteca@aytomiguelesteban.es
Biblioteca Pública Municipal de Mocejón,554,45003165494,BIBLIOTECA PÚBLICA MUNICIPAL DE MOCEJÓN,"Silvano Cirujano, 2",45270,Mocejón,Toledo,925360641,biblioteca@mocejon.es
Biblioteca Pública Municipal de Montearagón,782,45024515604,BIBLIOTECA PÚBLICA MUNICIPAL DE MONTEARAGÓN,"Arroyo, 14",45685,Montearagón,Toledo,608771205,bibliotecademontearagon@hotmail.com
Biblioteca Pública Municipal de Mora,555,45003215495,BIBLIOTECA PÚBLICA MUNICIPAL DE MORA,"Glorieta José Iborra, s/n",45400,Mora,Toledo,925341107,biblioteca@mora.es
Biblioteca Pública Municipal de Nambroca,556,45003375496,BIBLIOTECA PÚBLICA MUNICIPAL DE NAMBROCA,"Doctor Díaz Benito, 2",45190,Nambroca,Toledo,925366142,biblioteca@nambroca.com
Biblioteca Pública Municipal de Navahermosa,558,45003425497,BIBLIOTECA PÚBLICA MUNICIPAL DE NAVAHERMOSA,"Miguel de Unamuno, 1",45150,Navahermosa,Toledo,925410981,archivo-biblioteca-navahermosa@hotmail.com
Sala de Lectura Pública de Navalcán,559,45003555498,BIBLIOTECA PÚBLICA MUNICIPAL DE NAVALCÁN,"Conde de Oropesa, 92",45610,Navalcán,Toledo,925844259,ayuntamiento@navalcan.com
Biblioteca Pública Municipal de Los Navalmorales,560,45003685499,BIBLIOTECA PÚBLICA MUNICIPAL DE LOS NAVALMORALES,"Antonio Palomeque Torres, 2",45140,Navalmorales (Los),Toledo,925404242,biblioteca@losnavalmorales.es
Biblioteca Pública Municipal de Los Navalucillos,561,45003745500,BIBLIOTECA PÚBLICA MUNICIPAL DE LOS NAVALUCILLOS,"Plaza del Encinar, s/n",45130,Navalucillos (Los),Toledo,925426816,anyps2@hotmail.com
Biblioteca Pública Municipal de Noblejas,563,45024865607,BIBLIOTECA PÚBLICA MUNICIPAL DE NOBLEJAS,"Plaza José Bono, 1",45350,Noblejas,Toledo,925114303,bpmnoblejas@gmail.com
Biblioteca Pública Municipal de Noez,564,45015595566,BIBLIOTECA PÚBLICA MUNICIPAL DE NOEZ,"Hopital, 12",45162,Noez,Toledo,925374449,bibliotecanoez@gmail.com
Biblioteca Pública Municipal de Novés,566,45004145502,BIBLIOTECA PÚBLICA MUNICIPAL DE NOVÉS,"Cristo, s/n",45519,Novés,Toledo,925775303,biblioteca@noves.es
Biblioteca Pública Municipal de Numancia de La Sagra,567,45024995608,BIBLIOTECA PÚBLICA MUNICIPAL DE NUMANCIA DE LA SAGRA,"Plaza de España, s/n",45230,Numancia de la Sagra,Toledo,925553984,biblionum@hotmail.com
Biblioteca Pública Municipal de Ocaña,568,45004295503,BIBLIOTECA PÚBLICA MUNICIPAL DE OCAÑA,"Roberto García Ochoa, 3",45300,Ocaña,Toledo,925120945,biblioteca@ocana.es
Biblioteca Pública Municipal de Olías del Rey,571,45017165578,BIBLIOTECA PÚBLICA MUNICIPAL DE OLÍAS DEL REY,"Higares, s/n",45280,Olías del Rey,Toledo,925491298,biblioteca@aytoolias.es
Biblioteca Pública Municipal de Ontígola,792,45025025609,BIBLIOTECA PÚBLICA MUNICIPAL DE ONTÍGOLA,"Campo, 1",45340,Ontígola,Toledo,925142168,biblioteca@ontigola.es
Biblioteca Pública Municipal de Orgaz,572,45012385545,BIBLIOTECA PÚBLICA MUNICIPAL DE ORGAZ,"Beato Pedro Ruiz de los Paños, 9",45450,Orgaz,Toledo,925317238,bpm.orgaz@local.jccm.es
Biblioteca Pública Municipal de Oropesa,573,45004405505,BIBLIOTECA PÚBLICA MUNICIPAL DE OROPESA,"Campo Arañuelo, 2",45560,Oropesa,Toledo,925450218,biblioteca.oropesa@hotmail.com
Biblioteca Pública Municipal de Palomeque,939,450271411198,BIBLIOTECA PÚBLICA MUNICIPAL DE PALOMEQUE,"Castilla La Mancha , 66",45213,Palomeque,Toledo,925507245,bibliotecapalomeque@gmail.com
Biblioteca Pública Municipal de Pantoja,575,45012435546,BIBLIOTECA PÚBLICA MUNICIPAL DE PANTOJA,"Ramón J. Pueo, s/n",45290,Pantoja,Toledo,925554348,bibliotecapantoja@hotmail.com
Biblioteca Pública Municipal de Pepino,578,45004665507,BIBLIOTECA PÚBLICA MUNICIPAL DE PEPINO,"Plaza del Ayuntamiento, 1",45638,Pepino,Toledo,925701762,bpmpepino@gmail.com
Biblioteca Pública Municipal de Polán,579,45004725508,BIBLIOTECA PÚBLICA MUNICIPAL DE POLÁN,"Pósito, 1",45161,Polán,Toledo,925370178,bpm.polan@jccm.es
Biblioteca Pública Municipal de Portillo,580,45004885509,BIBLIOTECA PÚBLICA MUNICIPAL DE PORTILLO,"Jardines, s/n",45512,Portillo de Toledo,Toledo,925730866,bibliotecadeportillodetoledo@gmail.com
Biblioteca Pública Municipal de La Puebla de Almoradiel,581,45004915510,BIBLIOTECA PÚBLICA MUNICIPAL DE LA PUEBLA DE ALMORADIEL,"Garcilaso de la Vega, s/n",45840,Puebla de Almoradiel (La),Toledo,925561000,biblioteca@lapuebladealmoradiel.es
Biblioteca Pública Municipal Cardenal Pacheco (La Puebla de Montalbán),583,45005045511,BIBLIOTECA PÚBLICA MUNICIPAL DE LA PUEBLA DE MONTALBÁN,"Santo y Soledad, s/n",45516,Puebla de Montalbán (La),Toledo,925745635,biblioteca@pueblademontalban.com
Biblioteca Pública Municipal de La Pueblanueva,586,45017215579,BIBLIOTECA PÚBLICA MUNICIPAL DE LA PUEBLANUEVA,"Plaza de la Ermita, 5. 2º",45690,Pueblanueva (La),Toledo,925860668,biblioteca@lapueblanueva.com
Biblioteca Pública Municipal de Pulgar,588,45005265513,BIBLIOTECA PÚBLICA MUNICIPAL DE PULGAR,"Fuentecilla, s/n",45125,Pulgar,Toledo,925292445,bpmdepulgar@hotmail.com
Biblioteca Pública Municipal de Quero,589,45012695547,BIBLIOTECA PÚBLICA MUNICIPAL DE QUERO,"Real el Pozo, 1",45790,Quero,Toledo,926577271,biblioteca@quero.es
Biblioteca Pública Municipal de Quintanar de la Orden,590,45005325514,BIBLIOTECA PÚBLICA MUNICIPAL DE QUINTANAR DE LA ORDEN `LEER Y SOÑAR´,"Glorieta de la Cultura, 1",45800,Quintanar de la Orden,Toledo,654769310,bpquintanar@yahoo.es
Biblioteca Pública Municipal de El Real de San Vicente,591,45005475515,BIBLIOTECA PÚBLICA MUNICIPAL DE EL REAL DE SAN VICENTE,"Juan de Dios Díaz, 16",45640,Real de San Vicente (El),Toledo,652064872,gregoriodiazramos@yahoo.es
Biblioteca Pública Municipal de Recas,592,45025195610,BIBLIOTECA PÚBLICA MUNICIPAL DE RECAS,Fuente,45211,Recas,Toledo,925522932,biblioteca@recas.es
Sala de Lectura Pública de Rielves,593,45012755548,BIBLIOTECA PÚBLICA MUNICIPAL DE RIELVES,"La Barca, s/n",45524,Rielves,Toledo,925743519,bibliorielves@gmail.com
Biblioteca Pública Municipal San Martín de Montalbán,595,45005635517,"BIBLIOTECA PÚBLICA MUNICIPAL DE SAN MARTÍN DE MONTALBÁN  ""SANTA MARÍA DE MELQUE""","Villarejo, 16",45165,San Martín de Montalbán,Toledo,0,sanmartinmontalban.capi@jccm.es
Biblioteca Pública Municipal de San Pablo de los Montes,596,45015625567,BIBLIOTECA PÚBLICA MUNICIPAL DE SAN PABLO DE LOS MONTES,"Mártires, 26",45120,San Pablo de los Montes,Toledo,925416256,bibliotecamunicipalsanpablo@gmail.com
Biblioteca Pública Municipal de San Román de Los Montes,861,45001596195,BIBLIOTECA PÚBLICA MUNICIPAL DE SAN ROMÁN DE LOS MONTES,"Eras, 17",45646,San Román de los Montes,Toledo,925888007,biblioteca@sanromandelosmontes.com
Biblioteca Pública Municipal de Santa Cruz de La Zarza,598,45005795518,BIBLIOTECA PÚBLICA MUNICIPAL DE SANTA CRUZ DE LA ZARZA,"Chacón, 26",45370,Santa Cruz de la Zarza,Toledo,925143121,bibliosantacruz@hotmail.com
Biblioteca Pública Municipal de Santa Cruz del Retamar,599,45012945550,BIBLIOTECA PÚBLICA MUNICIPAL DE SANTA CRUZ DEL RETAMAR,"Empedrada,12",45513,Santa Cruz del Retamar,Toledo,925739047,bibliostcruz@gmx.es
Biblioteca Pública Municipal de Santa Olalla,600,45013085551,BIBLIOTECA PÚBLICA MUNICIPAL DE SANTA OLALLA,"Mayor, 17",45530,Santa Olalla,Toledo,925797821,ayuntamiento@santaolalla.es
Biblioteca Pública Municipal de Segurilla,783,45025455612,BIBLIOTECA PÚBLICA MUNICIPAL DE SEGURILLA,"Carretera de Mejorada, 30",45621,Segurilla,Toledo,925890265,bpmsegurilla@hotmail.es
Bibliotecas dependientes del Ayuntamiento de Seseña,601,45025586933,BIBLIOTECA PÚBLICA MUNICIPAL DE SESEÑA,"Comuneros de Castilla, s/n",45223,Seseña,Toledo,918089866,biblioteca@ayto-sesena.org
Bibliotecas dependientes del Ayuntamiento de Seseña,821,45025581251,BIBLIOTECA PÚBLICA MUNICIPAL DE SESEÑA NUEVO,"Las Salinas, s/n",45224,Seseña,Toledo,918936144,biblioteca.sn@ayto-sesena.org
Biblioteca Pública Municipal de Sonseca,603,45005985519,BIBLIOTECA PÚBLICA MUNICIPAL DE SONSECA,"Calle Arroyada, 5",45100,Sonseca,Toledo,925971226,biblioteca@sonseca.es
Bibliotecas dependientes del Ayuntamiento de Talavera de la Reina,922,450062412334,BIBLIOTECA PÚBLICA MUNICIPAL DE TALAVERA DE LA REINA,"Santa Engracia, 38",45600,Talavera de la Reina,Toledo,925820551,bdusantamaria@talavera.org
Bibliotecas dependientes del Ayuntamiento de Talavera de la Reina,921,450062412336,BIBLIOTECA PÚBLICA MUNICIPAL DE TALAVERA DE LA REINA,"San Marcos, 124",45600,Talavera de la Reina,Toledo,925818908,bdupatrocinio@gmail.com
Bibliotecas dependientes del Ayuntamiento de Talavera de la Reina,947,450062412789,BIBLIOTECA PÚBLICA MUNICIPAL DE TALAVERA DE LA REINA,"Plaza de San Andrés, 6",45600,Talavera de la Reina,Toledo,925812908,direccion.bniveiro@talavera.org
Bibliotecas dependientes del Ayuntamiento de Talavera de la Reina,606,45006245520,"BIBLIOTECA PÚBLICA MUNICIPAL DE TALAVERA DE LA REINA ""JOSÉ HIERRO""","Toledo, 37",45600,Talavera de la Reina,Toledo,925813454,direccion.bjh@talavera.org
Biblioteca Pública Municipal de Talavera la Nueva,609,45015845568,BIBLIOTECA PÚBLICA MUNICIPAL DE TALAVERA LA NUEVA,"Ronda del sol, s/n",45694,Talavera de la Reina,Toledo,925850369,bpmtalaveralanueva@gmail.com
Biblioteca Pública Municipal de Tembleque,616,45006615521,BIBLIOTECA PÚBLICA MUNICIPAL DE TEMBLEQUE,"Serna, 1",45780,Tembleque,Toledo,925145595,bibliotecatembleque@hotmail.com
Biblioteca Pública Municipal de El Toboso,617,45006835522,BIBLIOTECA PÚBLICA MUNICIPAL DE EL TOBOSO,"Plaza de la Constitución, 7",45820,Toboso (El),Toledo,925568191,bpm.toboso@jccm.es
Biblioteca de Castilla-La Mancha/Biblioteca Pública del Estado en Toledo,667,45009656932,BIBLIOTECA DE CASTILLA-LA MANCHA / Biblioteca Pública del Estado en Toledo,"de Carlos V, s/n",45001,Toledo,Toledo,925256680,biblioclm@jccm.es
Red de Bibliotecas Públicas Municipales de Toledo,680,45007941250,BIBLIOTECA PÚBLICA MUNICIPAL DE TOLEDO BUENAVISTA,"Avenida de Portugal, s/n",45005,Toledo,Toledo,925330555,bibliobuenavista@toledo.es
Red de Bibliotecas Públicas Municipales de Toledo,670,45007941249,"BIBLIOTECA PÚBLICA MUNICIPAL DE TOLEDO ""SANTA BÁRBARA""","Ciudadano, s/n",45006,Toledo,Toledo,925330565,bibliosantabarbara@toledo.es
Red de Bibliotecas Públicas Municipales de Toledo,665,45007941248,BIBLIOTECA PÚBLICA MUNICIPAL DE TOLEDO,"río Bullaque, 24",45007,Toledo,Toledo,925330336,bibliobenquerencia@toledo.es
Red de Bibliotecas Públicas Municipales de Toledo,664,45007941256,BIBLIOTECA PÚBLICA MUNICIPAL DE AZUCAICA,"de Azucaica, 12",45008,Toledo,Toledo,925330331,biblioazucaica@toledo.es
"Sección del Libro, Archivos y Bibliotecas. Central Bibliobús",663,45026707048,BIBLIOBÚS A - ZONA LA SAGRA / TORRIJOS,"Avda. de Europa, 26 1ª planta",45071,Toledo,Toledo,680220954,bibliobussagra1@jccm.es
"Sección del Libro, Archivos y Bibliotecas. Central Bibliobús",52,45026707049,BIBLIOBÚS B - ZONA TALAVERA DE LA REINA,"Avda. de Europa, 26, 1ª planta",45071,Toledo,Toledo,680220956,bibliobustalavera2@jccm.es
Biblioteca Pública Municipal de La Torre de Esteban Hambrán,682,45025965613,BIBLIOTECA PÚBLICA MUNICIPAL DE TORRE DE ESTEBAN HAMBRÁN,"Plaza Manuel García Martín, s/n",45920,Torre de Esteban Hambrán (La),Toledo,925795664,bibliotecatorre@telefonica.net
Biblioteca Pública Municipal de Torrijos,684,45009875526,BIBLIOTECA PÚBLICA MUNICIPAL DE TORRIJOS,"Plaza de San Gil, 7",45500,Torrijos,Toledo,925770801,biblioteca@torrijos.es
Biblioteca Pública Municipal de Totanés,784,45026175614,BIBLIOTECA PÚBLICA MUNICIPAL DE TOTANÉS,"Plaza de España, s/n",45163,Totanés,Toledo,608248949,bibliototanes2@hotmail.com
Biblioteca Pública Municipal de Ugena,685,45013365552,BIBLIOTECA PÚBLICA MUNICIPAL DE UGENA,"Cubas, 6",45217,Ugena,Toledo,925533604,biblioteca@ugena.es
Biblioteca Pública Municipal de Urda,686,45009905527,BIBLIOTECA PÚBLICA MUNICIPAL DE URDA,"Verónicas, 3",45480,Urda,Toledo,925472108,biblioteca@urda.es
Biblioteca Pública Municipal de Valmojado,687,45010045528,BIBLIOTECA PÚBLICA MUNICIPAL DE VALMOJADO,"Castilla-La Mancha, 43",45940,Valmojado,Toledo,918170983,biblioteca@valmojado.com
Biblioteca Pública Municipal de Velada,796,45013415553,BIBLIOTECA PÚBLICA MUNICIPAL DE VELADA,"Dolores, 2",45612,Velada,Toledo,647999371,biblioteca@ayuntamientovelada.es
Biblioteca Pública Municipal de La Villa de Don Fadrique,690,45010265530,BIBLIOTECA PÚBLICA MUNICIPAL DE VILLA DE DON FADRIQUE,"Caramelos, 18",45850,Villa de Don Fadrique (La),Toledo,925204396,biblioteca@villadonfadrique.es
Biblioteca Pública Municipal de Villacañas,691,45010115529,BIBLIOTECA PÚBLICA MUNICIPAL DE VILLACAÑAS,"Albacete, 23",45860,Villacañas,Toledo,925161985,biblioteca@aytovillacanas.com
Biblioteca Pública Municipal de Villafranca de Los Caballeros,692,45010325531,BIBLIOTECA PÚBLICA MUNICIPAL DE VILLAFRANCA DE LOS CABALLEROS,"Nueva, s/n",45730,Villafranca de los Caballeros,Toledo,674974369,bpm.villafrancadeloscaballeros@jccm.es
Biblioteca Pública Municipal de Villaluenga de La Sagra,693,45010475532,BIBLIOTECA PÚBLICA MUNICIPAL DE VILLALUENGA DE LA SAGRA,"Juan Palarea, 1",45520,Villaluenga de la Sagra,Toledo,925530584,biblioteca@villaluengadelasagra.es
Biblioteca Pública Municipal de Villamiel de Toledo,822,45009716466,BIBLIOTECA PÚBLICA MUNICIPAL DE VILLAMIEL DE TOLEDO,"Generalísimo, 10",45594,Villamiel de Toledo,Toledo,925793029,bibliotec@villamieldetoledo.com
Biblioteca Pública Municipal de Villaminaya,694,45017375580,BIBLIOTECA PÚBLICA MUNICIPAL DE VILLAMINAYA,"de la Mora, 26, Bajo",45440,Villaminaya,Toledo,620117943,bpm.villaminaya@jccm.es
Biblioteca Pública Municipal de Villanueva de Alcardete,696,45013895557,BIBLIOTECA PÚBLICA MUNICIPAL DE VILLANUEVA DE ALCARDETE,"La Ronda, s/n",45810,Villanueva de Alcardete,Toledo,925167537,biblioteca@villanuevadealcardete.es
Biblioteca Pública Municipal de Villanueva de Bogas,785,45022375584,BIBLIOTECA PÚBLICA MUNICIPAL DE VILLANUEVA DE BOGAS,"El Trigo, 2",45410,Villanueva de Bogas,Toledo,925313236,bibliovillanu@hotmail.com
Biblioteca Pública Municipal de Villarrubia de Santiago,698,45010505533,BIBLIOTECA PÚBLICA MUNICIPAL DE VILLARRUBIA DE SANTIAGO,"Carretera de Ocaña, 8",45360,Villarrubia de Santiago,Toledo,925150150,biblioteca@villarrubiadesantiago.es
Biblioteca Pública Municipal de Villaseca de La Sagra,699,45026385615,BIBLIOTECA PÚBLICA MUNICIPAL DE VILLASECA DE LA SAGRA,"Plaza Miguel de Cervantes, 12 Bis",45260,Villaseca de la Sagra,Toledo,925275259,biblioteca@villasecadelasagra.es
Biblioteca Pública Municipal de Villasequilla,700,45013925558,BIBLIOTECA PÚBLICA MUNICIPAL DE VILLASEQUILLA,"Mora, 36",45740,Villasequilla,Toledo,925325097,bibliovillasequilla@gmail.com
Biblioteca Pública Municipal de Villatobas,701,45026435616,BIBLIOTECA PÚBLICA MUNICIPAL DE VILLATOBAS,"Huertas, 1",45310,Villatobas,Toledo,925152036,biblio.villatobas@hotmail.es
Biblioteca Pública Municipal de El Viso de San Juan,793,45026565617,BIBLIOTECA PÚBLICA MUNICIPAL DE EL VISO DE SAN JUAN,"Cuesta de la Higuera, s/n",45215,Viso de San Juan (El),Toledo,925502001,visosanjuan.capi@jccm.es
Biblioteca Pública Municipal de Los Yébenes,702,45010795535,BIBLIOTECA PÚBLICA MUNICIPAL DE LOS YÉBENES,"Plaza de San Juan, 4",45470,Yébenes (Los),Toledo,925348537,biblioteca@losyebenes.es
Biblioteca Pública Municipal de Yeles,845,45007696287,BIBLIOTECA PÚBLICA MUNICIPAL DE YELES,"C/ Iglesia, s/n",45220,Yeles,Toledo,925545594,aytoccultura@gmail.com
Biblioteca Pública Municipal de Yepes,703,45010855536,BIBLIOTECA PÚBLICA MUNICIPAL DE YEPES,Santa Eulalia,45313,Yepes,Toledo,925154957,paulabiblio@hotmail.com
Biblioteca Pública Municipal de Yuncler,705,45014655560,BIBLIOTECA PÚBLICA MUNICIPAL DE YUNCLER,"Trafalgar, 1",45529,Yuncler,Toledo,925524174,biblioteca@aytoyuncler.com
Biblioteca Pública Municipal de Yunclillos,706,45016235569,BIBLIOTECA PÚBLICA MUNICIPAL DE YUNCLILLOS,C/ TORRIJOS,45591,Yunclillos,Toledo,925351033,bibliotecayuncli@hotmail.com
Biblioteca Pública Municipal de Yuncos,707,45026695618,BIBLIOTECA PÚBLICA MUNICIPAL DE YUNCOS,"San José, 41",45210,Yuncos,Toledo,925557351,biblioteca@yuncos.es
Biblioteca Pública Municipal de Gálvez,527,45012005543,BIBLIOTECA PÚBLICA MUNICIPAL DE GALVEZ,"La Barranca, 5",45164,,Toledo,925401956,bibliotecadegalvez@yahoo.es
