bs_id,position_x,position_y,district_name,district_name's URI,district_number,neighbourhood_name,neighbourhood_name's URI,neighbourhood_number,street_name,address,spots,longitude,latitude
001 a,440443.61,4474290.65,Centro ,http://dbpedia.org/resource/Centro,1,Sol ,http://dbpedia.org/resource/Sol,1-06,Calle De Alcala,"Calle De Alcala,2",30,-3.701998,40.4171107
001 b,440480.56,4474301.74,Centro ,http://dbpedia.org/resource/Centro,1,Sol ,http://dbpedia.org/resource/Sol,1-06,Calle De Alcala,"Calle De Alcala,6",30,-3.7015636,40.4172132
002,440134.83,4474678.23,Centro ,http://dbpedia.org/resource/Centro,1,Ciudad Universitaria ,http://dbpedia.org/resource/Ciudad_Universitaria,1-05,Calle De Miguel Moya,"Calle De Miguel Moya,1",24,-3.7056739,40.42058
003,440012.98,4475760.68,Chamberi ,http://dbpedia.org/resource/Chamberi,7,Arapiles ,http://dbpedia.org/resource/Arapiles,7-02,Plaza Del Conde Del Valle De Suchil,"Plaza Del Conde Del Valle De Suchil,2",18,-3.7072122,40.4303224
004,440396.4,4475565.36,Centro ,http://dbpedia.org/resource/Centro,1,Ciudad Universitaria ,http://dbpedia.org/resource/Ciudad_Universitaria,1-05,Calle De Manuela Malasana,"Calle De Manuela Malasana,3",24,-3.7026739,40.4285905
005,440447.06,4475539.6,Centro ,http://dbpedia.org/resource/Centro,1,Recoletos ,http://dbpedia.org/resource/Recoletos,1-04,Calle De Fuencarral,"Calle De Fuencarral,106",27,-3.7020743,40.428362
006,440754.26,4475071.08,Centro ,http://dbpedia.org/resource/Centro,1,Recoletos ,http://dbpedia.org/resource/Recoletos,1-04,Calle De Hortaleza,"Calle De Hortaleza,63",24,-3.6984093,40.4241633
007,440811.97,4475187.49,Centro ,http://dbpedia.org/resource/Centro,1,Recoletos ,http://dbpedia.org/resource/Recoletos,1-04,Calle De Hortaleza,"Calle De Hortaleza,75",21,-3.6977399,40.4252161
008,441020.56,4475463.16,Chamberi ,http://dbpedia.org/resource/Chamberi,7,Almagro ,http://dbpedia.org/resource/Almagro,7-04,Plaza De Alonso Martinez,"Plaza De Alonso Martinez,6",24,-3.6953067,40.4277143
009,439813.51,4474129.47,Centro ,http://dbpedia.org/resource/Centro,1,Palacio Real ,http://dbpedia.org/resource/Royal_Palace_of_Madrid,1-01,Plaza De San Miguel,"Plaza De San Miguel,9",24,-3.7094093,40.4156134
010,441292.12,4475204.43,Centro ,http://dbpedia.org/resource/Centro,1,Recoletos ,http://dbpedia.org/resource/Recoletos,1-04,Calle Del Marques De La Ensenada,"Calle Del Marques De La Ensenada,16",24,-3.6920816,40.4254027
011,440314.86,4475395.19,Centro ,http://dbpedia.org/resource/Centro,1,Ciudad Universitaria ,http://dbpedia.org/resource/Ciudad_Universitaria,1-05,Calle De San Andres,"Calle De San Andres,20",24,-3.7036192,40.4270517
012,440095.53,4475560.73,Centro ,http://dbpedia.org/resource/Centro,1,Ciudad Universitaria ,http://dbpedia.org/resource/Ciudad_Universitaria,1-05,Calle De San Bernardo,"Calle De San Bernardo,87",24,-3.7062202,40.4285271
013,439733.78,4475434.65,Centro ,http://dbpedia.org/resource/Centro,1,Ciudad Universitaria ,http://dbpedia.org/resource/Ciudad_Universitaria,1-05,Calle Del Conde Duque,"Calle Del Conde Duque,22",24,-3.7104727,40.4273652
014,439486.2,4475284.13,Moncloa-Aravaca,http://dbpedia.org/resource/Moncloa-Aravaca,9,Arguelles ,http://dbpedia.org/resource/Arguelles,9-02,Calle De Ventura Rodriguez,"Calle De Ventura Rodriguez,1",24,-3.7133768,40.4259913
015,439996.77,4475313.59,Centro ,http://dbpedia.org/resource/Centro,1,Ciudad Universitaria ,http://dbpedia.org/resource/Ciudad_Universitaria,1-05,Calle Del Norte,"Calle Del Norte,10",21,-3.7073611,40.4262937
016,439982.39,4474941.66,Centro ,http://dbpedia.org/resource/Centro,1,Ciudad Universitaria ,http://dbpedia.org/resource/Ciudad_Universitaria,1-05,Calle De San Bernardo,"Calle De San Bernardo,22",21,-3.7074955,40.4229421
017,440263.35,4474964.43,Centro ,http://dbpedia.org/resource/Centro,1,Ciudad Universitaria ,http://dbpedia.org/resource/Ciudad_Universitaria,1-05,Plaza De Carlos Cambronero,"Plaza De Carlos Cambronero,2",24,-3.7041859,40.4231675
018,440653.13,4474711.92,Centro ,http://dbpedia.org/resource/Centro,1,Recoletos ,http://dbpedia.org/resource/Recoletos,1-04,Plaza De Pedro Zerolo,"Plaza De Pedro Zerolo,1",24,-3.6995679,40.4209206
019,441007.98,4474817.8,Centro ,http://dbpedia.org/resource/Centro,1,Recoletos ,http://dbpedia.org/resource/Recoletos,1-04,Calle De Prim,"Calle De Prim,4",24,-3.6953951,40.4218997
020,441021.37,4474517.89,Centro ,http://dbpedia.org/resource/Centro,1,Recoletos ,http://dbpedia.org/resource/Recoletos,1-04,Calle De Alcala,"Calle De Alcala,49",24,-3.6952095,40.4191989
020 ampliacion,441014.52,4474516.49,Centro ,http://dbpedia.org/resource/Centro,1,Recoletos ,http://dbpedia.org/resource/Recoletos,1-04,Calle De Alcala,"Calle De Alcala,49",6,-3.6952901,40.4191858
022,440064.4,4474630.53,Centro ,http://dbpedia.org/resource/Centro,1,Sol ,http://dbpedia.org/resource/Sol,1-06,Calle De Jacometrezo,"Calle De Jacometrezo,1",24,-3.7064995,40.4201452
023,439912.56,4474639.35,Centro ,http://dbpedia.org/resource/Centro,1,Palacio Real ,http://dbpedia.org/resource/Royal_Palace_of_Madrid,1-01,Plaza De Santo Domingo,"Plaza De Santo Domingo,s/n",24,-3.7082901,40.4202137
024,439715.67,4474384.75,Centro ,http://dbpedia.org/resource/Centro,1,Palacio Real ,http://dbpedia.org/resource/Royal_Palace_of_Madrid,1-01,Calle De Carlos Iii,"Calle De Carlos Iii,1",24,-3.7105866,40.417906
025 a,440104.48,4474318.99,Centro ,http://dbpedia.org/resource/Centro,1,Sol ,http://dbpedia.org/resource/Sol,1-06,Plaza Del Celenque,"Plaza Del Celenque,1",24,-3.7059978,40.4173416
025 b,440102.16,4474309.87,Centro ,http://dbpedia.org/resource/Centro,1,Sol ,http://dbpedia.org/resource/Sol,1-06,Plaza Del Celenque,"Plaza Del Celenque,1",24,-3.7060243,40.4172593
026,441082.03,4475031.58,Centro ,http://dbpedia.org/resource/Centro,1,Recoletos ,http://dbpedia.org/resource/Recoletos,1-04,Plaza De Las Salesas,"Plaza De Las Salesas,8",24,-3.6945421,40.4238308
027,440984.74,4473861.49,Centro ,http://dbpedia.org/resource/Centro,1,Gran Via ,http://dbpedia.org/resource/Gran_Via,1-03,Calle De Jesus,"Calle De Jesus,frente 6",27,-3.6955803,40.4132831
028,440752.57,4474394.64,Centro ,http://dbpedia.org/resource/Centro,1,Gran Via ,http://dbpedia.org/resource/Gran_Via,1-03,Calle De Alcala,"Calle De Alcala,26",24,-3.6983662,40.4180695
029,440968.62,4474190.29,Centro ,http://dbpedia.org/resource/Centro,1,Gran Via ,http://dbpedia.org/resource/Gran_Via,1-03,Calle Del Marques De Cubas,"Calle Del Marques De Cubas,25",24,-3.6958008,40.416244
030,439635.83,4474544.08,Centro ,http://dbpedia.org/resource/Centro,1,Palacio Real ,http://dbpedia.org/resource/Royal_Palace_of_Madrid,1-01,Calle De Pavia,"Calle De Pavia,6",27,-3.7115428,40.4193355
031,440050.38,4474208.74,Centro ,http://dbpedia.org/resource/Centro,1,Sol ,http://dbpedia.org/resource/Sol,1-06,Calle   Mayor,"Calle   Mayor,18",27,-3.706625,40.4163446
032,440090.59,4474042.64,Centro ,http://dbpedia.org/resource/Centro,1,Sol ,http://dbpedia.org/resource/Sol,1-06,Plaza De La Provincia,"Plaza De La Provincia,1",18,-3.7061355,40.4148511
033,440340.26,4474220.99,Centro ,http://dbpedia.org/resource/Centro,1,Sol ,http://dbpedia.org/resource/Sol,1-06,Calle De Las Carretas,"Calle De Las Carretas,3",21,-3.7032096,40.4164757
034,440313.43,4473992.08,Centro ,http://dbpedia.org/resource/Centro,1,Gran Via ,http://dbpedia.org/resource/Gran_Via,1-03,Plaza De Jacinto Benavente,"Plaza De Jacinto Benavente,s/n",24,-3.7035044,40.4144117
035,439730.93,4473970.93,Centro ,http://dbpedia.org/resource/Centro,1,Palacio Real ,http://dbpedia.org/resource/Royal_Palace_of_Madrid,1-01,Plaza Del Cordon,"Plaza Del Cordon,1",24,-3.7103676,40.4141792
036,439614.82,4474265.33,Centro ,http://dbpedia.org/resource/Centro,1,Palacio Real ,http://dbpedia.org/resource/Royal_Palace_of_Madrid,1-01,Plaza De Ramales,"Plaza De Ramales,5",24,-3.711764,40.4168229
037,439409.3,4473605.14,Centro ,http://dbpedia.org/resource/Centro,1,Palacio Real ,http://dbpedia.org/resource/Royal_Palace_of_Madrid,1-01,Plaza De San Francisco,"Plaza De San Francisco,5",24,-3.7141234,40.4108606
038,439637,4473651.64,Centro ,http://dbpedia.org/resource/Centro,1,Palacio Real ,http://dbpedia.org/resource/Royal_Palace_of_Madrid,1-01,Carrera De San Francisco,"Carrera De San Francisco,1",24,-3.7114443,40.4112961
039,439844,4473646.66,Centro ,http://dbpedia.org/resource/Centro,1,Palacio Real ,http://dbpedia.org/resource/Royal_Palace_of_Madrid,1-01,Plaza De La Cebada,"Plaza De La Cebada,16",27,-3.7090043,40.4112662
040,440207.51,4473923.52,Centro ,http://dbpedia.org/resource/Centro,1,Embajadores ,http://dbpedia.org/resource/Embajadores,1-02,Calle Del Conde De Romanones,"Calle Del Conde De Romanones,2",24,-3.7047463,40.4137865
041,440694.54,4473746.65,Centro ,http://dbpedia.org/resource/Centro,1,Embajadores ,http://dbpedia.org/resource/Embajadores,1-02,Calle De Atocha,"Calle De Atocha,56",18,-3.6989898,40.412228
042,440757.78,4473584.46,Centro ,http://dbpedia.org/resource/Centro,1,Embajadores ,http://dbpedia.org/resource/Embajadores,1-02,Calle De Santa Isabel,"Calle De Santa Isabel,32",24,-3.6982294,40.4107714
043,440391.04,4473511.6,Centro ,http://dbpedia.org/resource/Centro,1,Embajadores ,http://dbpedia.org/resource/Embajadores,1-02,Calle De Lavapies,"Calle De Lavapies,36",24,-3.7025446,40.4100889
044,440274.63,4473482.26,Centro ,http://dbpedia.org/resource/Centro,1,Embajadores ,http://dbpedia.org/resource/Embajadores,1-02,Calle Del Meson De Paredes,"Calle Del Meson De Paredes,35",21,-3.7039138,40.4098162
045,439659.1,4473168.86,Centro ,http://dbpedia.org/resource/Centro,1,Embajadores ,http://dbpedia.org/resource/Embajadores,1-02,Glorieta De La Puerta De Toledo,"Glorieta De La Puerta De Toledo,1",21,-3.7111381,40.4069486
046,439998.9,4472999.74,Arganzuela,http://dbpedia.org/resource/Arganzuela,2,Acacias ,http://dbpedia.org/resource/Acacias,2-02,Calle De La Ribera De Curtidores,"Calle De La Ribera De Curtidores,28",24,-3.7071178,40.4054496
047,440368.37,4472905.07,Arganzuela,http://dbpedia.org/resource/Arganzuela,2,Acacias ,http://dbpedia.org/resource/Acacias,2-02,Glorieta De Embajadores,"Glorieta De Embajadores,7 B",24,-3.702755,40.4046233
048,440424.7,4472996.09,Centro ,http://dbpedia.org/resource/Centro,1,Embajadores ,http://dbpedia.org/resource/Embajadores,1-02,Glorieta De Embajadores,"Glorieta De Embajadores,2",24,-3.7020997,40.4054473
049,440667.66,4473061.04,Centro ,http://dbpedia.org/resource/Centro,1,Embajadores ,http://dbpedia.org/resource/Embajadores,1-02,Ronda De Atocha,"Ronda De Atocha,36",24,-3.6992427,40.4060497
050,441180.67,4473307.92,Centro ,http://dbpedia.org/resource/Centro,1,Embajadores ,http://dbpedia.org/resource/Embajadores,1-02,Calle De Santa Isabel,"Calle De Santa Isabel,57",24,-3.69322,40.4083102
051,441148.47,4473243.04,Centro ,http://dbpedia.org/resource/Centro,1,Embajadores ,http://dbpedia.org/resource/Embajadores,1-02,Plaza Del Emperador Carlos V,"Plaza Del Emperador Carlos V,7",27,-3.6935934,40.4077234
052,440544.34,4474002.06,Centro ,http://dbpedia.org/resource/Centro,1,Gran Via ,http://dbpedia.org/resource/Gran_Via,1-03,Plaza De Santa Ana,"Plaza De Santa Ana,9",24,-3.7007838,40.4145181
053,440543.46,4473309.62,Centro ,http://dbpedia.org/resource/Centro,1,Embajadores ,http://dbpedia.org/resource/Embajadores,1-02,Calle De Valencia,"Calle De Valencia,frente 2",24,-3.7007295,40.4082802
054,440592.35,4475345.44,Centro ,http://dbpedia.org/resource/Centro,1,Recoletos ,http://dbpedia.org/resource/Recoletos,1-04,Calle De Barcelo,"Calle De Barcelo,7",21,-3.7003435,40.4266233
055,440455.56,4475063.26,Centro ,http://dbpedia.org/resource/Centro,1,Ciudad Universitaria ,http://dbpedia.org/resource/Ciudad_Universitaria,1-05,Plaza De San Ildefonso,"Plaza De San Ildefonso,8",24,-3.7019295,40.4240716
056,440335.43,4474443.96,Centro ,http://dbpedia.org/resource/Centro,1,Sol ,http://dbpedia.org/resource/Sol,1-06,Plaza Del Carmen,"Plaza Del Carmen,1",24,-3.7032875,40.418484
057,439536.86,4475688.34,Centro ,http://dbpedia.org/resource/Centro,1,Ciudad Universitaria ,http://dbpedia.org/resource/Ciudad_Universitaria,1-05,Calle De Santa Cruz De Marcenado,"Calle De Santa Cruz De Marcenado,24",24,-3.7128181,40.4296363
058,440791.91,4474859.51,Centro ,http://dbpedia.org/resource/Centro,1,Recoletos ,http://dbpedia.org/resource/Recoletos,1-04,Calle De Augusto Figueroa,"Calle De Augusto Figueroa,33",24,-3.6979458,40.4222601
059,440271.27,4475221.1,Centro ,http://dbpedia.org/resource/Centro,1,Ciudad Universitaria ,http://dbpedia.org/resource/Ciudad_Universitaria,1-05,Calle Del Espiritu Santo,"Calle Del Espiritu Santo,30",21,-3.7041167,40.4254802
060,441616.3,4474541.2,Retiro ,http://dbpedia.org/resource/Retiro,3,Jeronimos ,http://dbpedia.org/resource/Jeronimos,3-05,Plaza De La Independencia,"Plaza De La Independencia,7",24,-3.6881994,40.4194508
061,442720.29,4474753.26,Retiro ,http://dbpedia.org/resource/Retiro,3,Ibiza ,http://dbpedia.org/resource/Ibiza,3-04,Calle De O'donnell,"Calle De O'donnell,30",24,-3.675206,40.4214379
062,442956.32,4474735.99,Retiro ,http://dbpedia.org/resource/Retiro,3,Ibiza ,http://dbpedia.org/resource/Ibiza,3-04,Calle De O'donnell,"Calle De O'donnell,48",24,-3.6724223,40.4212986
063,443103.74,4474356.79,Retiro ,http://dbpedia.org/resource/Retiro,3,Ibiza ,http://dbpedia.org/resource/Ibiza,3-04,Calle De Ibiza,"Calle De Ibiza,64",24,-3.6706508,40.4178926
065,441513.53,4474235.07,Retiro ,http://dbpedia.org/resource/Retiro,3,Jeronimos ,http://dbpedia.org/resource/Jeronimos,3-05,Calle De Antonio Maura,"Calle De Antonio Maura,15",24,-3.6893825,40.4166859
067,441190.08,4473587.45,Centro ,http://dbpedia.org/resource/Centro,1,Gran Via ,http://dbpedia.org/resource/Gran_Via,1-03,Calle De Almaden,"Calle De Almaden,28",24,-3.6931349,40.410829
068,441358.92,4473802.81,Retiro ,http://dbpedia.org/resource/Retiro,3,Jeronimos ,http://dbpedia.org/resource/Jeronimos,3-05,Calle De Espalter,"Calle De Espalter,1",21,-3.6911649,40.412781
069,441551.54,4473499.36,Retiro ,http://dbpedia.org/resource/Retiro,3,Jeronimos ,http://dbpedia.org/resource/Jeronimos,3-05,Calle De Alfonso Xii,"Calle De Alfonso Xii,54",27,-3.6888669,40.4100609
070,442494.99,4474064.79,Retiro ,http://dbpedia.org/resource/Retiro,3,Jeronimos ,http://dbpedia.org/resource/Jeronimos,3-05,Avenida De Menendez Pelayo,"Avenida De Menendez Pelayo,frente 63",24,-3.6777994,40.4152203
071,442816.22,4474149.49,Retiro ,http://dbpedia.org/resource/Retiro,3,Nino Jesus ,http://dbpedia.org/resource/Nino_Jesus,3-06,Calle Del Doce De Octubre,"Calle Del Doce De Octubre,28",24,-3.674021,40.4160054
072,443189.11,4474115.08,Retiro ,http://dbpedia.org/resource/Retiro,3,Nino Jesus ,http://dbpedia.org/resource/Nino_Jesus,3-06,Calle Del Doctor Esquerdo,"Calle Del Doctor Esquerdo,62",24,-3.669623,40.415721
073,443229.99,4473642.11,Retiro ,http://dbpedia.org/resource/Retiro,3,Estrella ,http://dbpedia.org/resource/Estrella,3-03,Plaza De Los Astros,"Plaza De Los Astros,s/n",24,-3.669099,40.411463
074,442595.78,4473679.92,Retiro ,http://dbpedia.org/resource/Retiro,3,Jeronimos ,http://dbpedia.org/resource/Jeronimos,3-05,Avenida De Menendez Pelayo,"Avenida De Menendez Pelayo,s/n",24,-3.6765768,40.4117601
075,442436.91,4473301.34,Retiro ,http://dbpedia.org/resource/Retiro,3,Jeronimos ,http://dbpedia.org/resource/Jeronimos,3-05,Avenida De Menendez Pelayo,"Avenida De Menendez Pelayo,s/n",24,-3.6784149,40.4083387
076,442712.67,4473182.27,Retiro ,http://dbpedia.org/resource/Retiro,3,Nino Jesus ,http://dbpedia.org/resource/Nino_Jesus,3-06,Avenida Del Mediterraneo,"Avenida Del Mediterraneo,19",24,-3.6751544,40.4072851
077,443083.53,4473073.95,Retiro ,http://dbpedia.org/resource/Retiro,3,Pacifico ,http://dbpedia.org/resource/Pacifico,3-01,Plaza Del Conde De Casal,"Plaza Del Conde De Casal,8",22,-3.6707742,40.4063347
078,442755.86,4472436.57,Retiro ,http://dbpedia.org/resource/Retiro,3,Adelfas,http://dbpedia.org/resource/Adelfas,3-02,Calle Del Cerro De La Plata,"Calle Del Cerro De La Plata,2",24,-3.6745783,40.4005704
079,442252.73,4472937.49,Retiro ,http://dbpedia.org/resource/Retiro,3,Pacifico ,http://dbpedia.org/resource/Pacifico,3-01,Avenida De Menendez Pelayo,"Avenida De Menendez Pelayo,38",24,-3.6805524,40.4050482
080 a,441412.24,4473206.43,Arganzuela,http://dbpedia.org/resource/Arganzuela,2,Atocha ,http://dbpedia.org/resource/Atocha,2-07,Avenida De La Ciudad De Barcelona,"Avenida De La Ciudad De Barcelona,s/n",24,-3.6904816,40.4074122
080 b,441391.88,4473230.32,Arganzuela,http://dbpedia.org/resource/Arganzuela,2,Atocha ,http://dbpedia.org/resource/Atocha,2-07,Avenida De La Ciudad De Barcelona,"Avenida De La Ciudad De Barcelona,s/n",27,-3.6907238,40.407626
081,441288.14,4473447.57,Retiro ,http://dbpedia.org/resource/Retiro,3,Jeronimos ,http://dbpedia.org/resource/Jeronimos,3-05,Calle De Claudio Moyano,"Calle De Claudio Moyano,s/n",24,-3.6919663,40.4095758
082,443177.93,4473311.29,Retiro ,http://dbpedia.org/resource/Retiro,3,Estrella ,http://dbpedia.org/resource/Estrella,3-03,Calle De La Lira,"Calle De La Lira,frente 2",24,-3.669683,40.4084793
083,442770.38,4473844.96,Retiro ,http://dbpedia.org/resource/Retiro,3,Nino Jesus ,http://dbpedia.org/resource/Nino_Jesus,3-06,Calle De Pio Baroja,"Calle De Pio Baroja,8 B",24,-3.6745339,40.4132589
084,442918.27,4472746.05,Retiro ,http://dbpedia.org/resource/Retiro,3,Adelfas,http://dbpedia.org/resource/Adelfas,3-02,Calle Del Doctor Esquerdo,"Calle Del Doctor Esquerdo,191",24,-3.6726923,40.4033695
085,442319.29,4474723.43,Retiro ,http://dbpedia.org/resource/Retiro,3,Jeronimos ,http://dbpedia.org/resource/Jeronimos,3-05,Avenida De Menendez Pelayo,"Avenida De Menendez Pelayo,frente 9",27,-3.6799299,40.4211415
086,441180.29,4474447.71,Centro ,http://dbpedia.org/resource/Centro,1,Gran Via ,http://dbpedia.org/resource/Gran_Via,1-03,Paseo Del Prado,"Paseo Del Prado,s/n",21,-3.6933298,40.4185779
087,442016.68,4475450.66,Salamanca ,http://dbpedia.org/resource/Salamanca,4,Recoletos ,http://dbpedia.org/resource/Recoletos,4-01,Calle De Ayala,"Calle De Ayala,44",24,-3.6835631,40.4276717
088,442004.11,4475843.28,Salamanca ,http://dbpedia.org/resource/Salamanca,4,Castellana ,http://dbpedia.org/resource/Castellana,4-06,Calle De Velazquez,"Calle De Velazquez,73",24,-3.6837471,40.4312077
089,442728.15,4475399.8,Salamanca ,http://dbpedia.org/resource/Salamanca,4,Goya ,http://dbpedia.org/resource/Goya,4-02,Calle De Ayala,"Calle De Ayala,102",24,-3.6751716,40.4272628
090,442000.33,4475163.96,Salamanca ,http://dbpedia.org/resource/Salamanca,4,Recoletos ,http://dbpedia.org/resource/Recoletos,4-01,Calle De Goya,"Calle De Goya,18",24,-3.6837297,40.4250878
090 ampliacion,442014.61,4475162.88,Salamanca ,http://dbpedia.org/resource/Salamanca,4,Recoletos ,http://dbpedia.org/resource/Recoletos,4-01,Calle De Goya,"Calle De Goya,20",6,-3.6835613,40.4250791
091,442417.66,4475274.35,Salamanca ,http://dbpedia.org/resource/Salamanca,4,Goya ,http://dbpedia.org/resource/Goya,4-02,Calle De Hermosilla,"Calle De Hermosilla,73",24,-3.6788203,40.4261113
092,441767.83,4475291.85,Salamanca ,http://dbpedia.org/resource/Salamanca,4,Recoletos ,http://dbpedia.org/resource/Recoletos,4-01,Calle De Claudio Coello,"Calle De Claudio Coello,45",24,-3.6864821,40.4262237
093,441518.8,4475235.48,Salamanca ,http://dbpedia.org/resource/Salamanca,4,Recoletos ,http://dbpedia.org/resource/Recoletos,4-01,Calle De Goya,"Calle De Goya,3",24,-3.6894124,40.4256984
094,441407.18,4474977.73,Salamanca ,http://dbpedia.org/resource/Salamanca,4,Recoletos ,http://dbpedia.org/resource/Recoletos,4-01,Paseo De Recoletos,"Paseo De Recoletos,22",21,-3.6907044,40.4233686
095,441721.55,4474897,Salamanca ,http://dbpedia.org/resource/Salamanca,4,Recoletos ,http://dbpedia.org/resource/Recoletos,4-01,Calle De Claudio Coello,"Calle De Claudio Coello,19",24,-3.6869914,40.4226634
096,442140.46,4474825.84,Salamanca ,http://dbpedia.org/resource/Salamanca,4,Recoletos ,http://dbpedia.org/resource/Recoletos,4-01,Calle De Alcala,"Calle De Alcala,111",27,-3.6820471,40.4220516
097,442301.64,4474872.66,Salamanca ,http://dbpedia.org/resource/Salamanca,4,Goya ,http://dbpedia.org/resource/Goya,4-02,Avenida De Menendez Pelayo,"Avenida De Menendez Pelayo,1",27,-3.6801515,40.4224846
098,442705.5,4475058.99,Salamanca ,http://dbpedia.org/resource/Salamanca,4,Goya ,http://dbpedia.org/resource/Goya,4-02,Avenida De Felipe Ii,"Avenida De Felipe Ii,5",24,-3.6754079,40.4241911
099,442829.62,4475270.48,Salamanca ,http://dbpedia.org/resource/Salamanca,4,Goya ,http://dbpedia.org/resource/Goya,4-02,Calle De Alcantara,"Calle De Alcantara,2",24,-3.6739638,40.4261048
100,442835.81,4475123.85,Salamanca ,http://dbpedia.org/resource/Salamanca,4,Goya ,http://dbpedia.org/resource/Goya,4-02,Calle De Goya,"Calle De Goya,99",24,-3.6738777,40.4247843
101,443212.16,4474936.49,Salamanca ,http://dbpedia.org/resource/Salamanca,4,Goya ,http://dbpedia.org/resource/Goya,4-02,Calle De Jorge Juan,"Calle De Jorge Juan,131",24,-3.6694246,40.4231223
102,441967.18,4474727.67,Salamanca ,http://dbpedia.org/resource/Salamanca,4,Recoletos ,http://dbpedia.org/resource/Recoletos,4-01,Calle De Alcala,"Calle De Alcala,95",24,-3.6840806,40.4211552
103,441766.91,4475752.49,Salamanca ,http://dbpedia.org/resource/Salamanca,4,Castellana ,http://dbpedia.org/resource/Castellana,4-06,Calle De Jose Ortega Y Gasset,"Calle De Jose Ortega Y Gasset,4",24,-3.6865351,40.4303733
104,441505.58,4475354.07,Salamanca ,http://dbpedia.org/resource/Salamanca,4,Recoletos ,http://dbpedia.org/resource/Recoletos,4-01,Paseo De La Castellana,"Paseo De La Castellana,4",21,-3.6895792,40.4267658
105,441684.37,4475386.27,Salamanca ,http://dbpedia.org/resource/Salamanca,4,Recoletos ,http://dbpedia.org/resource/Recoletos,4-01,Calle De Serrano,"Calle De Serrano,46",24,-3.6874745,40.4270684
106 a,441647.49,4475141.87,Salamanca ,http://dbpedia.org/resource/Salamanca,4,Recoletos ,http://dbpedia.org/resource/Recoletos,4-01,Calle De Serrano,"Calle De Serrano,32",18,-3.6878868,40.4248642
106 b,441649.86,4475157.87,Salamanca ,http://dbpedia.org/resource/Salamanca,4,Recoletos ,http://dbpedia.org/resource/Recoletos,4-01,Calle De Serrano,"Calle De Serrano,34",18,-3.6878604,40.4250085
107,441599.07,4474779.37,Salamanca ,http://dbpedia.org/resource/Salamanca,4,Recoletos ,http://dbpedia.org/resource/Recoletos,4-01,Calle De Serrano,"Calle De Serrano,8",24,-3.6884243,40.4215952
108,443111.6,4475416.83,Salamanca ,http://dbpedia.org/resource/Salamanca,4,Goya ,http://dbpedia.org/resource/Goya,4-02,Calle De Las Martires Concepcionistas,"Calle De Las Martires Concepcionistas,2",27,-3.670653,40.4274425
109,442191.64,4475721.98,Salamanca ,http://dbpedia.org/resource/Salamanca,4,Castellana ,http://dbpedia.org/resource/Castellana,4-06,Calle De Jose Ortega Y Gasset,"Calle De Jose Ortega Y Gasset,32",24,-3.6815253,40.4301281
110,438921.15,4476262.7,Moncloa-Aravaca,http://dbpedia.org/resource/Moncloa-Aravaca,9,Casa de Campo ,http://dbpedia.org/resource/Casa_de_Campo,9-01,Paseo De Moret,"Paseo De Moret,s/n",24,-3.7201316,40.4347654
111 a,439144.16,4476128.65,Chamberi ,http://dbpedia.org/resource/Chamberi,7,Gaztambide ,http://dbpedia.org/resource/Gaztambide,7-01,Calle Del Arcipreste De Hita,"Calle Del Arcipreste De Hita,8",24,-3.7174896,40.4335742
111 b,439120.04,4476174.12,Chamberi ,http://dbpedia.org/resource/Chamberi,7,Gaztambide ,http://dbpedia.org/resource/Gaztambide,7-01,Calle Del Arcipreste De Hita,"Calle Del Arcipreste De Hita,12",24,-3.7177783,40.433982
112,438517.07,4476028.6,Moncloa-Aravaca,http://dbpedia.org/resource/Moncloa-Aravaca,9,Arguelles ,http://dbpedia.org/resource/Arguelles,9-02,Paseo De Moret,"Paseo De Moret,11",24,-3.7248727,40.4326267
113,438865.35,4475484.09,Moncloa-Aravaca,http://dbpedia.org/resource/Moncloa-Aravaca,9,Casa de Campo ,http://dbpedia.org/resource/Casa_de_Campo,9-01,Paseo Del Pintor Rosales,"Paseo Del Pintor Rosales,frente 38",24,-3.7207145,40.4277472
114,439145.29,4475490.01,Moncloa-Aravaca,http://dbpedia.org/resource/Moncloa-Aravaca,9,Arguelles ,http://dbpedia.org/resource/Arguelles,9-02,Calle De Quintana,"Calle De Quintana,13",24,-3.7174151,40.4278211
115,439181.48,4475218.76,Moncloa-Aravaca,http://dbpedia.org/resource/Moncloa-Aravaca,9,Arguelles ,http://dbpedia.org/resource/Arguelles,9-02,Plaza Del Marques De Cerralbo,"Plaza Del Marques De Cerralbo,s/n",24,-3.7169626,40.4253802
116 a,439621.73,4475069,Moncloa-Aravaca,http://dbpedia.org/resource/Moncloa-Aravaca,9,Arguelles ,http://dbpedia.org/resource/Arguelles,9-02,Plaza De Espana,"Plaza De Espana,s/n",24,-3.7117588,40.4240632
116 b,439614.47,4475083.02,Moncloa-Aravaca,http://dbpedia.org/resource/Moncloa-Aravaca,9,Arguelles ,http://dbpedia.org/resource/Arguelles,9-02,Plaza De Espana,"Plaza De Espana,s/n",24,-3.7118457,40.4241889
117,439020.83,4475833.31,Moncloa-Aravaca,http://dbpedia.org/resource/Moncloa-Aravaca,9,Arguelles ,http://dbpedia.org/resource/Arguelles,9-02,Calle De Altamirano,"Calle De Altamirano,24",24,-3.7189152,40.4309046
118,441605.64,4472470.47,Arganzuela,http://dbpedia.org/resource/Arganzuela,2,Palos de Moguer,http://www.wikidata.org/entity/Q521009,2-06,Calle De Juan Martin El Empecinado,"Calle De Juan Martin El Empecinado,16",24,-3.688135,40.4007959
119,441738.36,4472542.79,Arganzuela,http://dbpedia.org/resource/Arganzuela,2,Atocha ,http://dbpedia.org/resource/Atocha,2-07,Calle De Mendez Alvaro,"Calle De Mendez Alvaro,7",24,-3.6865777,40.4014567
120,441043.78,4472723.55,Arganzuela,http://dbpedia.org/resource/Arganzuela,2,Palos de Moguer,http://www.wikidata.org/entity/Q521009,2-06,Calle De Palos De La Frontera,"Calle De Palos De La Frontera,frente 27",24,-3.6947791,40.4030362
121,440718.1,4472592.85,Arganzuela,http://dbpedia.org/resource/Arganzuela,2,Palos de Moguer,http://www.wikidata.org/entity/Q521009,2-06,Paseo De Santa Maria De La Cabeza,"Paseo De Santa Maria De La Cabeza,58",24,-3.6986046,40.4018356
122,440941.06,4475664.68,Chamberi ,http://dbpedia.org/resource/Chamberi,7,Almagro ,http://dbpedia.org/resource/Almagro,7-04,Calle De Santa Engracia,"Calle De Santa Engracia,16",24,-3.6962626,40.429524
123,439482.59,4475800.04,Chamberi ,http://dbpedia.org/resource/Chamberi,7,Gaztambide ,http://dbpedia.org/resource/Gaztambide,7-01,Calle De Guzman El Bueno,"Calle De Guzman El Bueno,2",24,-3.7134685,40.4306386
124,440683.01,4475810.28,Chamberi ,http://dbpedia.org/resource/Chamberi,7,Trafalgar ,http://dbpedia.org/resource/Trafalgar,7-03,Calle De Manuel Silvela,"Calle De Manuel Silvela,18",24,-3.6993182,40.4308173
125,441067.49,4476306.28,Chamberi ,http://dbpedia.org/resource/Chamberi,7,Almagro ,http://dbpedia.org/resource/Almagro,7-04,Calle De Fernandez De La Hoz,"Calle De Fernandez De La Hoz,29",24,-3.6948316,40.4353128
126,440480.69,4476228.15,Chamberi ,http://dbpedia.org/resource/Chamberi,7,Trafalgar ,http://dbpedia.org/resource/Trafalgar,7-03,Calle Del General Alvarez De Castro,"Calle Del General Alvarez De Castro,4",24,-3.7017424,40.4345672
127,439915.53,4476159.21,Chamberi ,http://dbpedia.org/resource/Chamberi,7,Arapiles ,http://dbpedia.org/resource/Arapiles,7-02,Calle De Fernando El Catolico,"Calle De Fernando El Catolico,19",24,-3.7083987,40.4339055
128,439313.53,4476733.24,Chamberi ,http://dbpedia.org/resource/Chamberi,7,Gaztambide ,http://dbpedia.org/resource/Gaztambide,7-01,Calle De Cea Bermudez,"Calle De Cea Bermudez,59",24,-3.7155506,40.4390329
128 ampliacion,439301.59,4476734.02,Chamberi ,http://dbpedia.org/resource/Chamberi,7,Gaztambide ,http://dbpedia.org/resource/Gaztambide,7-01,Calle De Cea Bermudez,"Calle De Cea Bermudez,59",3,-3.7156915,40.4390391
129,440777.63,4476658.85,Chamberi ,http://dbpedia.org/resource/Chamberi,7,Rios Rosas ,http://dbpedia.org/resource/Rios_Rosas,7-05,Calle De Jose Abascal,"Calle De Jose Abascal,33",24,-3.6982818,40.4384684
130,440489.99,4477022.03,Chamberi ,http://dbpedia.org/resource/Chamberi,7,Rios Rosas ,http://dbpedia.org/resource/Rios_Rosas,7-05,Calle De Santa Engracia,"Calle De Santa Engracia,129",20,-3.7017071,40.4417195
131,440293.7,4477027.45,Chamberi ,http://dbpedia.org/resource/Chamberi,7,Rios Rosas ,http://dbpedia.org/resource/Rios_Rosas,7-05,Calle De Bravo Murillo,"Calle De Bravo Murillo,44",24,-3.704022,40.4417543
132,440334.34,4477541.61,Chamberi ,http://dbpedia.org/resource/Chamberi,7,Rios Rosas ,http://dbpedia.org/resource/Rios_Rosas,7-05,Calle De Santa Engracia,"Calle De Santa Engracia,168",24,-3.7035911,40.4463889
133,440637.08,4477625.61,Tetuan ,http://dbpedia.org/resource/Tetuan,6,Cuatro Caminos ,http://dbpedia.org/resource/Cuatro_Caminos,6-02,Calle De Dulcinea,"Calle De Dulcinea,3",24,-3.7000292,40.4471673
134,441017.45,4477274.01,Chamberi ,http://dbpedia.org/resource/Chamberi,7,Rios Rosas ,http://dbpedia.org/resource/Rios_Rosas,7-05,Calle De Maria De Guzman,"Calle De Maria De Guzman,58",24,-3.6955114,40.444027
135,441237.54,4476990.04,Chamberi ,http://dbpedia.org/resource/Chamberi,7,Rios Rosas ,http://dbpedia.org/resource/Rios_Rosas,7-05,Plaza De San Juan De La Cruz,"Plaza De San Juan De La Cruz,s/n",24,-3.6928901,40.4414845
136,441417.02,4477410.33,Chamartin ,http://dbpedia.org/resource/Chamartin,5,El Viso ,http://dbpedia.org/resource/El_Viso,5-01,Paseo De La Castellana,"Paseo De La Castellana,106",24,-3.6908127,40.4452833
137,441885.33,4477430.27,Chamartin ,http://dbpedia.org/resource/Chamartin,5,El Viso ,http://dbpedia.org/resource/El_Viso,5-01,Plaza De La Republica Argentina,"Plaza De La Republica Argentina,6",24,-3.6852925,40.4454958
138,441352.15,4477455.81,Chamberi ,http://dbpedia.org/resource/Chamberi,7,Rios Rosas ,http://dbpedia.org/resource/Rios_Rosas,7-05,Paseo De La Castellana,"Paseo De La Castellana,frente 108",24,-3.6915818,40.4456884
139,441442.67,4476752.13,Chamartin ,http://dbpedia.org/resource/Chamartin,5,El Viso ,http://dbpedia.org/resource/El_Viso,5-01,Calle De Jose Gutierrez Abascal,"Calle De Jose Gutierrez Abascal,s/n",24,-3.6904495,40.4393558
140,442081.95,4476666.37,Chamartin ,http://dbpedia.org/resource/Chamartin,5,El Viso ,http://dbpedia.org/resource/El_Viso,5-01,Calle De Velazquez,"Calle De Velazquez,134",24,-3.6829045,40.438628
140 ampliaci√≥n,442081.16,4476654.37,Chamartin ,http://dbpedia.org/resource/Chamartin,5,El Viso ,http://dbpedia.org/resource/El_Viso,5-01,Calle De Velazquez,"Calle De Velazquez,134",3,-3.6829127,40.4385198
141,441537.59,4476315.08,Chamberi ,http://dbpedia.org/resource/Chamberi,7,Almagro ,http://dbpedia.org/resource/Almagro,7-04,Paseo De La Castellana,"Paseo De La Castellana,43",12,-3.6892902,40.4354253
142,441641.97,4476103.45,Salamanca ,http://dbpedia.org/resource/Salamanca,4,Castellana ,http://dbpedia.org/resource/Castellana,4-06,Paseo De La Castellana,"Paseo De La Castellana,s/n",24,-3.6880402,40.4335262
143,442474.52,4476217.99,Salamanca ,http://dbpedia.org/resource/Salamanca,4,Lista ,http://dbpedia.org/resource/Lista,4-05,Calle De Diego De Leon,"Calle De Diego De Leon,54",24,-3.6782355,40.434616
144,442707.74,4475961.24,Salamanca ,http://dbpedia.org/resource/Salamanca,4,Lista ,http://dbpedia.org/resource/Lista,4-05,Calle De Juan Bravo,"Calle De Juan Bravo,50",24,-3.6754628,40.4323192
145,443050.11,4475675.85,Salamanca ,http://dbpedia.org/resource/Salamanca,4,Lista ,http://dbpedia.org/resource/Lista,4-05,Calle De Jose Ortega Y Gasset,"Calle De Jose Ortega Y Gasset,87",24,-3.671401,40.4297717
146,442434.99,4477286.31,Chamartin ,http://dbpedia.org/resource/Chamartin,5,El Viso ,http://dbpedia.org/resource/El_Viso,5-01,Calle De Maria Francisca,"Calle De Maria Francisca,1",18,-3.6787983,40.4442372
147,442372.1,4477741.71,Chamartin ,http://dbpedia.org/resource/Chamartin,5,El Viso ,http://dbpedia.org/resource/El_Viso,5-01,Avenida Del Doctor Arce,"Avenida Del Doctor Arce,45",24,-3.6795811,40.4483353
148,442194.78,4478041.13,Chamartin ,http://dbpedia.org/resource/Chamartin,5,El Viso ,http://dbpedia.org/resource/El_Viso,5-01,Calle De Serrano,"Calle De Serrano,210",24,-3.6816993,40.4510203
149,441672.11,4477914.69,Chamartin ,http://dbpedia.org/resource/Chamartin,5,El Viso ,http://dbpedia.org/resource/El_Viso,5-01,Paseo De La Habana,"Paseo De La Habana,42",24,-3.6878512,40.4498448
150,441443.38,4477835.19,Chamartin ,http://dbpedia.org/resource/Chamartin,5,El Viso ,http://dbpedia.org/resource/El_Viso,5-01,Paseo De La Castellana,"Paseo De La Castellana,s/n",24,-3.690541,40.4491125
151,441047.89,4477810.45,Tetuan ,http://dbpedia.org/resource/Tetuan,6,Cuatro Caminos ,http://dbpedia.org/resource/Cuatro_Caminos,6-02,Calle De Orense,"Calle De Orense,10",24,-3.6952023,40.4488617
152,440733.5,4478240.82,Tetuan ,http://dbpedia.org/resource/Tetuan,6,Cuatro Caminos ,http://dbpedia.org/resource/Cuatro_Caminos,6-02,Avenida Del General Peron,"Avenida Del General Peron,frente 4",24,-3.6989497,40.4527163
153,441230.1,4478196.25,Tetuan ,http://dbpedia.org/resource/Tetuan,6,Cuatro Caminos ,http://dbpedia.org/resource/Cuatro_Caminos,6-02,Avenida Del General Peron,"Avenida Del General Peron,frente 36",24,-3.6930894,40.45235
154,441097.89,4478466.69,Tetuan ,http://dbpedia.org/resource/Tetuan,6,Cuatro Caminos ,http://dbpedia.org/resource/Cuatro_Caminos,6-02,Calle De Orense,"Calle De Orense,36",24,-3.6946736,40.4547769
155,440575.2,4478749.38,Tetuan ,http://dbpedia.org/resource/Tetuan,6,Cuatro Caminos ,http://dbpedia.org/resource/Cuatro_Caminos,6-02,Calle De San German,"Calle De San German,55",24,-3.700864,40.4572863
156,441385.88,4478959.93,Tetuan ,http://dbpedia.org/resource/Tetuan,6,Castillejos ,http://dbpedia.org/resource/Castillejos,6-03,Calle De Sor Angela De La Cruz,"Calle De Sor Angela De La Cruz,2",24,-3.6913229,40.4592406
157,441554.84,4478963.2,Chamartin ,http://dbpedia.org/resource/Chamartin,5,Nueva Espana ,http://dbpedia.org/resource/Nueva_Espana,5-05,Paseo De La Castellana,"Paseo De La Castellana,s/n",24,-3.6893305,40.459282
158,441946.46,4478886.67,Chamartin ,http://dbpedia.org/resource/Chamartin,5,Hispanoamerica ,http://dbpedia.org/resource/Hispanoamerica,5-04,Avenida De Alberto Alcocer,"Avenida De Alberto Alcocer,22 A",24,-3.6847049,40.45862
159,442024.96,4478401.51,Chamartin ,http://dbpedia.org/resource/Chamartin,5,Hispanoamerica ,http://dbpedia.org/resource/Hispanoamerica,5-04,Paseo De La Habana,"Paseo De La Habana,63",24,-3.6837348,40.4542549
160,442632.03,4478722.9,Chamartin ,http://dbpedia.org/resource/Chamartin,5,Hispanoamerica ,http://dbpedia.org/resource/Hispanoamerica,5-04,Calle De Colombia,"Calle De Colombia,7",24,-3.6766048,40.4571923
161,438745.93,4474862.31,Moncloa-Aravaca,http://dbpedia.org/resource/Moncloa-Aravaca,9,Casa de Campo ,http://dbpedia.org/resource/Casa_de_Campo,9-01,Paseo De La Florida,"Paseo De La Florida,8",24,-3.7220624,40.4221372
161 ampliacion,438754.04,4474853.3,Moncloa-Aravaca,http://dbpedia.org/resource/Moncloa-Aravaca,9,Casa de Campo ,http://dbpedia.org/resource/Casa_de_Campo,9-01,Paseo De La Florida,"Paseo De La Florida,6",3,-3.7219659,40.4220566
162,439688.47,4472787.76,Arganzuela,http://dbpedia.org/resource/Arganzuela,2,Acacias ,http://dbpedia.org/resource/Acacias,2-02,Paseo De Los Olmos,"Paseo De Los Olmos,28",24,-3.7107559,40.4035176
163,440055.04,4472797.85,Arganzuela,http://dbpedia.org/resource/Arganzuela,2,Acacias ,http://dbpedia.org/resource/Acacias,2-02,Paseo De La Esperanza,"Paseo De La Esperanza,2 A",21,-3.7064372,40.4036349
164,441063.58,4472068.5,Arganzuela,http://dbpedia.org/resource/Arganzuela,2,Delicias ,http://dbpedia.org/resource/Las_Delicias,2-05,Paseo De Las Delicias,"Paseo De Las Delicias,94",24,-3.6944851,40.3971366
165,440794.37,4471598.57,Arganzuela,http://dbpedia.org/resource/Arganzuela,2,Chopera ,http://dbpedia.org/resource/La_Chopera,2-03,Paseo De La Chopera,"Paseo De La Chopera,frente 49",27,-3.6976134,40.3928841
166,439478.68,4473946.37,Centro ,http://dbpedia.org/resource/Centro,1,Palacio Real ,http://dbpedia.org/resource/Royal_Palace_of_Madrid,1-01,Calle De Segovia,"Calle De Segovia,21",24,-3.7133382,40.4139396
167,439113.04,4473926.4,Arganzuela,http://dbpedia.org/resource/Arganzuela,2,Imperial ,http://dbpedia.org/resource/Imperial,2-01,Calle De Segovia,"Calle De Segovia,47 A",24,-3.7176456,40.4137331
168,440948.66,4472895.98,Arganzuela,http://dbpedia.org/resource/Arganzuela,2,Palos de Moguer,http://www.wikidata.org/entity/Q521009,2-06,Paseo De Santa Maria De La Cabeza,"Paseo De Santa Maria De La Cabeza,frente 32",24,-3.6959159,40.4045828
169,439424.51,4472574.58,Arganzuela,http://dbpedia.org/resource/Arganzuela,2,Acacias ,http://dbpedia.org/resource/Acacias,2-02,Calle De Toledo,"Calle De Toledo,181",24,-3.713846,40.401578
170,440225.41,4472515.53,Arganzuela,http://dbpedia.org/resource/Arganzuela,2,Acacias ,http://dbpedia.org/resource/Acacias,2-02,Paseo De La Esperanza,"Paseo De La Esperanza,21",24,-3.704403,40.4011039
171,440729.75,4472362.64,Arganzuela,http://dbpedia.org/resource/Arganzuela,2,Delicias ,http://dbpedia.org/resource/Las_Delicias,2-05,Calle De Embajadores,"Calle De Embajadores,97",24,-3.6984459,40.3997626
172,441146.63,4472482.09,Arganzuela,http://dbpedia.org/resource/Arganzuela,2,Palos de Moguer,http://www.wikidata.org/entity/Q521009,2-06,Calle De Bustamante,"Calle De Bustamante,1",24,-3.6935448,40.4008683
173,440396.07,4472189.13,Arganzuela,http://dbpedia.org/resource/Arganzuela,2,Acacias ,http://dbpedia.org/resource/Acacias,2-02,Paseo De La Esperanza,"Paseo De La Esperanza,59",24,-3.7023615,40.3981757
174,440054.62,4472107.63,Arganzuela,http://dbpedia.org/resource/Arganzuela,2,Acacias ,http://dbpedia.org/resource/Acacias,2-02,Paseo De Las Yeserias,"Paseo De Las Yeserias,8",27,-3.7063771,40.397417
175,440738.79,4471974.72,Arganzuela,http://dbpedia.org/resource/Arganzuela,2,Chopera ,http://dbpedia.org/resource/La_Chopera,2-03,Calle De Jaime El Conquistador,"Calle De Jaime El Conquistador,30",21,-3.6983033,40.3962687
176,441133.61,4471746.54,Arganzuela,http://dbpedia.org/resource/Arganzuela,2,Delicias ,http://dbpedia.org/resource/Las_Delicias,2-05,Calle De Alicante,"Calle De Alicante,3",24,-3.6936302,40.3942411
177,441092.45,4471442.79,Arganzuela,http://dbpedia.org/resource/Arganzuela,2,Delicias ,http://dbpedia.org/resource/Las_Delicias,2-05,Calle De Bolivar,"Calle De Bolivar,3",24,-3.694087,40.3915019
178,442391.73,4472711.75,Retiro ,http://dbpedia.org/resource/Retiro,3,Pacifico ,http://dbpedia.org/resource/Pacifico,3-01,Calle De Leon Gil De Palacio,"Calle De Leon Gil De Palacio,1",24,-3.6788939,40.4030242
179,443221.91,4472140.39,Puente de Vallecas,http://dbpedia.org/resource/Puente_de_Vallecas,3,San Diego ,http://dbpedia.org/resource/San_Diego,3-02,Autovia   M-30,"Autovia   M,30,s/n",24,-3.6690602,40.3979341
180,442636.16,4471722.03,Arganzuela,http://dbpedia.org/resource/Arganzuela,2,Atocha ,http://dbpedia.org/resource/Atocha,2-07,Calle De La Retama,"Calle De La Retama,5",24,-3.6759244,40.3941252
181,442595.87,4474391.99,Retiro ,http://dbpedia.org/resource/Retiro,3,Ibiza ,http://dbpedia.org/resource/Ibiza,3-04,Calle De Ibiza,"Calle De Ibiza,18",27,-3.67664,40.4181748
182,443541.21,4474444.72,Retiro ,http://dbpedia.org/resource/Retiro,3,Estrella ,http://dbpedia.org/resource/Estrella,3-03,Calle Del Alcalde Sainz De Baranda,"Calle Del Alcalde Sainz De Baranda,90",24,-3.6655023,40.4187145
183,443212.07,4475215.51,Salamanca ,http://dbpedia.org/resource/Salamanca,4,Goya ,http://dbpedia.org/resource/Goya,4-02,Calle De Hermosilla,"Calle De Hermosilla,135",24,-3.6694506,40.4256358
184,443563.66,4475253.54,Salamanca ,http://dbpedia.org/resource/Salamanca,4,Fuente del Berro,http://www.wikidata.org/entity/Q3814564,4-03,Paseo Del Marques De Zafra,"Paseo Del Marques De Zafra,24",24,-3.6653095,40.4260023
185,443883.24,4475147.45,Salamanca ,http://dbpedia.org/resource/Salamanca,4,Fuente del Berro,http://www.wikidata.org/entity/Q3814564,4-03,Glorieta Del Marques De Zafra,"Glorieta Del Marques De Zafra,frente 4",24,-3.661533,40.4250682
186,442466.16,4475602.3,Salamanca ,http://dbpedia.org/resource/Salamanca,4,Lista ,http://dbpedia.org/resource/Lista,4-05,Calle Del General Pardinas,"Calle Del General Pardinas,56",24,-3.6782783,40.429069
187,443691.7,4475711.36,Salamanca ,http://dbpedia.org/resource/Salamanca,4,Fuente del Berro,http://www.wikidata.org/entity/Q3814564,4-03,Calle De Alejandro Gonzalez,"Calle De Alejandro Gonzalez,1",24,-3.6638407,40.4301353
188,444111.11,4475822.61,Ciudad Lineal,http://dbpedia.org/resource/Ciudad_Lineal,5,Ventas ,http://dbpedia.org/resource/Ventas,5-01,Avenida De Daroca,"Avenida De Daroca,2",27,-3.6589062,40.4311658
189,444399.55,4476248.37,Ciudad Lineal,http://dbpedia.org/resource/Ciudad_Lineal,5,Concepcion ,http://dbpedia.org/resource/Concepcion,5-04,Calle De La Virgen De La Alegria,"Calle De La Virgen De La Alegria,18",24,-3.6555431,40.4350206
190,442030.24,4476194.79,Salamanca ,http://dbpedia.org/resource/Salamanca,4,Castellana ,http://dbpedia.org/resource/Castellana,4-06,Calle De Velazquez,"Calle De Velazquez,91",24,-3.6834711,40.4343761
191,442830.66,4476215.36,Salamanca ,http://dbpedia.org/resource/Salamanca,4,Guindalera,http://dbpedia.org/resource/La_Guindalera,4-04,Calle De Alonso Heredia,"Calle De Alonso Heredia,1",18,-3.6740365,40.4346168
192,443049.28,4475907.11,Salamanca ,http://dbpedia.org/resource/Salamanca,4,Guindalera,http://dbpedia.org/resource/La_Guindalera,4-04,Avenida De Los Toreros,"Avenida De Los Toreros,3",27,-3.6714315,40.431855
193,443540.74,4475977.26,Salamanca ,http://dbpedia.org/resource/Salamanca,4,Guindalera,http://dbpedia.org/resource/La_Guindalera,4-04,Avenida De Los Toreros,"Avenida De Los Toreros,47",24,-3.665644,40.4325204
194,442564.99,4476503.98,Salamanca ,http://dbpedia.org/resource/Salamanca,4,Guindalera,http://dbpedia.org/resource/La_Guindalera,4-04,Calle De Francisco Silvela,"Calle De Francisco Silvela,86",24,-3.6771947,40.4371986
195,442711.2,4476730.39,Chamartin ,http://dbpedia.org/resource/Chamartin,5,Prosperidad ,http://dbpedia.org/resource/Prosperidad,5-02,Calle Del Padre Indalecio Hernandez,"Calle Del Padre Indalecio Hernandez,1",24,-3.6754913,40.4392483
196,442749.2,4477268.2,Chamartin ,http://dbpedia.org/resource/Chamartin,5,Ciudad Jardin ,http://dbpedia.org/resource/Ciudad_Jardin,5-03,Calle De Suero De Quinones,"Calle De Suero De Quinones,2",24,-3.6750918,40.4440957
197,442506.78,4478097.54,Chamartin ,http://dbpedia.org/resource/Chamartin,5,El Viso ,http://dbpedia.org/resource/El_Viso,5-01,Avenida De Concha Espina,"Avenida De Concha Espina,s/n",24,-3.6780252,40.4515501
198,441342.11,4476060.39,Chamberi ,http://dbpedia.org/resource/Chamberi,7,Almagro ,http://dbpedia.org/resource/Almagro,7-04,Glorieta De Ruben Dario,"Glorieta De Ruben Dario,2",24,-3.6915713,40.4331172
199,439369.52,4476210.1,Chamberi ,http://dbpedia.org/resource/Chamberi,7,Gaztambide ,http://dbpedia.org/resource/Gaztambide,7-01,Calle De Fernando El Catolico,"Calle De Fernando El Catolico,61",27,-3.7148406,40.4343244
200,440231.49,4476129.61,Chamberi ,http://dbpedia.org/resource/Chamberi,7,Arapiles ,http://dbpedia.org/resource/Arapiles,7-02,Glorieta De Quevedo,"Glorieta De Quevedo,frente 4",24,-3.704671,40.4336617
201,440308.49,4476691.87,Chamberi ,http://dbpedia.org/resource/Chamberi,7,Rios Rosas ,http://dbpedia.org/resource/Rios_Rosas,7-05,Calle De Jose Abascal,"Calle De Jose Abascal,frente Al 2",24,-3.7038161,40.4387323
202,439947.59,4476965.21,Chamberi ,http://dbpedia.org/resource/Chamberi,7,Vallehermoso,http://www.wikidata.org/entity/Q635308,7-06,Calle De Santander,"Calle De Santander,s/n",24,-3.7080969,40.4411686
203,439411.53,4477034.58,Chamberi ,http://dbpedia.org/resource/Chamberi,7,Vallehermoso,http://www.wikidata.org/entity/Q635308,7-06,Calle Del General Ampudia,"Calle Del General Ampudia,2",24,-3.7144239,40.4417547
204,440286.36,4477683.16,Tetuan ,http://dbpedia.org/resource/Tetuan,6,Bellas Vistas,http://dbpedia.org/resource/Bellas_Vistas,6-01,Calle Del Doctor Santero,"Calle Del Doctor Santero,1",24,-3.7041702,40.4476606
205,440361.85,4478331.04,Tetuan ,http://dbpedia.org/resource/Tetuan,6,Bellas Vistas,http://dbpedia.org/resource/Bellas_Vistas,6-01,Calle De Navarra,"Calle De Navarra,1",24,-3.7033408,40.4535024
206,440732.11,4479138.12,Tetuan ,http://dbpedia.org/resource/Tetuan,6,Berruguete ,http://dbpedia.org/resource/Berruguete,6-06,Calle Del Marques De Viana,"Calle Del Marques De Viana,5",24,-3.6990499,40.4607994
207,440874.74,4479385.27,Tetuan ,http://dbpedia.org/resource/Tetuan,6,Valdeacederas,http://dbpedia.org/resource/Valdeacederas,6-05,Calle De Las Azucenas,"Calle De Las Azucenas,1",18,-3.6973907,40.463036
208,441615.82,4479765.37,Chamartin ,http://dbpedia.org/resource/Chamartin,5,Castilla ,http://dbpedia.org/resource/Castilla,5-06,Paseo De La Castellana,"Paseo De La Castellana,s/n",24,-3.6886852,40.4665125
209,441606.43,4479673.82,Chamartin ,http://dbpedia.org/resource/Chamartin,5,Nueva Espana ,http://dbpedia.org/resource/Nueva_Espana,5-05,Plaza De Castilla,"Plaza De Castilla,9",24,-3.6887875,40.4656872
210,440392.24,4474584.46,Centro ,http://dbpedia.org/resource/Centro,1,Sol ,http://dbpedia.org/resource/Sol,1-06,Calle De Las Tres Cruces,"Calle De Las Tres Cruces,9",27,-3.702631,40.4197538
211,440400.99,4474680.19,Centro ,http://dbpedia.org/resource/Centro,1,Ciudad Universitaria ,http://dbpedia.org/resource/Ciudad_Universitaria,1-05,Calle Del Desengano,"Calle Del Desengano,3",24,-3.7025369,40.4206168
212,439193.57,4472197.09,Carabanchel,http://dbpedia.org/resource/Carabanchel,1,San Isidro ,http://dbpedia.org/resource/San_Isidro,1-03,Glorieta Del Marques De Vadillo,"Glorieta Del Marques De Vadillo,9",24,-3.7165313,40.3981605
213,440574.99,4471162.08,Usera,http://dbpedia.org/resource/Usera,2,Moscardo ,http://dbpedia.org/resource/Moscardo,2-05,Calle De Antonio Lopez,"Calle De Antonio Lopez,129",24,-3.7001575,40.3889363
